{
"type": "FeatureCollection",
"name": "strand_protection",
"crs": { "type": "name", "properties": { "name": "urn:ogc:def:crs:OGC:1.3:CRS84" } },
"features": [
{ "type": "Feature", "properties": { "layer_id": "strand_protection", "label": "Strand protection", "tooltip_title": "Source layer: Strand protection", "tooltip_body": "Current stage-1 strand-protection no-go layer.<br>Clipped to Bornholm DAGI Landsdel landmass." }, "geometry": { "type": "MultiPolygon", "coordinates": [ [ [ [ 14.772093775331514, 55.054265646722001, 0.0 ], [ 14.765710816438753, 55.057695699485272, 0.0 ], [ 14.762737385030666, 55.058018475354061, 0.0 ], [ 14.761605155889617, 55.05848200558998, 0.0 ], [ 14.763664518263804, 55.06061058350096, 0.0 ], [ 14.770554507782341, 55.058863662292104, 0.0 ], [ 14.774534143331124, 55.056627237769185, 0.0 ], [ 14.777415806569206, 55.055495771925457, 0.0 ], [ 14.775976051823731, 55.054708070381352, 0.0 ], [ 14.776085576529933, 55.054346353940439, 0.0 ], [ 14.777192349858986, 55.054066380415257, 0.0 ], [ 14.775882194460447, 55.052853973527014, 0.0 ], [ 14.772093775331514, 55.054265646722001, 0.0 ] ] ], [ [ [ 14.734187058335991, 55.071239003431565, 0.0 ], [ 14.732207345169696, 55.072981388197235, 0.0 ], [ 14.732870621081359, 55.073014386017917, 0.0 ], [ 14.736933564850277, 55.069912262092082, 0.0 ], [ 14.736367301789686, 55.068872215351689, 0.0 ], [ 14.737110397313469, 55.068241390317461, 0.0 ], [ 14.736507207746836, 55.067925855348832, 0.0 ], [ 14.735703201239181, 55.068644488204434, 0.0 ], [ 14.735801306813446, 55.069746819327975, 0.0 ], [ 14.734145283912955, 55.070733740773008, 0.0 ], [ 14.734187058335991, 55.071239003431565, 0.0 ] ] ], [ [ [ 14.726042765219649, 55.078949518949116, 0.0 ], [ 14.724607480300026, 55.080953270636492, 0.0 ], [ 14.722381364621381, 55.081206359972427, 0.0 ], [ 14.722340683966927, 55.081777194802555, 0.0 ], [ 14.723451678053962, 55.082674102989372, 0.0 ], [ 14.729821828876068, 55.080406550674589, 0.0 ], [ 14.734482546992325, 55.07587897427377, 0.0 ], [ 14.730078736424673, 55.074904698131583, 0.0 ], [ 14.72808741516438, 55.077088371692852, 0.0 ], [ 14.725656547823791, 55.078738159682281, 0.0 ], [ 14.726042765219649, 55.078949518949116, 0.0 ] ] ], [ [ [ 14.720653520909369, 55.080380417074913, 0.0 ], [ 14.719091960259403, 55.080931930933488, 0.0 ], [ 14.719241854912996, 55.08112646272091, 0.0 ], [ 14.721153248344788, 55.080957659319601, 0.0 ], [ 14.720653520909369, 55.080380417074913, 0.0 ] ] ], [ [ [ 14.710771404448218, 55.08146002171619, 0.0 ], [ 14.705430363019673, 55.083484139580641, 0.0 ], [ 14.703288819960937, 55.086542604202045, 0.0 ], [ 14.701861349284119, 55.087834744986644, 0.0 ], [ 14.700612508796251, 55.088443394516581, 0.0 ], [ 14.69955978425806, 55.087952444400649, 0.0 ], [ 14.695394247122513, 55.09056215166364, 0.0 ], [ 14.696390356285312, 55.091452635137962, 0.0 ], [ 14.699585807980553, 55.091505474950324, 0.0 ], [ 14.700274402453752, 55.090653954873964, 0.0 ], [ 14.701575810630098, 55.090749253724262, 0.0 ], [ 14.701597368518971, 55.091023181562853, 0.0 ], [ 14.703979361659902, 55.09035405640072, 0.0 ], [ 14.70618915406553, 55.088947125315187, 0.0 ], [ 14.709026208227071, 55.085510036861685, 0.0 ], [ 14.714028928940344, 55.082754608512076, 0.0 ], [ 14.713669232120784, 55.08250561560628, 0.0 ], [ 14.71095949533974, 55.082953473724352, 0.0 ], [ 14.710869132635404, 55.082577110746314, 0.0 ], [ 14.711789194251335, 55.082409286365788, 0.0 ], [ 14.711649037899713, 55.082188909222062, 0.0 ], [ 14.713137948110305, 55.082257594402485, 0.0 ], [ 14.715257775074871, 55.081564158376594, 0.0 ], [ 14.715065449702283, 55.081276707416094, 0.0 ], [ 14.713698986631858, 55.08161941853011, 0.0 ], [ 14.71206415487365, 55.081254417201094, 0.0 ], [ 14.710771404448218, 55.08146002171619, 0.0 ] ] ], [ [ [ 14.706451344742186, 55.165485010756846, 0.0 ], [ 14.704906599240088, 55.174172953348439, 0.0 ], [ 14.70388324856857, 55.175058990151484, 0.0 ], [ 14.702696501851161, 55.177193573902798, 0.0 ], [ 14.702347218440071, 55.178646818624728, 0.0 ], [ 14.702347659140798, 55.179590736874559, 0.0 ], [ 14.704120773977275, 55.179787113561197, 0.0 ], [ 14.706860498038353, 55.173998412879087, 0.0 ], [ 14.710027080158889, 55.174568827366706, 0.0 ], [ 14.711008070065398, 55.171613755331535, 0.0 ], [ 14.71048305382998, 55.170054658090045, 0.0 ], [ 14.71095606368473, 55.168891563900665, 0.0 ], [ 14.711141932435188, 55.164580414344385, 0.0 ], [ 14.710119767272337, 55.162324978059246, 0.0 ], [ 14.708985079929604, 55.160998566834188, 0.0 ], [ 14.709500469670683, 55.158099751342512, 0.0 ], [ 14.708637358607463, 55.158078206362923, 0.0 ], [ 14.707557422483145, 55.156356412465115, 0.0 ], [ 14.710332489317514, 55.154979912006247, 0.0 ], [ 14.710574138997297, 55.154360926200042, 0.0 ], [ 14.709374450815847, 55.150892885795059, 0.0 ], [ 14.709793610126361, 55.149635120380282, 0.0 ], [ 14.709422330333455, 55.148592642891224, 0.0 ], [ 14.711582192769361, 55.144297827276681, 0.0 ], [ 14.711723196597147, 55.14332574705324, 0.0 ], [ 14.710380713129632, 55.143334723872883, 0.0 ], [ 14.71038161724103, 55.143149712631512, 0.0 ], [ 14.711370244147149, 55.142549362312899, 0.0 ], [ 14.711855080604558, 55.142713735022028, 0.0 ], [ 14.711716110648723, 55.140232252985996, 0.0 ], [ 14.712698876799903, 55.138097556028711, 0.0 ], [ 14.712890005728001, 55.135997629833859, 0.0 ], [ 14.712508103272325, 55.131475746484632, 0.0 ], [ 14.711445251495487, 55.127903742540994, 0.0 ], [ 14.708568207610949, 55.125105689946167, 0.0 ], [ 14.707445201837338, 55.123054711679877, 0.0 ], [ 14.704604776847397, 55.121405986189586, 0.0 ], [ 14.704366993962765, 55.121625625287194, 0.0 ], [ 14.702933061520069, 55.121343430675054, 0.0 ], [ 14.703070786897701, 55.120852553010238, 0.0 ], [ 14.704423035289492, 55.120741667431105, 0.0 ], [ 14.70584727601485, 55.117774392565742, 0.0 ], [ 14.701940644675254, 55.118491299425166, 0.0 ], [ 14.701163584547944, 55.11836594315939, 0.0 ], [ 14.700976467079126, 55.11805016669377, 0.0 ], [ 14.698842096744283, 55.121497308804081, 0.0 ], [ 14.69918156207034, 55.122182525828634, 0.0 ], [ 14.70314334597558, 55.124915389163633, 0.0 ], [ 14.705968026453133, 55.128005274448476, 0.0 ], [ 14.70699170409554, 55.13017378063293, 0.0 ], [ 14.707554778358574, 55.133709597597708, 0.0 ], [ 14.70677339581958, 55.143049670470056, 0.0 ], [ 14.705789693228608, 55.146430691694263, 0.0 ], [ 14.704233724843972, 55.148174593132261, 0.0 ], [ 14.705924896263749, 55.15078753333114, 0.0 ], [ 14.706267506942245, 55.153708117231666, 0.0 ], [ 14.705960037036306, 55.156019688688168, 0.0 ], [ 14.704366499265342, 55.160460328306058, 0.0 ], [ 14.706451344742186, 55.165485010756846, 0.0 ] ] ], [ [ [ 14.714478519744603, 55.225202972135044, 0.0 ], [ 14.720740915641837, 55.233295496435865, 0.0 ], [ 14.720996445607145, 55.235496640208623, 0.0 ], [ 14.721553456617041, 55.235457304069165, 0.0 ], [ 14.721609823619353, 55.236400053953552, 0.0 ], [ 14.723135807523075, 55.23830496789364, 0.0 ], [ 14.727958064052038, 55.241521829049425, 0.0 ], [ 14.7342385951731, 55.247121516766668, 0.0 ], [ 14.735067591452262, 55.24683562531493, 0.0 ], [ 14.736785451238221, 55.247074983302554, 0.0 ], [ 14.738599198857163, 55.246667586827634, 0.0 ], [ 14.738422349701727, 55.245573649852901, 0.0 ], [ 14.736090990696166, 55.243509458910772, 0.0 ], [ 14.735094661427425, 55.244122681626045, 0.0 ], [ 14.736029262125395, 55.245378127745695, 0.0 ], [ 14.735203429380539, 55.245575379632392, 0.0 ], [ 14.733824586514009, 55.244649452331274, 0.0 ], [ 14.732423563628087, 55.244605536921824, 0.0 ], [ 14.733118197409292, 55.244199476113991, 0.0 ], [ 14.732510773645812, 55.243927634578107, 0.0 ], [ 14.73187526972165, 55.242366005864092, 0.0 ], [ 14.732276311108699, 55.240784197876138, 0.0 ], [ 14.731027101779979, 55.239235604631872, 0.0 ], [ 14.727081429623254, 55.236530754911755, 0.0 ], [ 14.726120960031356, 55.234520951364111, 0.0 ], [ 14.725300498105947, 55.233947957424441, 0.0 ], [ 14.724558027322878, 55.231422177185401, 0.0 ], [ 14.72406386107038, 55.231384157701982, 0.0 ], [ 14.724102867823058, 55.230934128305911, 0.0 ], [ 14.720185012570175, 55.225771435464985, 0.0 ], [ 14.715862476311806, 55.221169129233871, 0.0 ], [ 14.715568833863038, 55.218521299602585, 0.0 ], [ 14.714612222215353, 55.216436884523063, 0.0 ], [ 14.7139697827481, 55.215643279982913, 0.0 ], [ 14.712827998327223, 55.215629660577385, 0.0 ], [ 14.712527556974088, 55.211946068850494, 0.0 ], [ 14.71195725442, 55.211190763994573, 0.0 ], [ 14.711139906370391, 55.21116698708871, 0.0 ], [ 14.711406477684353, 55.210794282259485, 0.0 ], [ 14.710919043994132, 55.209945518722094, 0.0 ], [ 14.710291150579307, 55.210016458626917, 0.0 ], [ 14.710065596995053, 55.208870383702298, 0.0 ], [ 14.710602093190722, 55.208837052379025, 0.0 ], [ 14.710972960404918, 55.205923534142741, 0.0 ], [ 14.709897111782748, 55.203099842728342, 0.0 ], [ 14.709327362982945, 55.202065394572678, 0.0 ], [ 14.708853513990785, 55.201994619101612, 0.0 ], [ 14.706214439977137, 55.196551907136637, 0.0 ], [ 14.70668532809121, 55.194197916222841, 0.0 ], [ 14.708051283061632, 55.192281731472264, 0.0 ], [ 14.708442122914391, 55.190819585545633, 0.0 ], [ 14.708198608254449, 55.190359542575791, 0.0 ], [ 14.705351815714922, 55.190090652822995, 0.0 ], [ 14.705015308500201, 55.190455352768062, 0.0 ], [ 14.703700659735535, 55.190307198488661, 0.0 ], [ 14.703722149872071, 55.191168917832293, 0.0 ], [ 14.701979027631326, 55.193343860089826, 0.0 ], [ 14.702080066772114, 55.195251010184712, 0.0 ], [ 14.701321250422886, 55.19660882526378, 0.0 ], [ 14.7035740464071, 55.200967609413475, 0.0 ], [ 14.705014519842525, 55.202797402655321, 0.0 ], [ 14.706246231072038, 55.205771264392745, 0.0 ], [ 14.706082029107977, 55.209305068629675, 0.0 ], [ 14.706396201413497, 55.211019934054377, 0.0 ], [ 14.706848897238896, 55.211524465332197, 0.0 ], [ 14.706432836454393, 55.211863012579862, 0.0 ], [ 14.706797412421238, 55.211600434903374, 0.0 ], [ 14.707281339890281, 55.211825857606804, 0.0 ], [ 14.707444433010751, 55.21210328918999, 0.0 ], [ 14.706579152841442, 55.212044877536826, 0.0 ], [ 14.707658439270965, 55.212235067790935, 0.0 ], [ 14.70861864273332, 55.213301121720029, 0.0 ], [ 14.708739450194047, 55.214672335564636, 0.0 ], [ 14.710962465071113, 55.218692400418952, 0.0 ], [ 14.711407405988076, 55.221558695618818, 0.0 ], [ 14.711100734173549, 55.222820988032396, 0.0 ], [ 14.711871281644733, 55.222325161954501, 0.0 ], [ 14.712305776416997, 55.222897820920522, 0.0 ], [ 14.711778857802964, 55.222687130432128, 0.0 ], [ 14.711384511438329, 55.222866966046467, 0.0 ], [ 14.714478519744603, 55.225202972135044, 0.0 ] ], [ [ 14.716172206614656, 55.226987057697094, 0.0 ], [ 14.715852294445515, 55.226610855166257, 0.0 ], [ 14.716245731012899, 55.226510547652033, 0.0 ], [ 14.716472737241023, 55.226835151458523, 0.0 ], [ 14.716172206614656, 55.226987057697094, 0.0 ] ], [ [ 14.705932553230554, 55.204855327962797, 0.0 ], [ 14.706123192643499, 55.20457982169269, 0.0 ], [ 14.706011335259594, 55.204852711243831, 0.0 ], [ 14.705932553230554, 55.204855327962797, 0.0 ] ], [ [ 14.706591440298663, 55.206605055769636, 0.0 ], [ 14.707033075310289, 55.206701414981609, 0.0 ], [ 14.706990919420919, 55.206953237587832, 0.0 ], [ 14.706488595150784, 55.206918381769093, 0.0 ], [ 14.706591440298663, 55.206605055769636, 0.0 ] ], [ [ 14.706717115526327, 55.207210647773621, 0.0 ], [ 14.706336600075995, 55.207489241176241, 0.0 ], [ 14.706390535013229, 55.207199355790813, 0.0 ], [ 14.706717115526327, 55.207210647773621, 0.0 ] ], [ [ 14.7062450735033, 55.208354041898524, 0.0 ], [ 14.706507285737263, 55.207714791022632, 0.0 ], [ 14.706658560413555, 55.208350219887947, 0.0 ], [ 14.7062450735033, 55.208354041898524, 0.0 ] ], [ [ 14.706782990113821, 55.209623828561895, 0.0 ], [ 14.706414573135715, 55.209657032870552, 0.0 ], [ 14.706428274515012, 55.209149860580197, 0.0 ], [ 14.706786081074155, 55.209138623278804, 0.0 ], [ 14.706782990113821, 55.209623828561895, 0.0 ] ], [ [ 14.708338949390081, 55.212718054370903, 0.0 ], [ 14.707796393931353, 55.211703411318631, 0.0 ], [ 14.708679262216958, 55.212678395649235, 0.0 ], [ 14.708338949390081, 55.212718054370903, 0.0 ] ], [ [ 14.707037651782244, 55.211558887583521, 0.0 ], [ 14.70700837223227, 55.211252464225623, 0.0 ], [ 14.707335597947127, 55.21170088704767, 0.0 ], [ 14.707037651782244, 55.211558887583521, 0.0 ] ], [ [ 14.712417146003474, 55.223039724520731, 0.0 ], [ 14.712679908753143, 55.222906947658338, 0.0 ], [ 14.713942512257455, 55.224236758729887, 0.0 ], [ 14.713582804491077, 55.224260579690409, 0.0 ], [ 14.712417146003474, 55.223039724520731, 0.0 ] ], [ [ 14.711909245386481, 55.221151327259108, 0.0 ], [ 14.712714485406263, 55.222628761277043, 0.0 ], [ 14.712500287684108, 55.222756376641762, 0.0 ], [ 14.711518098176031, 55.221339920832285, 0.0 ], [ 14.711909245386481, 55.221151327259108, 0.0 ] ], [ [ 14.711008358097406, 55.218360518745818, 0.0 ], [ 14.710840262353507, 55.218019052862132, 0.0 ], [ 14.711233014031796, 55.217938920006603, 0.0 ], [ 14.711421695329554, 55.21828369451574, 0.0 ], [ 14.711008358097406, 55.218360518745818, 0.0 ] ], [ [ 14.709705588510465, 55.21585513661563, 0.0 ], [ 14.709597716319804, 55.215580821863036, 0.0 ], [ 14.709618798968863, 55.215568768850808, 0.0 ], [ 14.710042180879428, 55.215763529032607, 0.0 ], [ 14.709705588510465, 55.21585513661563, 0.0 ] ], [ [ 14.710282401244138, 55.216200574685651, 0.0 ], [ 14.709777187637984, 55.216028281973841, 0.0 ], [ 14.710150039394248, 55.215959789635271, 0.0 ], [ 14.710282401244138, 55.216200574685651, 0.0 ] ], [ [ 14.708877369641016, 55.213947528206575, 0.0 ], [ 14.709263343691573, 55.214285833731438, 0.0 ], [ 14.708982602514377, 55.214304180524302, 0.0 ], [ 14.708877369641016, 55.213947528206575, 0.0 ] ] ], [ [ [ 14.809992322745474, 55.269682160518968, 0.0 ], [ 14.809173741912566, 55.270997261091416, 0.0 ], [ 14.808714510112113, 55.270745503424521, 0.0 ], [ 14.806911038070528, 55.271175980854153, 0.0 ], [ 14.807344072309585, 55.271470874941969, 0.0 ], [ 14.806010174984861, 55.272898314945522, 0.0 ], [ 14.807393329387242, 55.272754822281961, 0.0 ], [ 14.807076238560883, 55.272562090682214, 0.0 ], [ 14.80746630416647, 55.272587677280029, 0.0 ], [ 14.807534285695738, 55.272200123365359, 0.0 ], [ 14.809373816808664, 55.272309302074824, 0.0 ], [ 14.808913786783407, 55.271959633722069, 0.0 ], [ 14.809683364829374, 55.271926651936283, 0.0 ], [ 14.810399431638965, 55.271094248116967, 0.0 ], [ 14.810035616750397, 55.270857033076489, 0.0 ], [ 14.81036791301894, 55.270504478889627, 0.0 ], [ 14.810824275837456, 55.270622284797589, 0.0 ], [ 14.810749037747886, 55.270162924447327, 0.0 ], [ 14.811114126313418, 55.270357716069007, 0.0 ], [ 14.810875694291443, 55.270157317311771, 0.0 ], [ 14.811355969628432, 55.270075793454602, 0.0 ], [ 14.81099661929982, 55.269776234603725, 0.0 ], [ 14.811444671938052, 55.269586493028008, 0.0 ], [ 14.811237437391238, 55.269144832097901, 0.0 ], [ 14.811681747691521, 55.269449407447318, 0.0 ], [ 14.811615851161772, 55.269038356349881, 0.0 ], [ 14.811986739322442, 55.26938631771052, 0.0 ], [ 14.812394922154875, 55.269229769178864, 0.0 ], [ 14.811938201579814, 55.268872080795759, 0.0 ], [ 14.812322275925956, 55.268723561418085, 0.0 ], [ 14.81222303830306, 55.267629995894211, 0.0 ], [ 14.813146372563409, 55.267452148858688, 0.0 ], [ 14.813317656632879, 55.267626236655005, 0.0 ], [ 14.813923141873445, 55.26744151279766, 0.0 ], [ 14.814601068145624, 55.26599027333998, 0.0 ], [ 14.815215589249641, 55.265729832596421, 0.0 ], [ 14.81492740420121, 55.265402460356697, 0.0 ], [ 14.815671552411525, 55.264314084976654, 0.0 ], [ 14.816263298759305, 55.264137566580708, 0.0 ], [ 14.815194995020757, 55.262581254902358, 0.0 ], [ 14.814396311793196, 55.262492581283048, 0.0 ], [ 14.814968077239334, 55.262742448687185, 0.0 ], [ 14.815351188898983, 55.263878548993389, 0.0 ], [ 14.813175984036505, 55.266906766363292, 0.0 ], [ 14.812207849702187, 55.266740599752723, 0.0 ], [ 14.811914311628367, 55.267139629044962, 0.0 ], [ 14.811026315216047, 55.267288655044652, 0.0 ], [ 14.810697185696885, 55.267829677856895, 0.0 ], [ 14.809592671089236, 55.266915898831556, 0.0 ], [ 14.808574642923444, 55.268281767454624, 0.0 ], [ 14.807725849266225, 55.267937306570992, 0.0 ], [ 14.80745925332422, 55.268256289951886, 0.0 ], [ 14.807248105874514, 55.269116601194227, 0.0 ], [ 14.809992322745474, 55.269682160518968, 0.0 ] ] ], [ [ [ 14.808227508929935, 55.272440899308755, 0.0 ], [ 14.808113640597483, 55.272511590367074, 0.0 ], [ 14.808123356524169, 55.272527330835239, 0.0 ], [ 14.808227508929935, 55.272440899308755, 0.0 ] ] ], [ [ [ 14.739185553050202, 55.251118678017939, 0.0 ], [ 14.741697252496843, 55.253419775552224, 0.0 ], [ 14.74589156502376, 55.25991717152548, 0.0 ], [ 14.746145304879191, 55.261366868488217, 0.0 ], [ 14.747663027350141, 55.263059577486956, 0.0 ], [ 14.748632107032044, 55.263485593815759, 0.0 ], [ 14.748658511854989, 55.263947499265875, 0.0 ], [ 14.75250670887781, 55.268227400147204, 0.0 ], [ 14.752622125996735, 55.268637387418181, 0.0 ], [ 14.75177187655194, 55.269278417611247, 0.0 ], [ 14.75240618495285, 55.270286143170559, 0.0 ], [ 14.752145376258561, 55.27106950323828, 0.0 ], [ 14.753192531717024, 55.271649865293405, 0.0 ], [ 14.753154354422652, 55.272083497280903, 0.0 ], [ 14.752648702389127, 55.272032783111165, 0.0 ], [ 14.752413221949539, 55.272338892441255, 0.0 ], [ 14.75283657786909, 55.272993050774403, 0.0 ], [ 14.752470310205542, 55.273196382084357, 0.0 ], [ 14.753614042894645, 55.274087400937667, 0.0 ], [ 14.754151748374504, 55.274060835129106, 0.0 ], [ 14.753849490739402, 55.274383040474852, 0.0 ], [ 14.755814163555051, 55.276279055968779, 0.0 ], [ 14.754881224050786, 55.277243882084228, 0.0 ], [ 14.755899248586923, 55.276657582615684, 0.0 ], [ 14.757439700701607, 55.277663901106983, 0.0 ], [ 14.756980880428479, 55.278589348051625, 0.0 ], [ 14.755086960932381, 55.279064657538349, 0.0 ], [ 14.755032276878778, 55.277742287731186, 0.0 ], [ 14.755499366744365, 55.277721801950221, 0.0 ], [ 14.754819204823333, 55.277550489938626, 0.0 ], [ 14.754675291081698, 55.279632572177704, 0.0 ], [ 14.753727539413585, 55.280302913727439, 0.0 ], [ 14.754371455956061, 55.280316383071167, 0.0 ], [ 14.752700607595465, 55.28101166539529, 0.0 ], [ 14.752250169570251, 55.281616015606858, 0.0 ], [ 14.751489540630066, 55.285229821818902, 0.0 ], [ 14.75176587355895, 55.287240948569902, 0.0 ], [ 14.75263554425336, 55.287697301788988, 0.0 ], [ 14.752217692412717, 55.287996093718519, 0.0 ], [ 14.756475652169208, 55.290454515941654, 0.0 ], [ 14.7574242028467, 55.290204695725784, 0.0 ], [ 14.760057946442441, 55.290785495458486, 0.0 ], [ 14.759952780680997, 55.291165227790152, 0.0 ], [ 14.760868669847495, 55.291460759009667, 0.0 ], [ 14.760684764160235, 55.291867930019578, 0.0 ], [ 14.762057043816917, 55.292384666382738, 0.0 ], [ 14.761497780770831, 55.292640713500845, 0.0 ], [ 14.762901748704301, 55.292822914082556, 0.0 ], [ 14.762762374943648, 55.293461071187451, 0.0 ], [ 14.763259142539411, 55.293574204279743, 0.0 ], [ 14.762827356713647, 55.293593773232608, 0.0 ], [ 14.763347482420404, 55.293684825348279, 0.0 ], [ 14.76265011969331, 55.29376906230268, 0.0 ], [ 14.763502418915676, 55.293843758147986, 0.0 ], [ 14.762996021890082, 55.294111122669449, 0.0 ], [ 14.764574735815508, 55.294515571202645, 0.0 ], [ 14.764186257511845, 55.294764969666417, 0.0 ], [ 14.764818371115195, 55.294813084299683, 0.0 ], [ 14.76461838641668, 55.295747466817787, 0.0 ], [ 14.765406436950785, 55.295532947660767, 0.0 ], [ 14.765528463972471, 55.295908676983274, 0.0 ], [ 14.766894507792886, 55.296450171747388, 0.0 ], [ 14.767585740835385, 55.297056393268122, 0.0 ], [ 14.768476890694576, 55.296903802591721, 0.0 ], [ 14.768401500491599, 55.297054649555299, 0.0 ], [ 14.76847019721793, 55.297106037129197, 0.0 ], [ 14.769326439257627, 55.296722344580225, 0.0 ], [ 14.769838970696211, 55.297072712144441, 0.0 ], [ 14.769289524632002, 55.297576085803719, 0.0 ], [ 14.769481682231746, 55.297936079188695, 0.0 ], [ 14.770726220426942, 55.297978183223996, 0.0 ], [ 14.770310284098201, 55.298253199753802, 0.0 ], [ 14.771090747980294, 55.298183345124556, 0.0 ], [ 14.77120583881511, 55.29849800459661, 0.0 ], [ 14.771816795495686, 55.298277203595802, 0.0 ], [ 14.771570418960591, 55.298592976685207, 0.0 ], [ 14.772480849692181, 55.298495157166791, 0.0 ], [ 14.772361791543137, 55.2989543391216, 0.0 ], [ 14.773035015729624, 55.298925925817159, 0.0 ], [ 14.773213655774276, 55.299232618975694, 0.0 ], [ 14.774625498168412, 55.298533074887096, 0.0 ], [ 14.774773617900387, 55.298774264794353, 0.0 ], [ 14.775147390918553, 55.298628549974651, 0.0 ], [ 14.775895530347562, 55.297548301838184, 0.0 ], [ 14.776207398161702, 55.297842768340203, 0.0 ], [ 14.777461975663089, 55.296925106556216, 0.0 ], [ 14.777941108434645, 55.296987282472834, 0.0 ], [ 14.777478232297128, 55.296609133297061, 0.0 ], [ 14.777867555463352, 55.29645610874126, 0.0 ], [ 14.777332361816233, 55.296556588054891, 0.0 ], [ 14.778553775462504, 55.295880885273959, 0.0 ], [ 14.778786403578012, 55.29428390292609, 0.0 ], [ 14.778595560327396, 55.293572267073067, 0.0 ], [ 14.777157238107652, 55.292243772184477, 0.0 ], [ 14.777224988474437, 55.291877139443429, 0.0 ], [ 14.77801804148748, 55.291908633864246, 0.0 ], [ 14.777152490458626, 55.291411117631931, 0.0 ], [ 14.777361591731564, 55.290698394471477, 0.0 ], [ 14.778631764328637, 55.289665362305989, 0.0 ], [ 14.777913523910675, 55.289452259220482, 0.0 ], [ 14.777314828186363, 55.290047102125492, 0.0 ], [ 14.77342846200742, 55.289562146034179, 0.0 ], [ 14.773261396508106, 55.287951548650845, 0.0 ], [ 14.772749795892191, 55.288144117381457, 0.0 ], [ 14.771834809994608, 55.289096219956235, 0.0 ], [ 14.771396024556841, 55.291144260023572, 0.0 ], [ 14.771729044962784, 55.292346313895301, 0.0 ], [ 14.773267319282503, 55.294102320901054, 0.0 ], [ 14.772813271420382, 55.295057303884356, 0.0 ], [ 14.769294154556169, 55.293788374623105, 0.0 ], [ 14.767467014140934, 55.292348371712642, 0.0 ], [ 14.766727851973128, 55.29124629996199, 0.0 ], [ 14.763081572038578, 55.288834328577359, 0.0 ], [ 14.75803856890013, 55.287322146676779, 0.0 ], [ 14.756605121970194, 55.285286323729181, 0.0 ], [ 14.756941863256609, 55.282495201132676, 0.0 ], [ 14.759173589716132, 55.281902176886128, 0.0 ], [ 14.760932264967513, 55.28042597491514, 0.0 ], [ 14.762092547536369, 55.277674188723815, 0.0 ], [ 14.758913655087502, 55.277499003159711, 0.0 ], [ 14.758113508046625, 55.276679966379795, 0.0 ], [ 14.761726370831536, 55.27668530919297, 0.0 ], [ 14.759331450294598, 55.274686631723675, 0.0 ], [ 14.759093295992844, 55.27299788126016, 0.0 ], [ 14.757978030341317, 55.272188590815688, 0.0 ], [ 14.758251352226276, 55.27119695507001, 0.0 ], [ 14.757948578401738, 55.270250510223136, 0.0 ], [ 14.757061222906957, 55.269516156280062, 0.0 ], [ 14.757186542363097, 55.26769698103557, 0.0 ], [ 14.753243281981687, 55.262452238999273, 0.0 ], [ 14.750741852085264, 55.260271920131153, 0.0 ], [ 14.746767543368041, 55.253517022378659, 0.0 ], [ 14.74468104379446, 55.250807579384706, 0.0 ], [ 14.742961399819663, 55.249388614382624, 0.0 ], [ 14.739185553050202, 55.251118678017939, 0.0 ] ] ], [ [ [ 14.794798679353734, 55.283088419554353, 0.0 ], [ 14.793975418415503, 55.283922306377832, 0.0 ], [ 14.794295258631694, 55.284103005021734, 0.0 ], [ 14.793221453162628, 55.284597347511408, 0.0 ], [ 14.793805628804149, 55.284832739101887, 0.0 ], [ 14.793757386052389, 55.284475413553146, 0.0 ], [ 14.794769960026155, 55.284515087751025, 0.0 ], [ 14.794898534091896, 55.284188287563339, 0.0 ], [ 14.795277705935648, 55.284577054840092, 0.0 ], [ 14.795754002326944, 55.284105683863295, 0.0 ], [ 14.794851643176028, 55.282243331246619, 0.0 ], [ 14.796107979166601, 55.282155797156811, 0.0 ], [ 14.795572510287633, 55.280931737804771, 0.0 ], [ 14.793021884356627, 55.282506936688158, 0.0 ], [ 14.793132898876756, 55.283090682407867, 0.0 ], [ 14.794798679353734, 55.283088419554353, 0.0 ] ] ], [ [ [ 14.754689620951941, 55.289621316431145, 0.0 ], [ 14.754642894535147, 55.289637163571783, 0.0 ], [ 14.754629104675203, 55.28967537487538, 0.0 ], [ 14.754689620951941, 55.289621316431145, 0.0 ] ] ], [ [ [ 14.778115652643974, 55.292088544800308, 0.0 ], [ 14.778026822258175, 55.292031636743495, 0.0 ], [ 14.777921438931951, 55.292035334993372, 0.0 ], [ 14.778115652643974, 55.292088544800308, 0.0 ] ] ], [ [ [ 14.765544866390078, 55.296019256039017, 0.0 ], [ 14.765717793839524, 55.296091978339341, 0.0 ], [ 14.765798349682177, 55.296037317187192, 0.0 ], [ 14.765544866390078, 55.296019256039017, 0.0 ] ] ], [ [ [ 14.77740520709421, 55.29726755837838, 0.0 ], [ 14.777418066375329, 55.297159626324245, 0.0 ], [ 14.777241647797881, 55.297291982102642, 0.0 ], [ 14.77740520709421, 55.29726755837838, 0.0 ] ] ], [ [ [ 14.769160521941075, 55.297769925146433, 0.0 ], [ 14.769273271679932, 55.297729185423066, 0.0 ], [ 14.769231269825832, 55.297663619682218, 0.0 ], [ 14.769160521941075, 55.297769925146433, 0.0 ] ] ], [ [ [ 14.770828492334346, 55.298440276840111, 0.0 ], [ 14.770993811741972, 55.298476548686963, 0.0 ], [ 14.770815607251615, 55.298359056786467, 0.0 ], [ 14.770828492334346, 55.298440276840111, 0.0 ] ] ], [ [ [ 14.771731814116697, 55.298650176069735, 0.0 ], [ 14.77174078131336, 55.29860785500437, 0.0 ], [ 14.771620522309171, 55.298623219951629, 0.0 ], [ 14.771731814116697, 55.298650176069735, 0.0 ] ] ], [ [ [ 15.111875563674367, 55.01149304408235, 0.0 ], [ 15.114593344289556, 55.012674212750341, 0.0 ], [ 15.114692690034914, 55.012452318051594, 0.0 ], [ 15.112863898249243, 55.011458186749785, 0.0 ], [ 15.108134634848051, 55.009438221574527, 0.0 ], [ 15.102015933425049, 55.004465374372565, 0.0 ], [ 15.096229886501241, 55.001040264829001, 0.0 ], [ 15.097271047971232, 55.000138374151867, 0.0 ], [ 15.09519270000728, 54.998657410934456, 0.0 ], [ 15.093978292702632, 54.999581310186365, 0.0 ], [ 15.092771850758785, 54.998734854882265, 0.0 ], [ 15.093640513964329, 54.997586179604625, 0.0 ], [ 15.093324556221713, 54.997862007019009, 0.0 ], [ 15.091202902929959, 54.995856258003535, 0.0 ], [ 15.090321578982474, 54.996490742571197, 0.0 ], [ 15.089781599834778, 54.996112255258993, 0.0 ], [ 15.088464056284238, 54.994951281730629, 0.0 ], [ 15.089045678152162, 54.993799330253552, 0.0 ], [ 15.083887571917824, 54.990376980426106, 0.0 ], [ 15.07841653852101, 54.988105261801316, 0.0 ], [ 15.075691268017659, 54.987686461920511, 0.0 ], [ 15.072388165202062, 54.987762888190431, 0.0 ], [ 15.045346607087232, 54.994038485831148, 0.0 ], [ 15.032921397423063, 54.995538080409851, 0.0 ], [ 15.029197112987685, 54.995173889004931, 0.0 ], [ 15.027927953063912, 54.994685539954943, 0.0 ], [ 15.021770496365342, 54.994956818369857, 0.0 ], [ 15.012504812564918, 54.996886702835091, 0.0 ], [ 15.009422903324944, 54.996874225465461, 0.0 ], [ 15.006476487670335, 54.997786824728955, 0.0 ], [ 15.001666833585277, 54.998418873123505, 0.0 ], [ 14.997770701742759, 54.998432381779658, 0.0 ], [ 14.991806395820205, 54.999921033472333, 0.0 ], [ 14.990787861179538, 55.000020348147771, 0.0 ], [ 14.989386560624101, 54.999527167456947, 0.0 ], [ 14.987379597762045, 55.000208377294278, 0.0 ], [ 14.984654417835294, 55.000149923635398, 0.0 ], [ 14.98103615402461, 55.001702712387626, 0.0 ], [ 14.972587215710451, 55.00379295738216, 0.0 ], [ 14.9682027342363, 55.004206587806479, 0.0 ], [ 14.964766629573232, 55.003894552518766, 0.0 ], [ 14.961798043139567, 55.0041857233443, 0.0 ], [ 14.955211248704124, 55.006413858190975, 0.0 ], [ 14.946493319857773, 55.011203819841484, 0.0 ], [ 14.934939495661588, 55.015447751388521, 0.0 ], [ 14.930677941038944, 55.016007598289285, 0.0 ], [ 14.925118905464183, 55.014591743773636, 0.0 ], [ 14.924430447231147, 55.014642971731156, 0.0 ], [ 14.922740342956086, 55.016391045098167, 0.0 ], [ 14.920473923699166, 55.017884579850396, 0.0 ], [ 14.917579205532178, 55.019441849681293, 0.0 ], [ 14.917222049394525, 55.019189665893741, 0.0 ], [ 14.912513345265992, 55.021533577765574, 0.0 ], [ 14.909822689563519, 55.02241335932176, 0.0 ], [ 14.905421322895801, 55.022912461794803, 0.0 ], [ 14.901601749214173, 55.023733627196798, 0.0 ], [ 14.886327132763927, 55.031480164528503, 0.0 ], [ 14.881679019569534, 55.032838816249765, 0.0 ], [ 14.876718181573677, 55.033601688565319, 0.0 ], [ 14.872485171564573, 55.035405390377363, 0.0 ], [ 14.867661568169591, 55.036229349175251, 0.0 ], [ 14.866682355743846, 55.036857327677339, 0.0 ], [ 14.862869744919808, 55.038173914895218, 0.0 ], [ 14.855252108994488, 55.039491695503671, 0.0 ], [ 14.852248738684462, 55.040301187909904, 0.0 ], [ 14.851228938743256, 55.04020722676178, 0.0 ], [ 14.849246483226164, 55.04059155152612, 0.0 ], [ 14.844393375033411, 55.042214627581473, 0.0 ], [ 14.841335658784317, 55.042718030307249, 0.0 ], [ 14.83837116083307, 55.042844434582683, 0.0 ], [ 14.835432053040554, 55.04254849847959, 0.0 ], [ 14.833532927757922, 55.041994983277519, 0.0 ], [ 14.832225430573569, 55.0409441511813, 0.0 ], [ 14.821806492656938, 55.044479844922741, 0.0 ], [ 14.817934482871696, 55.046127099991203, 0.0 ], [ 14.814915803333632, 55.046771444839365, 0.0 ], [ 14.808127901103751, 55.050614683083793, 0.0 ], [ 14.808928860045222, 55.050318963599018, 0.0 ], [ 14.808985545350737, 55.050356220158569, 0.0 ], [ 14.808110826864674, 55.050656911098443, 0.0 ], [ 14.80688057651324, 55.050829853342897, 0.0 ], [ 14.806741925733405, 55.050984036749057, 0.0 ], [ 14.804403739739216, 55.051322678439291, 0.0 ], [ 14.80101023172727, 55.05276950039886, 0.0 ], [ 14.796119080071634, 55.05368200446491, 0.0 ], [ 14.790897302353372, 55.054146360911304, 0.0 ], [ 14.781716058780754, 55.052975336439317, 0.0 ], [ 14.781833583059392, 55.05391639872537, 0.0 ], [ 14.786111220564992, 55.054693690074764, 0.0 ], [ 14.78622748578819, 55.055236236569279, 0.0 ], [ 14.783245978182547, 55.055266920259392, 0.0 ], [ 14.783762114899229, 55.056042687893104, 0.0 ], [ 14.790178596839601, 55.056743168746387, 0.0 ], [ 14.793541371013646, 55.056736200046316, 0.0 ], [ 14.797676108622918, 55.056278639655993, 0.0 ], [ 14.800190559079427, 55.055829112468402, 0.0 ], [ 14.800039370103159, 55.055517757193044, 0.0 ], [ 14.801097435117979, 55.055364652459012, 0.0 ], [ 14.801243533129492, 55.055624000693975, 0.0 ], [ 14.803339034754117, 55.055143625390933, 0.0 ], [ 14.806927143137068, 55.053738399492545, 0.0 ], [ 14.811808175215956, 55.052630910219698, 0.0 ], [ 14.814856939082052, 55.050755697255163, 0.0 ], [ 14.815424452393925, 55.050039295316232, 0.0 ], [ 14.81750618287078, 55.049138272819739, 0.0 ], [ 14.820399473655119, 55.048429077915806, 0.0 ], [ 14.831101758463445, 55.044460914691228, 0.0 ], [ 14.832957906282312, 55.045063187179281, 0.0 ], [ 14.835963278843062, 55.04546562333605, 0.0 ], [ 14.843423208443733, 55.045386082722978, 0.0 ], [ 14.847374060746308, 55.044421888235505, 0.0 ], [ 14.850893192750725, 55.04317272619361, 0.0 ], [ 14.852025217277468, 55.043234358451606, 0.0 ], [ 14.858966043662358, 55.041586630839149, 0.0 ], [ 14.860555246003997, 55.041558420452404, 0.0 ], [ 14.863863682243235, 55.040886947281415, 0.0 ], [ 14.869943179470187, 55.038786221970788, 0.0 ], [ 14.876460798009658, 55.037305331715061, 0.0 ], [ 14.878611929532408, 55.036163126995866, 0.0 ], [ 14.881165293647244, 55.035907757319215, 0.0 ], [ 14.885914062584201, 55.034840891559881, 0.0 ], [ 14.888990695282237, 55.033779222345586, 0.0 ], [ 14.904734430429871, 55.025868210198375, 0.0 ], [ 14.907779479693472, 55.02584584642144, 0.0 ], [ 14.911853765256843, 55.02511741507977, 0.0 ], [ 14.914734406862825, 55.024193701178817, 0.0 ], [ 14.912254223421971, 55.023745531107537, 0.0 ], [ 14.908799586541951, 55.023808548162563, 0.0 ], [ 14.90891276765676, 55.022910271235993, 0.0 ], [ 14.91172681430038, 55.022423001236717, 0.0 ], [ 14.912588008099343, 55.021941172741954, 0.0 ], [ 14.913099695036102, 55.021979146868013, 0.0 ], [ 14.913279058519159, 55.022509487084868, 0.0 ], [ 14.914408384871855, 55.022083362488395, 0.0 ], [ 14.914329204685538, 55.021850555108522, 0.0 ], [ 14.915146100409986, 55.022014963926935, 0.0 ], [ 14.915661988832376, 55.021488679870565, 0.0 ], [ 14.917791760998634, 55.020912164338398, 0.0 ], [ 14.918709981933443, 55.020235726061401, 0.0 ], [ 14.918977242160148, 55.020427472261588, 0.0 ], [ 14.916805194732788, 55.021552802559405, 0.0 ], [ 14.917558978204754, 55.023023845911815, 0.0 ], [ 14.921980806367735, 55.021169568026437, 0.0 ], [ 14.923573981761264, 55.021028811910206, 0.0 ], [ 14.925650445010584, 55.02039418619286, 0.0 ], [ 14.927184987425564, 55.019294519500605, 0.0 ], [ 14.928876362106191, 55.018662783385082, 0.0 ], [ 14.934282784571193, 55.018404535148413, 0.0 ], [ 14.937376994935077, 55.017704100510592, 0.0 ], [ 14.942301210421364, 55.016175040004526, 0.0 ], [ 14.949709517783274, 55.013078244199392, 0.0 ], [ 14.949300506790882, 55.012583495983364, 0.0 ], [ 14.950309601167605, 55.012453629095639, 0.0 ], [ 14.950195600082081, 55.012251332182558, 0.0 ], [ 14.951550291365947, 55.012261059706489, 0.0 ], [ 14.953298188470757, 55.011488784406708, 0.0 ], [ 14.956090105112946, 55.01003031861277, 0.0 ], [ 14.955996198317889, 55.009211079624734, 0.0 ], [ 14.957042611727463, 55.00902768751569, 0.0 ], [ 14.956893012896872, 55.007728372460768, 0.0 ], [ 14.961842542186877, 55.007007176212475, 0.0 ], [ 14.962069437934142, 55.007702922740506, 0.0 ], [ 14.964275324284671, 55.007056437662307, 0.0 ], [ 14.969016224885314, 55.007077905618544, 0.0 ], [ 14.968429552282167, 55.004714602315062, 0.0 ], [ 14.972299904781192, 55.004426984341173, 0.0 ], [ 14.972907789121443, 55.006702762327656, 0.0 ], [ 14.977124312503339, 55.005986688062713, 0.0 ], [ 14.977688621678872, 55.005847100227641, 0.0 ], [ 14.977254011016816, 55.004183573146214, 0.0 ], [ 14.978514533072792, 55.00407677413687, 0.0 ], [ 14.97838515162436, 55.00356872450719, 0.0 ], [ 14.979299420818927, 55.003571210986962, 0.0 ], [ 14.979191422122293, 55.003176035036866, 0.0 ], [ 14.979872069301676, 55.00310552456942, 0.0 ], [ 14.979950735694265, 55.003399968507345, 0.0 ], [ 14.981940620372368, 55.002876441912186, 0.0 ], [ 14.985420209674633, 55.001290598672888, 0.0 ], [ 14.987464427460162, 55.001187991040467, 0.0 ], [ 14.987355077119297, 55.000890312347877, 0.0 ], [ 14.989750615937464, 55.000828061570445, 0.0 ], [ 14.990962334249243, 55.000448046773066, 0.0 ], [ 14.99110414142203, 55.000849052991761, 0.0 ], [ 14.993353024680225, 55.000839949155171, 0.0 ], [ 14.99518433938599, 55.000102381766382, 0.0 ], [ 14.995908667314652, 55.000192354902538, 0.0 ], [ 14.996480885182802, 55.00202717705114, 0.0 ], [ 14.996929222798316, 55.001973191477404, 0.0 ], [ 14.99796808963629, 55.001667245466876, 0.0 ], [ 14.998184542098889, 55.001000765023647, 0.0 ], [ 14.998964726893314, 55.001299464649257, 0.0 ], [ 15.00031556442563, 55.001303992156174, 0.0 ], [ 15.004706899743933, 55.000816002538528, 0.0 ], [ 15.004623704749962, 54.999043431002193, 0.0 ], [ 15.005288628762587, 54.999029833685007, 0.0 ], [ 15.005335546359863, 54.998580110764586, 0.0 ], [ 15.00626805922381, 54.998615717616453, 0.0 ], [ 15.006221834486901, 54.999059545596872, 0.0 ], [ 15.008202692261477, 54.999125538529029, 0.0 ], [ 15.008446822979508, 55.000937305335647, 0.0 ], [ 15.008893071852487, 55.00095628731016, 0.0 ], [ 15.011455222168109, 55.000220134496445, 0.0 ], [ 15.011202485853918, 54.998197027397048, 0.0 ], [ 15.01255843626037, 54.997928914690938, 0.0 ], [ 15.015436037104209, 54.998159071461913, 0.0 ], [ 15.016230798758674, 54.99876935048178, 0.0 ], [ 15.017303757411685, 54.998793697681961, 0.0 ], [ 15.017209435528118, 54.998053726726766, 0.0 ], [ 15.020604506367215, 54.998312491845418, 0.0 ], [ 15.022781295467791, 54.997879973412367, 0.0 ], [ 15.026730305679894, 54.997695934998717, 0.0 ], [ 15.029702309805788, 54.998158777194838, 0.0 ], [ 15.040252748599389, 54.997580265236984, 0.0 ], [ 15.040047299876951, 54.997030746333692, 0.0 ], [ 15.047860920551217, 54.996073486073648, 0.0 ], [ 15.059214239629435, 54.993781190867658, 0.0 ], [ 15.066192395675488, 54.992022966626962, 0.0 ], [ 15.067032348911274, 54.991962945189506, 0.0 ], [ 15.067891590274179, 54.992953946620972, 0.0 ], [ 15.069194664948251, 54.993644926076108, 0.0 ], [ 15.071483448334451, 54.994044418477948, 0.0 ], [ 15.073482353634921, 54.9934670095234, 0.0 ], [ 15.073645783478009, 54.992665421002542, 0.0 ], [ 15.077993519513821, 54.993332855247282, 0.0 ], [ 15.078224240198333, 54.992808209836952, 0.0 ], [ 15.084425262849823, 54.993989172675754, 0.0 ], [ 15.085738999331866, 54.994588741373242, 0.0 ], [ 15.087732179731903, 54.996401620422077, 0.0 ], [ 15.090721830944176, 54.997836814971137, 0.0 ], [ 15.095684794568038, 55.001485316820073, 0.0 ], [ 15.097019347631067, 55.002708998183302, 0.0 ], [ 15.09678792589771, 55.002910702530222, 0.0 ], [ 15.104103619255833, 55.007818702683686, 0.0 ], [ 15.106055800648571, 55.010195026439618, 0.0 ], [ 15.105071829450049, 55.01173661079352, 0.0 ], [ 15.108964034954978, 55.013385514475324, 0.0 ], [ 15.109312443203098, 55.012580113370724, 0.0 ], [ 15.111875563674367, 55.01149304408235, 0.0 ] ], [ [ 14.91411294592382, 55.021206733020954, 0.0 ], [ 14.915231662460068, 55.020876872116375, 0.0 ], [ 14.915425930091494, 55.021025415863484, 0.0 ], [ 14.914872447675585, 55.021341891774952, 0.0 ], [ 14.91411294592382, 55.021206733020954, 0.0 ] ], [ [ 14.905597839319286, 55.023362878053625, 0.0 ], [ 14.906610749869861, 55.023508814709956, 0.0 ], [ 14.907382306030643, 55.022979795455811, 0.0 ], [ 14.90853436251952, 55.025037111696854, 0.0 ], [ 14.907591190344473, 55.024319080963522, 0.0 ], [ 14.906374526053744, 55.024618616018628, 0.0 ], [ 14.905597839319286, 55.023362878053625, 0.0 ] ], [ [ 14.90224649494043, 55.025696032801349, 0.0 ], [ 14.902246494940426, 55.025696032801349, 0.0 ], [ 14.9021890684919, 55.025602037744278, 0.0 ], [ 14.90224649494043, 55.025696032801349, 0.0 ] ] ], [ [ [ 15.007332658259001, 55.186206683420167, 0.0 ], [ 15.007326136583536, 55.186028439934091, 0.0 ], [ 15.006953707583632, 55.185992199100738, 0.0 ], [ 15.007332658259001, 55.186206683420167, 0.0 ] ] ], [ [ [ 15.006697672313468, 55.186438155966627, 0.0 ], [ 15.006834604853243, 55.186354984009292, 0.0 ], [ 15.006437503894222, 55.186241001551402, 0.0 ], [ 15.006697672313468, 55.186438155966627, 0.0 ] ] ], [ [ [ 14.933284484900295, 55.209404305329187, 0.0 ], [ 14.929055432708003, 55.211883788298294, 0.0 ], [ 14.926306983512299, 55.21297266435014, 0.0 ], [ 14.924357344745804, 55.214377197774375, 0.0 ], [ 14.924002382560619, 55.21508903903387, 0.0 ], [ 14.922909534575362, 55.215538258697066, 0.0 ], [ 14.924330619844792, 55.216652359663165, 0.0 ], [ 14.922909534575359, 55.215538258697066, 0.0 ], [ 14.920553839035961, 55.216293614154196, 0.0 ], [ 14.91926295651794, 55.217101760516897, 0.0 ], [ 14.915811796547251, 55.217922461349573, 0.0 ], [ 14.916245605601596, 55.218254376985584, 0.0 ], [ 14.915913557216893, 55.218392460578649, 0.0 ], [ 14.915049056552958, 55.218002577551466, 0.0 ], [ 14.911777853967578, 55.21809321628767, 0.0 ], [ 14.905302559233583, 55.219925572811782, 0.0 ], [ 14.901462425638353, 55.220595866243109, 0.0 ], [ 14.900640762163659, 55.221038062704977, 0.0 ], [ 14.896735654513179, 55.221587628652152, 0.0 ], [ 14.895118042727267, 55.222361073610116, 0.0 ], [ 14.889615011790269, 55.224004863981861, 0.0 ], [ 14.88332492959991, 55.225231996950299, 0.0 ], [ 14.879741858924771, 55.226972469308784, 0.0 ], [ 14.877908975172636, 55.228958267643165, 0.0 ], [ 14.875255630460284, 55.230659891407043, 0.0 ], [ 14.874237734037676, 55.232767829944869, 0.0 ], [ 14.872166820118617, 55.233844876832968, 0.0 ], [ 14.87045935549614, 55.235671146642005, 0.0 ], [ 14.863693683536093, 55.237732949355085, 0.0 ], [ 14.859910713917298, 55.237897662878041, 0.0 ], [ 14.855361928091636, 55.238962648645916, 0.0 ], [ 14.852648418591459, 55.239273491539102, 0.0 ], [ 14.847805595019082, 55.241631839873961, 0.0 ], [ 14.846691003468242, 55.242770003912305, 0.0 ], [ 14.848928191681741, 55.243436361864987, 0.0 ], [ 14.84982222871392, 55.242795219498426, 0.0 ], [ 14.850394446969231, 55.243153881694319, 0.0 ], [ 14.849676423586244, 55.243667468681942, 0.0 ], [ 14.851493076042889, 55.244323713794358, 0.0 ], [ 14.851562392650761, 55.243505859395988, 0.0 ], [ 14.852619544848066, 55.242928706813537, 0.0 ], [ 14.853949605611135, 55.242825588993533, 0.0 ], [ 14.853704305875032, 55.242596211406507, 0.0 ], [ 14.854200091925883, 55.242191189486313, 0.0 ], [ 14.854543709419906, 55.242302433580711, 0.0 ], [ 14.854550489854542, 55.241761411190254, 0.0 ], [ 14.856274397722624, 55.241927902056453, 0.0 ], [ 14.857083256621836, 55.241600736349234, 0.0 ], [ 14.856917290691744, 55.241295725396924, 0.0 ], [ 14.857177344656677, 55.241450813382542, 0.0 ], [ 14.858790430239214, 55.240922696155039, 0.0 ], [ 14.861673606451628, 55.240555250653969, 0.0 ], [ 14.862125792539064, 55.240848746822252, 0.0 ], [ 14.863296664081776, 55.240639706781138, 0.0 ], [ 14.864843803695825, 55.241176530271403, 0.0 ], [ 14.864652548968728, 55.240905904837291, 0.0 ], [ 14.865610676631784, 55.240991231577539, 0.0 ], [ 14.8658004061915, 55.240603159643079, 0.0 ], [ 14.866511950172606, 55.240592518927969, 0.0 ], [ 14.866841278658281, 55.239622261187478, 0.0 ], [ 14.868404086498197, 55.239975214446901, 0.0 ], [ 14.868664611472749, 55.239468307043659, 0.0 ], [ 14.869899824425469, 55.239083821192892, 0.0 ], [ 14.869621774567543, 55.238821369669246, 0.0 ], [ 14.87072098140202, 55.238833736700904, 0.0 ], [ 14.870553524091733, 55.238570778637275, 0.0 ], [ 14.87109273191979, 55.23897991380661, 0.0 ], [ 14.872473379016567, 55.238580907304559, 0.0 ], [ 14.872198094668487, 55.238695385277765, 0.0 ], [ 14.872224706480088, 55.238984158629933, 0.0 ], [ 14.872286196213674, 55.238984669537324, 0.0 ], [ 14.873090688132427, 55.238379688387518, 0.0 ], [ 14.872874855926138, 55.238112377098204, 0.0 ], [ 14.875614528847485, 55.237365752209016, 0.0 ], [ 14.875497729618903, 55.236210271571586, 0.0 ], [ 14.876155837359736, 55.235438632938674, 0.0 ], [ 14.87736744630811, 55.235150967308144, 0.0 ], [ 14.877759727700596, 55.23542183407816, 0.0 ], [ 14.877763101372764, 55.234733115229645, 0.0 ], [ 14.87832602599447, 55.235180608710166, 0.0 ], [ 14.878618103829767, 55.235134304281779, 0.0 ], [ 14.878087177215464, 55.23435079802362, 0.0 ], [ 14.878774174662675, 55.234538104636577, 0.0 ], [ 14.879594755020166, 55.234350818474972, 0.0 ], [ 14.87918263603099, 55.234222016500517, 0.0 ], [ 14.87942230313196, 55.233977619469577, 0.0 ], [ 14.879949175955014, 55.234034639313677, 0.0 ], [ 14.879968025890152, 55.23346532259287, 0.0 ], [ 14.879176211962031, 55.233424054270145, 0.0 ], [ 14.879359744054625, 55.232632303580957, 0.0 ], [ 14.881134457763885, 55.230962999623991, 0.0 ], [ 14.882026246950405, 55.230967493894035, 0.0 ], [ 14.882265703545738, 55.229910061644468, 0.0 ], [ 14.883040126207584, 55.22978825338199, 0.0 ], [ 14.882999268229392, 55.229199126754736, 0.0 ], [ 14.884067202239338, 55.228294599954417, 0.0 ], [ 14.886211657249804, 55.227493454936031, 0.0 ], [ 14.891516503041895, 55.226465460952575, 0.0 ], [ 14.8940366691773, 55.225621236846003, 0.0 ], [ 14.894966350336073, 55.225910626362385, 0.0 ], [ 14.894810426142611, 55.225490928966082, 0.0 ], [ 14.895954759044411, 55.22555811300461, 0.0 ], [ 14.896507791904982, 55.225000787596777, 0.0 ], [ 14.897965487505088, 55.224982507662396, 0.0 ], [ 14.898437534654994, 55.22477006633482, 0.0 ], [ 14.898317322002505, 55.224351520158962, 0.0 ], [ 14.898858671305822, 55.224560684464883, 0.0 ], [ 14.899319702040374, 55.223973767659416, 0.0 ], [ 14.899955937277849, 55.224298493763982, 0.0 ], [ 14.900183813018105, 55.223792216781348, 0.0 ], [ 14.901980624408743, 55.223654140006396, 0.0 ], [ 14.904592716089089, 55.222698326664585, 0.0 ], [ 14.907168332795923, 55.222536062334243, 0.0 ], [ 14.908791821981191, 55.221808955099391, 0.0 ], [ 14.911059811592462, 55.221436195703021, 0.0 ], [ 14.91316839217331, 55.220619846242514, 0.0 ], [ 14.914060191288328, 55.220522869499582, 0.0 ], [ 14.916438919098042, 55.221202483923108, 0.0 ], [ 14.916505451516642, 55.220748739637507, 0.0 ], [ 14.921702606942292, 55.219581753571433, 0.0 ], [ 14.923691343207691, 55.21833447669281, 0.0 ], [ 14.924569611333752, 55.218270166574413, 0.0 ], [ 14.928014272961681, 55.21699813604549, 0.0 ], [ 14.928143557346711, 55.216590648946479, 0.0 ], [ 14.928572968930093, 55.216925286894337, 0.0 ], [ 14.92823574897068, 55.216453998471259, 0.0 ], [ 14.928823280592452, 55.216412799108014, 0.0 ], [ 14.928420934850008, 55.215848185624189, 0.0 ], [ 14.929805181651677, 55.214854511469461, 0.0 ], [ 14.933501989614324, 55.213377412422098, 0.0 ], [ 14.935743245407529, 55.211685745958192, 0.0 ], [ 14.939268398835955, 55.210528462593359, 0.0 ], [ 14.94507993951135, 55.209282958808821, 0.0 ], [ 14.947806742025762, 55.20959122603854, 0.0 ], [ 14.950196985951647, 55.210453475251875, 0.0 ], [ 14.952519837709595, 55.210669104816972, 0.0 ], [ 14.955248187867618, 55.211446360096602, 0.0 ], [ 14.95701057985524, 55.213110944095966, 0.0 ], [ 14.95823321595978, 55.213656556372463, 0.0 ], [ 14.95964702041651, 55.213942920239909, 0.0 ], [ 14.960247640790891, 55.213725731763894, 0.0 ], [ 14.960598085359599, 55.214113550391446, 0.0 ], [ 14.961719439613178, 55.214194730791753, 0.0 ], [ 14.963353125449066, 55.213936720882728, 0.0 ], [ 14.966050051077739, 55.214339921648744, 0.0 ], [ 14.966341297817435, 55.213908707584814, 0.0 ], [ 14.964736439235722, 55.213413664366449, 0.0 ], [ 14.966072917718174, 55.213421784727167, 0.0 ], [ 14.966474560188042, 55.213051343327912, 0.0 ], [ 14.966853848932796, 55.213448524522491, 0.0 ], [ 14.96851003870449, 55.212848781946192, 0.0 ], [ 14.968671608600356, 55.212461146358166, 0.0 ], [ 14.968318258183515, 55.211391802067915, 0.0 ], [ 14.96781819003168, 55.211222475849034, 0.0 ], [ 14.966620929088212, 55.211589677297212, 0.0 ], [ 14.960453410078339, 55.211017617298708, 0.0 ], [ 14.956160526896173, 55.208621338692573, 0.0 ], [ 14.951814569792951, 55.207550398193327, 0.0 ], [ 14.946278482268971, 55.206623851158632, 0.0 ], [ 14.943775690770753, 55.206680464003945, 0.0 ], [ 14.938639512186739, 55.207657925221412, 0.0 ], [ 14.933284484900295, 55.209404305329187, 0.0 ] ], [ [ 14.946536299898543, 55.20787416175407, 0.0 ], [ 14.946060183659043, 55.20836123751738, 0.0 ], [ 14.944429602244718, 55.208216183268114, 0.0 ], [ 14.944370480142116, 55.208013794334477, 0.0 ], [ 14.946536299898543, 55.20787416175407, 0.0 ] ], [ [ 14.946559206120165, 55.207724174616992, 0.0 ], [ 14.947828517770153, 55.2080596734504, 0.0 ], [ 14.94863283321858, 55.208279518165263, 0.0 ], [ 14.947660702871786, 55.20826623198414, 0.0 ], [ 14.946559206120165, 55.207724174616992, 0.0 ] ], [ [ 14.870437915135119, 55.238208427881474, 0.0 ], [ 14.867544312822641, 55.239262936838955, 0.0 ], [ 14.864279121974091, 55.23953521461479, 0.0 ], [ 14.863673021867006, 55.238720437831184, 0.0 ], [ 14.864653067095505, 55.238091901854609, 0.0 ], [ 14.866675182552477, 55.238840108846922, 0.0 ], [ 14.87024410910832, 55.238006966215309, 0.0 ], [ 14.870437915135119, 55.238208427881474, 0.0 ] ], [ [ 14.860755543529251, 55.240154518070462, 0.0 ], [ 14.858397386413202, 55.240367611903579, 0.0 ], [ 14.85592005933799, 55.24086702597176, 0.0 ], [ 14.855976748471349, 55.240269566505191, 0.0 ], [ 14.85658738544076, 55.24008789517535, 0.0 ], [ 14.857572595744612, 55.240152669842061, 0.0 ], [ 14.8598578683699, 55.239544917071505, 0.0 ], [ 14.861270659650753, 55.239793276329593, 0.0 ], [ 14.861564360235874, 55.239309959076607, 0.0 ], [ 14.862146682831174, 55.239250096620751, 0.0 ], [ 14.862924397174735, 55.239536597353691, 0.0 ], [ 14.860755543529251, 55.240154518070462, 0.0 ] ] ], [ [ [ 14.880535805391169, 55.233812473231794, 0.0 ], [ 14.880536042278424, 55.233813302600225, 0.0 ], [ 14.880538618241278, 55.233812769564778, 0.0 ], [ 14.880535805391169, 55.233812473231794, 0.0 ] ] ], [ [ [ 14.878828672569485, 55.234625524659357, 0.0 ], [ 14.87887128433402, 55.234569421430066, 0.0 ], [ 14.878774209917401, 55.234580738274303, 0.0 ], [ 14.878828672569485, 55.234625524659357, 0.0 ] ] ], [ [ [ 14.878018389896683, 55.235107264186979, 0.0 ], [ 14.877991043423828, 55.235108450842844, 0.0 ], [ 14.878024833814424, 55.235112863780422, 0.0 ], [ 14.878018389896683, 55.235107264186979, 0.0 ] ] ], [ [ [ 14.863332658627964, 55.240753295534049, 0.0 ], [ 14.863310701096896, 55.240759613029965, 0.0 ], [ 14.863334204950187, 55.240753228930203, 0.0 ], [ 14.863332658627964, 55.240753295534049, 0.0 ] ] ], [ [ [ 14.863431152161459, 55.240789059387261, 0.0 ], [ 14.863539997952465, 55.240878069917542, 0.0 ], [ 14.863618611147237, 55.240860751305433, 0.0 ], [ 14.863431152161459, 55.240789059387261, 0.0 ] ] ], [ [ [ 14.862781315227798, 55.240819826322785, 0.0 ], [ 14.862905598154788, 55.240846713252424, 0.0 ], [ 14.862964211451137, 55.240830785058321, 0.0 ], [ 14.862781315227798, 55.240819826322785, 0.0 ] ] ], [ [ [ 14.85418871010822, 55.242310526544124, 0.0 ], [ 14.854187978235286, 55.242309334739659, 0.0 ], [ 14.854187751867768, 55.242310959300603, 0.0 ], [ 14.85418871010822, 55.242310526544124, 0.0 ] ] ], [ [ [ 14.853780429810611, 55.242884177861661, 0.0 ], [ 14.853781773931594, 55.242883663072348, 0.0 ], [ 14.853781588172016, 55.242883268622272, 0.0 ], [ 14.853780429810611, 55.242884177861661, 0.0 ] ] ], [ [ [ 14.826030521143517, 55.251505509837088, 0.0 ], [ 14.823966017940483, 55.252314231146151, 0.0 ], [ 14.82450646496992, 55.252700148476585, 0.0 ], [ 14.826481636308721, 55.251926540625412, 0.0 ], [ 14.826030521143517, 55.251505509837088, 0.0 ] ] ], [ [ [ 14.812723370565159, 55.260448516551072, 0.0 ], [ 14.811803362524971, 55.260879171698406, 0.0 ], [ 14.810668689834031, 55.262131570190647, 0.0 ], [ 14.813755902454247, 55.262388399801502, 0.0 ], [ 14.814146887620071, 55.261942914633416, 0.0 ], [ 14.8159291735906, 55.261983580351362, 0.0 ], [ 14.816242071708876, 55.2616705626141, 0.0 ], [ 14.812723370565159, 55.260448516551072, 0.0 ] ] ], [ [ [ 14.81274750810322, 55.267584201261037, 0.0 ], [ 14.81276586029488, 55.267665228044869, 0.0 ], [ 14.812807565651157, 55.26767224709922, 0.0 ], [ 14.81274750810322, 55.267584201261037, 0.0 ] ] ], [ [ [ 14.813153492590569, 55.26757293550726, 0.0 ], [ 14.81296034564771, 55.267757069687818, 0.0 ], [ 14.813033132182722, 55.267757994630031, 0.0 ], [ 14.813153492590569, 55.26757293550726, 0.0 ] ] ], [ [ [ 14.811479174176695, 55.26942281320521, 0.0 ], [ 14.811479526541387, 55.269424046364847, 0.0 ], [ 14.811480356429996, 55.269424829818561, 0.0 ], [ 14.811479174176695, 55.26942281320521, 0.0 ] ] ], [ [ [ 14.811511871963553, 55.269476899523042, 0.0 ], [ 14.811538747765626, 55.269535547897348, 0.0 ], [ 14.811550374646455, 55.269540339230495, 0.0 ], [ 14.811511871963553, 55.269476899523042, 0.0 ] ] ], [ [ [ 15.114919325405303, 55.013091070840112, 0.0 ], [ 15.116482914948909, 55.013456041308238, 0.0 ], [ 15.117525160482097, 55.014158508986732, 0.0 ], [ 15.118573101130435, 55.014159325361184, 0.0 ], [ 15.119176899388258, 55.01415979778816, 0.0 ], [ 15.114692690034914, 55.012452318051594, 0.0 ], [ 15.114919325405303, 55.013091070840112, 0.0 ] ] ], [ [ [ 15.118800836444144, 55.016277271712973, 0.0 ], [ 15.118078999872695, 55.017367441362097, 0.0 ], [ 15.11674349092935, 55.01767304857897, 0.0 ], [ 15.115409692058963, 55.019340600782826, 0.0 ], [ 15.116189864452023, 55.019346087124752, 0.0 ], [ 15.115783941362041, 55.020647294668542, 0.0 ], [ 15.116532144437311, 55.02188379150396, 0.0 ], [ 15.116667629314838, 55.023356615718562, 0.0 ], [ 15.11710491342089, 55.023323417077513, 0.0 ], [ 15.117187121976464, 55.024485352863024, 0.0 ], [ 15.117665680318508, 55.024547674507993, 0.0 ], [ 15.117749632504932, 55.023215641487766, 0.0 ], [ 15.116794143478501, 55.020144428140178, 0.0 ], [ 15.119233105239239, 55.016486753035139, 0.0 ], [ 15.11999932938954, 55.016483710444398, 0.0 ], [ 15.119268620940494, 55.016276254460678, 0.0 ], [ 15.119023589999047, 55.014635433690074, 0.0 ], [ 15.11956449180512, 55.014635855424608, 0.0 ], [ 15.119439178699672, 55.014399637387811, 0.0 ], [ 15.119176899388258, 55.01415979778816, 0.0 ], [ 15.117525160482097, 55.014158508986732, 0.0 ], [ 15.118676726257503, 55.014635157182482, 0.0 ], [ 15.118253646863572, 55.014634816984007, 0.0 ], [ 15.118800836444144, 55.016277271712973, 0.0 ] ] ], [ [ [ 15.113541070023459, 55.03057160756515, 0.0 ], [ 15.108437830825256, 55.0352057487613, 0.0 ], [ 15.107482540766711, 55.037654447272736, 0.0 ], [ 15.107666588514437, 55.038629670281424, 0.0 ], [ 15.108117745773274, 55.039102573109872, 0.0 ], [ 15.108340581892888, 55.038927946348636, 0.0 ], [ 15.108182418666726, 55.039366548706873, 0.0 ], [ 15.11170717795579, 55.040468363159199, 0.0 ], [ 15.112037544210265, 55.041458151764807, 0.0 ], [ 15.113722502476756, 55.042219353493003, 0.0 ], [ 15.112701357029236, 55.043002459930719, 0.0 ], [ 15.113627988342882, 55.043375333341423, 0.0 ], [ 15.112566334775099, 55.044352590500161, 0.0 ], [ 15.116195532893427, 55.045896474084458, 0.0 ], [ 15.118781398902071, 55.047469872303871, 0.0 ], [ 15.119145035133013, 55.047880058891216, 0.0 ], [ 15.118183746890386, 55.049823997540052, 0.0 ], [ 15.118936355492217, 55.052125945766676, 0.0 ], [ 15.121025599497166, 55.053192182049415, 0.0 ], [ 15.120759408294212, 55.05522481445098, 0.0 ], [ 15.12474148288179, 55.057664373043181, 0.0 ], [ 15.12717090122611, 55.056860463934072, 0.0 ], [ 15.123458433387105, 55.053627336484176, 0.0 ], [ 15.123883378382969, 55.053456378181174, 0.0 ], [ 15.127625787935699, 55.056722007196541, 0.0 ], [ 15.127840032833232, 55.056232901308555, 0.0 ], [ 15.127086659465032, 55.05609010102377, 0.0 ], [ 15.126616691834672, 55.055603727334592, 0.0 ], [ 15.127077941129306, 55.055451192628205, 0.0 ], [ 15.126322477951041, 55.055309376006285, 0.0 ], [ 15.12408466406429, 55.053228216491718, 0.0 ], [ 15.122409779221407, 55.049527651586111, 0.0 ], [ 15.123154842000337, 55.047898128348635, 0.0 ], [ 15.122614844941355, 55.046469116091721, 0.0 ], [ 15.117856585409669, 55.043361017775311, 0.0 ], [ 15.112941326548359, 55.041413779922493, 0.0 ], [ 15.111667290389976, 55.040019161926537, 0.0 ], [ 15.111777983084858, 55.039532373049852, 0.0 ], [ 15.11158130039199, 55.04011731763358, 0.0 ], [ 15.111276746603126, 55.039457504858724, 0.0 ], [ 15.111144141968122, 55.039813931506544, 0.0 ], [ 15.111136452520121, 55.039482852711792, 0.0 ], [ 15.109901477731016, 55.039715641453647, 0.0 ], [ 15.109447453700289, 55.039458974943358, 0.0 ], [ 15.10869811742298, 55.038179475693752, 0.0 ], [ 15.107559178946197, 55.037687738263543, 0.0 ], [ 15.108643473991956, 55.037723436298059, 0.0 ], [ 15.110897177858966, 55.034123001725938, 0.0 ], [ 15.11678806974774, 55.029143534854065, 0.0 ], [ 15.116079302552903, 55.029040694630744, 0.0 ], [ 15.114913052489394, 55.02960357920913, 0.0 ], [ 15.114242050342003, 55.030128748832247, 0.0 ], [ 15.114614214661069, 55.030277801010911, 0.0 ], [ 15.114242050342002, 55.030128748832247, 0.0 ], [ 15.113541070023459, 55.03057160756515, 0.0 ] ] ], [ [ [ 15.141893258895113, 55.072809853832489, 0.0 ], [ 15.141336051975536, 55.073006404198438, 0.0 ], [ 15.142060781440042, 55.074328870797721, 0.0 ], [ 15.140451791242834, 55.074501095908005, 0.0 ], [ 15.144089411803231, 55.076646759180363, 0.0 ], [ 15.145624288453172, 55.076013207340274, 0.0 ], [ 15.145879049785007, 55.076196829622845, 0.0 ], [ 15.150199069796523, 55.079644331602218, 0.0 ], [ 15.148779248921265, 55.079981243806927, 0.0 ], [ 15.151263297450493, 55.08200866671524, 0.0 ], [ 15.151348041097492, 55.082444041450401, 0.0 ], [ 15.150334758602522, 55.085612829239139, 0.0 ], [ 15.148207060514425, 55.088662985103966, 0.0 ], [ 15.148458403893606, 55.090005836125364, 0.0 ], [ 15.149772757459779, 55.091323076069614, 0.0 ], [ 15.146061466854102, 55.094077019452982, 0.0 ], [ 15.142657506735716, 55.098538190034141, 0.0 ], [ 15.141877027148411, 55.10104020852139, 0.0 ], [ 15.144268318116337, 55.101312909304966, 0.0 ], [ 15.144837535140031, 55.099496194984731, 0.0 ], [ 15.145284290813587, 55.098904225324482, 0.0 ], [ 15.145960898127942, 55.099022675360622, 0.0 ], [ 15.145337061432702, 55.099931812596786, 0.0 ], [ 15.146540573274308, 55.100102870303715, 0.0 ], [ 15.145840385626, 55.102093976265223, 0.0 ], [ 15.144292308134885, 55.103714932497788, 0.0 ], [ 15.144811524844835, 55.10374609358923, 0.0 ], [ 15.145599102417421, 55.105133177852835, 0.0 ], [ 15.147306603206948, 55.105521278302568, 0.0 ], [ 15.14648366643385, 55.106563943127625, 0.0 ], [ 15.147222702504253, 55.107132422643794, 0.0 ], [ 15.147181421828847, 55.106949529411857, 0.0 ], [ 15.149115988545534, 55.106910702559688, 0.0 ], [ 15.149217216626862, 55.10656989403752, 0.0 ], [ 15.148640037368608, 55.105282421102842, 0.0 ], [ 15.146716171323479, 55.105257515638655, 0.0 ], [ 15.14580158251024, 55.104782932941816, 0.0 ], [ 15.145487986708279, 55.103963395637642, 0.0 ], [ 15.146125336943534, 55.103057329556464, 0.0 ], [ 15.145767058270255, 55.102772865697467, 0.0 ], [ 15.147548089439168, 55.101330727151925, 0.0 ], [ 15.147076240261145, 55.100001760899183, 0.0 ], [ 15.148679925029636, 55.097941543325504, 0.0 ], [ 15.148693569915254, 55.097310389798047, 0.0 ], [ 15.151593739962951, 55.094516367967834, 0.0 ], [ 15.15500044287297, 55.09258534703222, 0.0 ], [ 15.154894276290282, 55.091278711886083, 0.0 ], [ 15.1557035023197, 55.091084564194027, 0.0 ], [ 15.154107089073698, 55.089459757404896, 0.0 ], [ 15.153157784717495, 55.089206343380106, 0.0 ], [ 15.153679465356403, 55.08818491230214, 0.0 ], [ 15.154747277303006, 55.087876384080083, 0.0 ], [ 15.154629390962542, 55.087291950095015, 0.0 ], [ 15.155217384872245, 55.087279931442055, 0.0 ], [ 15.155008328987739, 55.085103984279414, 0.0 ], [ 15.155934386029827, 55.081892128929184, 0.0 ], [ 15.155139847844776, 55.080342391200872, 0.0 ], [ 15.152092944802872, 55.07796520802701, 0.0 ], [ 15.152381401825807, 55.0770589658771, 0.0 ], [ 15.152045241388812, 55.076664109920067, 0.0 ], [ 15.149930618892265, 55.075283348304509, 0.0 ], [ 15.146664002064693, 55.074985582201847, 0.0 ], [ 15.147053657177709, 55.074539010969339, 0.0 ], [ 15.146793101345267, 55.074692147492968, 0.0 ], [ 15.143853250685995, 55.072508000185529, 0.0 ], [ 15.139813049241766, 55.070178229036841, 0.0 ], [ 15.137723643208094, 55.068383935036032, 0.0 ], [ 15.136640218701164, 55.0689150423878, 0.0 ], [ 15.141169343979387, 55.072055774433828, 0.0 ], [ 15.141075623376327, 55.072672032225583, 0.0 ], [ 15.141605309714834, 55.072489815230028, 0.0 ], [ 15.141893258895113, 55.072809853832489, 0.0 ] ] ], [ [ [ 15.148835034106447, 55.105492191353179, 0.0 ], [ 15.148828871866034, 55.10549113488549, 0.0 ], [ 15.148834419034877, 55.105509793954653, 0.0 ], [ 15.148835034106447, 55.105492191353179, 0.0 ] ] ], [ [ [ 15.138690152427449, 55.113978930737595, 0.0 ], [ 15.140117712221704, 55.115930450063772, 0.0 ], [ 15.142093339547767, 55.117399296209442, 0.0 ], [ 15.142423681298677, 55.120888073002604, 0.0 ], [ 15.143315748530899, 55.121983953209408, 0.0 ], [ 15.144239364171519, 55.122598862305416, 0.0 ], [ 15.148876485587571, 55.124289658372724, 0.0 ], [ 15.147500153628494, 55.126025657392574, 0.0 ], [ 15.147283139680082, 55.127829426255808, 0.0 ], [ 15.149449876310687, 55.127988520951298, 0.0 ], [ 15.14933134528698, 55.128939435671654, 0.0 ], [ 15.152282529362553, 55.129017693383837, 0.0 ], [ 15.151380824538469, 55.127855151545255, 0.0 ], [ 15.152673839783469, 55.127253603927834, 0.0 ], [ 15.152398940119598, 55.126287775485714, 0.0 ], [ 15.15402052914917, 55.124489327171936, 0.0 ], [ 15.153693985051556, 55.123544542177697, 0.0 ], [ 15.154151918160055, 55.123099773457476, 0.0 ], [ 15.153370259786788, 55.122556113977666, 0.0 ], [ 15.151809651683099, 55.122384580867291, 0.0 ], [ 15.150636889090482, 55.121675360825677, 0.0 ], [ 15.149180503849797, 55.121540843679966, 0.0 ], [ 15.149091534711971, 55.121187060312032, 0.0 ], [ 15.14707877873234, 55.120274500399084, 0.0 ], [ 15.146517396631399, 55.118443703938404, 0.0 ], [ 15.146868200460185, 55.117011683705925, 0.0 ], [ 15.144986171791206, 55.11553116799184, 0.0 ], [ 15.145451195404283, 55.114985144605811, 0.0 ], [ 15.144079550151986, 55.11460867828778, 0.0 ], [ 15.143358650727079, 55.11366388053758, 0.0 ], [ 15.14323261688939, 55.1130934462388, 0.0 ], [ 15.143983589580399, 55.11200137158724, 0.0 ], [ 15.145146098271518, 55.111582983535754, 0.0 ], [ 15.145416304946517, 55.110987510703424, 0.0 ], [ 15.144725843449667, 55.110102905258287, 0.0 ], [ 15.144990824362388, 55.109796941959836, 0.0 ], [ 15.144463574354539, 55.109537739012339, 0.0 ], [ 15.144690775366804, 55.109274937112104, 0.0 ], [ 15.143627960703164, 55.108788225866938, 0.0 ], [ 15.143924767989439, 55.110864265220073, 0.0 ], [ 15.14309821357544, 55.110881383055634, 0.0 ], [ 15.143055345623635, 55.112265679060712, 0.0 ], [ 15.141276418741677, 55.11176113519263, 0.0 ], [ 15.14059848005275, 55.111980938329985, 0.0 ], [ 15.139158185570993, 55.111693118049409, 0.0 ], [ 15.13864205156206, 55.112352056559736, 0.0 ], [ 15.138690152427449, 55.113978930737595, 0.0 ] ], [ [ 15.145154951291184, 55.117574021844923, 0.0 ], [ 15.145392285042472, 55.120222598696309, 0.0 ], [ 15.14482794145464, 55.120226152064966, 0.0 ], [ 15.14392352419401, 55.120056618431711, 0.0 ], [ 15.143416828159022, 55.119341670051838, 0.0 ], [ 15.143516787006243, 55.11831198947926, 0.0 ], [ 15.143945184129729, 55.118191216332441, 0.0 ], [ 15.143853975956452, 55.117635010983754, 0.0 ], [ 15.145154951291184, 55.117574021844923, 0.0 ] ], [ [ 15.14398472194009, 55.116953199915443, 0.0 ], [ 15.143977350428315, 55.116404177854037, 0.0 ], [ 15.144386189585887, 55.116301185427787, 0.0 ], [ 15.144700474900658, 55.116729817595903, 0.0 ], [ 15.14398472194009, 55.116953199915443, 0.0 ] ], [ [ 15.142973757670184, 55.114039270656477, 0.0 ], [ 15.143410413042337, 55.115017797616055, 0.0 ], [ 15.142788024673417, 55.115013115724047, 0.0 ], [ 15.142631139815716, 55.114687149886045, 0.0 ], [ 15.141895048191799, 55.115001997387459, 0.0 ], [ 15.141697661178094, 55.11441746081379, 0.0 ], [ 15.142973757670184, 55.114039270656477, 0.0 ] ] ], [ [ [ 15.142530255536091, 55.139491258492612, 0.0 ], [ 15.142240304212097, 55.139015130573313, 0.0 ], [ 15.140825791004628, 55.138908182885942, 0.0 ], [ 15.139819488985715, 55.138025725927712, 0.0 ], [ 15.14085048663634, 55.13937021631854, 0.0 ], [ 15.142709955685035, 55.140217555025131, 0.0 ], [ 15.143498401648742, 55.140261794004886, 0.0 ], [ 15.144158836940552, 55.140856606215522, 0.0 ], [ 15.14502027694107, 55.14095564299393, 0.0 ], [ 15.145061149198462, 55.140401819630448, 0.0 ], [ 15.145369310410549, 55.140514038206454, 0.0 ], [ 15.145733168499547, 55.140160394890216, 0.0 ], [ 15.145411068742284, 55.139674636860654, 0.0 ], [ 15.145888183863084, 55.139777525465945, 0.0 ], [ 15.145670058290442, 55.138849397215111, 0.0 ], [ 15.146349635632635, 55.138940557330507, 0.0 ], [ 15.145793815393182, 55.137912816840526, 0.0 ], [ 15.145084469429325, 55.137942697463558, 0.0 ], [ 15.144960804486814, 55.138775764364674, 0.0 ], [ 15.143581350600041, 55.139203791973046, 0.0 ], [ 15.143693482609072, 55.139831847901235, 0.0 ], [ 15.14265475428641, 55.139773330965681, 0.0 ], [ 15.142969175745559, 55.139468676203826, 0.0 ], [ 15.142530255536091, 55.139491258492612, 0.0 ] ] ], [ [ [ 15.119377148721865, 55.142050021459063, 0.0 ], [ 15.117227572344412, 55.142479366064904, 0.0 ], [ 15.117630211252244, 55.142969940114689, 0.0 ], [ 15.115156382798558, 55.14377775239339, 0.0 ], [ 15.115121713610618, 55.144440453061961, 0.0 ], [ 15.112008765649868, 55.145318951872106, 0.0 ], [ 15.112153551151845, 55.145494912912348, 0.0 ], [ 15.113082842139985, 55.145922337714829, 0.0 ], [ 15.113863134165079, 55.145605203330184, 0.0 ], [ 15.114512394063462, 55.146242437741599, 0.0 ], [ 15.115132905677362, 55.146306886120456, 0.0 ], [ 15.114801677593842, 55.145624948832307, 0.0 ], [ 15.115444602652062, 55.145434102323847, 0.0 ], [ 15.114420790264646, 55.145221564530083, 0.0 ], [ 15.115170744533522, 55.145001495877501, 0.0 ], [ 15.115745270503229, 55.144020443864669, 0.0 ], [ 15.117960918502797, 55.143311004018315, 0.0 ], [ 15.128228998571933, 55.143452753787443, 0.0 ], [ 15.129119924331182, 55.144386305234505, 0.0 ], [ 15.129398729948878, 55.144084725707174, 0.0 ], [ 15.130380980113873, 55.144479347040424, 0.0 ], [ 15.131661004705574, 55.144369223676897, 0.0 ], [ 15.131367101629449, 55.14448873955871, 0.0 ], [ 15.132346563454913, 55.144787976449166, 0.0 ], [ 15.132632645846627, 55.14387150647805, 0.0 ], [ 15.135913618622313, 55.143788850569273, 0.0 ], [ 15.136228795977038, 55.144273559558805, 0.0 ], [ 15.13705724408001, 55.144064215933206, 0.0 ], [ 15.136932065741034, 55.144260891478545, 0.0 ], [ 15.137453445556526, 55.14427064854452, 0.0 ], [ 15.138437979446829, 55.143596544898223, 0.0 ], [ 15.138458291770966, 55.143008518508687, 0.0 ], [ 15.138719221405493, 55.143082849401637, 0.0 ], [ 15.139056664733015, 55.14286226638977, 0.0 ], [ 15.138661861382596, 55.142993185499179, 0.0 ], [ 15.138730509017641, 55.142625583825883, 0.0 ], [ 15.139397517454862, 55.142422367103222, 0.0 ], [ 15.13840501346492, 55.142518860082362, 0.0 ], [ 15.138481488669296, 55.142261125989712, 0.0 ], [ 15.13764436639101, 55.142232345643919, 0.0 ], [ 15.138672391374245, 55.14137361921393, 0.0 ], [ 15.139542590718206, 55.141289195866023, 0.0 ], [ 15.139132666410417, 55.140746687798675, 0.0 ], [ 15.139710826434223, 55.139894655867579, 0.0 ], [ 15.139499457593638, 55.13945764473754, 0.0 ], [ 15.140151493574511, 55.139392440126862, 0.0 ], [ 15.139465615286925, 55.138359235589341, 0.0 ], [ 15.138999956641495, 55.139005611303482, 0.0 ], [ 15.138379967504155, 55.139148003867035, 0.0 ], [ 15.137435182064772, 55.138456135495211, 0.0 ], [ 15.1369492231323, 55.138581058222762, 0.0 ], [ 15.136440685530093, 55.139979533850443, 0.0 ], [ 15.135427652310877, 55.140127419856924, 0.0 ], [ 15.135848252048245, 55.140512924203605, 0.0 ], [ 15.135588413740825, 55.140827100634162, 0.0 ], [ 15.133740649604924, 55.14142464935798, 0.0 ], [ 15.131066693310345, 55.141537491090197, 0.0 ], [ 15.128564703537222, 55.142244640292219, 0.0 ], [ 15.128308339483961, 55.141481157217193, 0.0 ], [ 15.126517378455551, 55.141566215600491, 0.0 ], [ 15.12595555445491, 55.140551796394647, 0.0 ], [ 15.119312548439376, 55.140599759259374, 0.0 ], [ 15.119377148721865, 55.142050021459063, 0.0 ] ] ], [ [ [ 15.100049437563937, 55.149382111308654, 0.0 ], [ 15.100100650446638, 55.149413237043319, 0.0 ], [ 15.09999718684443, 55.149292444599766, 0.0 ], [ 15.100049437563937, 55.149382111308654, 0.0 ] ] ], [ [ [ 15.099472861361521, 55.149679569239474, 0.0 ], [ 15.099950444880438, 55.149428681921393, 0.0 ], [ 15.099720380815979, 55.149160392393071, 0.0 ], [ 15.099212106604623, 55.149469644799076, 0.0 ], [ 15.099472861361521, 55.149679569239474, 0.0 ] ] ], [ [ [ 15.07671612933726, 55.155215457630874, 0.0 ], [ 15.076725795491422, 55.155263313937652, 0.0 ], [ 15.076742150352452, 55.155197679423836, 0.0 ], [ 15.07671612933726, 55.155215457630874, 0.0 ] ] ], [ [ [ 15.056029259102516, 55.164710812769478, 0.0 ], [ 15.056261112464691, 55.164406363726798, 0.0 ], [ 15.055669592715221, 55.164891947211601, 0.0 ], [ 15.056029259102516, 55.164710812769478, 0.0 ] ] ], [ [ [ 15.052295427689044, 55.166042260519959, 0.0 ], [ 15.052315566462035, 55.166088238678086, 0.0 ], [ 15.052340512743818, 55.166028759697014, 0.0 ], [ 15.052295427689044, 55.166042260519959, 0.0 ] ] ], [ [ [ 15.052103109041667, 55.166081824153267, 0.0 ], [ 15.052118805251167, 55.166066134428817, 0.0 ], [ 15.052090474346173, 55.166089849359295, 0.0 ], [ 15.052103109041667, 55.166081824153267, 0.0 ] ] ], [ [ [ 15.047965947040931, 55.167748622111695, 0.0 ], [ 15.048070381237341, 55.167778918470752, 0.0 ], [ 15.048102846186074, 55.167715429983218, 0.0 ], [ 15.047965947040931, 55.167748622111695, 0.0 ] ] ], [ [ [ 15.06731650837864, 55.155958581150998, 0.0 ], [ 15.064573500205645, 55.157377879529989, 0.0 ], [ 15.060852074906835, 55.157391021609165, 0.0 ], [ 15.057043415289087, 55.15834115264142, 0.0 ], [ 15.055239105891307, 55.159389604381197, 0.0 ], [ 15.054118964481834, 55.160817571403406, 0.0 ], [ 15.052324771125898, 55.161768851629972, 0.0 ], [ 15.051496100759646, 55.162701946033422, 0.0 ], [ 15.045958085774728, 55.164725910397067, 0.0 ], [ 15.037011763559757, 55.169933398894294, 0.0 ], [ 15.025274857358859, 55.172138497067117, 0.0 ], [ 15.02167742786591, 55.173464377772909, 0.0 ], [ 15.018624480067283, 55.174189893339189, 0.0 ], [ 15.016065845568605, 55.175492244896148, 0.0 ], [ 15.01442310022972, 55.177342456239614, 0.0 ], [ 15.011632744267823, 55.177805956699878, 0.0 ], [ 15.010323030972852, 55.1783561713304, 0.0 ], [ 15.008865539783342, 55.17942143015123, 0.0 ], [ 15.007958601218871, 55.180728869595782, 0.0 ], [ 15.00370711869839, 55.183081173994381, 0.0 ], [ 15.002167401359477, 55.184586127275949, 0.0 ], [ 14.997742585501038, 55.186276063399937, 0.0 ], [ 14.994614611500189, 55.18846572971475, 0.0 ], [ 14.988305456967048, 55.190535837803225, 0.0 ], [ 14.984725421837572, 55.192568954869756, 0.0 ], [ 14.983681456934439, 55.193981050402428, 0.0 ], [ 14.98324152323857, 55.19675013042734, 0.0 ], [ 14.981784970608523, 55.198218771640249, 0.0 ], [ 14.980040504439655, 55.198832233951435, 0.0 ], [ 14.978822548748232, 55.199814324127999, 0.0 ], [ 14.978063383578759, 55.201144584090414, 0.0 ], [ 14.978216689371285, 55.202586378248462, 0.0 ], [ 14.980414616281143, 55.201024312777356, 0.0 ], [ 14.983532554496097, 55.202968623957744, 0.0 ], [ 14.983249206317035, 55.201409293016781, 0.0 ], [ 14.983712590302275, 55.200592027569066, 0.0 ], [ 14.986209882283731, 55.19983774665517, 0.0 ], [ 14.986684049425348, 55.199341446538504, 0.0 ], [ 14.987095088637057, 55.199470872018146, 0.0 ], [ 14.98676673009907, 55.19919953272867, 0.0 ], [ 14.987442854611238, 55.198917219113071, 0.0 ], [ 14.987279860302454, 55.198309754705178, 0.0 ], [ 14.988229026135363, 55.197848191770191, 0.0 ], [ 14.988089452415844, 55.196998326299109, 0.0 ], [ 14.988845118121377, 55.197128619518537, 0.0 ], [ 14.98826358556285, 55.196822320452164, 0.0 ], [ 14.989034072552192, 55.196098531095181, 0.0 ], [ 14.988449673134946, 55.194945007765412, 0.0 ], [ 14.989207121757826, 55.193997623710956, 0.0 ], [ 14.993538621056398, 55.191858987692726, 0.0 ], [ 14.995762461016675, 55.191565166742969, 0.0 ], [ 14.997386274085308, 55.190607950207642, 0.0 ], [ 14.998271165787578, 55.190447803902146, 0.0 ], [ 15.000140653882925, 55.188861449707126, 0.0 ], [ 15.002228076752381, 55.187736748443776, 0.0 ], [ 15.005159320267319, 55.187360636578383, 0.0 ], [ 15.004639498156122, 55.187062837548481, 0.0 ], [ 15.0058313308084, 55.186701325978902, 0.0 ], [ 15.006152325425987, 55.186067175451136, 0.0 ], [ 15.006695384569793, 55.186187468404064, 0.0 ], [ 15.006727950310582, 55.185913323681682, 0.0 ], [ 15.007083992793223, 55.185928586810768, 0.0 ], [ 15.006787054694746, 55.185409539137986, 0.0 ], [ 15.007139741151496, 55.184982627306269, 0.0 ], [ 15.009808494222652, 55.183888532070213, 0.0 ], [ 15.010318255083691, 55.183952364578637, 0.0 ], [ 15.010537171573102, 55.183127738069281, 0.0 ], [ 15.011200387386822, 55.183109291307289, 0.0 ], [ 15.012452832929167, 55.181919406423162, 0.0 ], [ 15.013292348373438, 55.181988148580906, 0.0 ], [ 15.013649441996286, 55.180408295864659, 0.0 ], [ 15.014460593535382, 55.180184135036612, 0.0 ], [ 15.015297662738968, 55.180432054501182, 0.0 ], [ 15.016768242658223, 55.179555680926981, 0.0 ], [ 15.018672578575625, 55.178955370208548, 0.0 ], [ 15.020565745139889, 55.176690555177444, 0.0 ], [ 15.021767919879908, 55.176317837464111, 0.0 ], [ 15.022815036554515, 55.176596386079233, 0.0 ], [ 15.023481823034865, 55.175961696057847, 0.0 ], [ 15.025328988557296, 55.175587342538506, 0.0 ], [ 15.026341063794451, 55.174962558408531, 0.0 ], [ 15.026898118783349, 55.175303430813074, 0.0 ], [ 15.026839217514812, 55.174917987427641, 0.0 ], [ 15.027549575429541, 55.174515492759824, 0.0 ], [ 15.030319996541932, 55.174503909675337, 0.0 ], [ 15.030774230925131, 55.174122282368344, 0.0 ], [ 15.032572390080071, 55.173874748924547, 0.0 ], [ 15.032602657447782, 55.173395676153049, 0.0 ], [ 15.033779248157181, 55.173202519867381, 0.0 ], [ 15.034335351391867, 55.173580505832327, 0.0 ], [ 15.034756303799975, 55.173218765438577, 0.0 ], [ 15.038990318181158, 55.172790300676937, 0.0 ], [ 15.040950347157445, 55.172301965615596, 0.0 ], [ 15.04078726414931, 55.171790715972705, 0.0 ], [ 15.041512274487379, 55.171682906241102, 0.0 ], [ 15.041664194586703, 55.171960407829019, 0.0 ], [ 15.042815076770992, 55.171259588517778, 0.0 ], [ 15.042167021588794, 55.170931744494894, 0.0 ], [ 15.042595643256202, 55.17087780747692, 0.0 ], [ 15.042465461610263, 55.170522918933436, 0.0 ], [ 15.044163152547959, 55.170246062138261, 0.0 ], [ 15.04319892934725, 55.170164519501405, 0.0 ], [ 15.044584754445419, 55.169864425935209, 0.0 ], [ 15.044677313328132, 55.169521705218955, 0.0 ], [ 15.045707449727603, 55.169206272749875, 0.0 ], [ 15.045329510486697, 55.168877812752015, 0.0 ], [ 15.046325003851928, 55.168761734922199, 0.0 ], [ 15.048069203459288, 55.167488226500197, 0.0 ], [ 15.048109192007061, 55.167703020064444, 0.0 ], [ 15.048270182854871, 55.167419570560355, 0.0 ], [ 15.048608739376293, 55.167552662531214, 0.0 ], [ 15.049151876093507, 55.166778860160981, 0.0 ], [ 15.049968380190803, 55.166718342693628, 0.0 ], [ 15.050401910263536, 55.166356902154547, 0.0 ], [ 15.050292474437507, 55.16687602377754, 0.0 ], [ 15.050647589706641, 55.166840915211949, 0.0 ], [ 15.051257563463544, 55.165889398008517, 0.0 ], [ 15.051779170281364, 55.166152917382533, 0.0 ], [ 15.05228788541957, 55.165864362369419, 0.0 ], [ 15.053048934336093, 55.165951080028925, 0.0 ], [ 15.053495440165527, 55.165444045979889, 0.0 ], [ 15.055279635812566, 55.164976697607067, 0.0 ], [ 15.056207763745636, 55.164044281240123, 0.0 ], [ 15.056423123487276, 55.164310319986043, 0.0 ], [ 15.05675689577585, 55.16321673954387, 0.0 ], [ 15.057224426065764, 55.163265916663079, 0.0 ], [ 15.057824381151224, 55.162595013263129, 0.0 ], [ 15.058433260124678, 55.162476429018781, 0.0 ], [ 15.059689652638721, 55.161048033131664, 0.0 ], [ 15.060719344061484, 55.160650048476406, 0.0 ], [ 15.060646798549385, 55.160284139552687, 0.0 ], [ 15.060977283714555, 55.160580319750899, 0.0 ], [ 15.062221168529284, 55.160024062397191, 0.0 ], [ 15.065686707541831, 55.160527875987199, 0.0 ], [ 15.066724126343653, 55.160259256211617, 0.0 ], [ 15.066693876369763, 55.159978137210167, 0.0 ], [ 15.067131789571519, 55.160140843734858, 0.0 ], [ 15.071436341749909, 55.157679811734482, 0.0 ], [ 15.073071492856734, 55.155838751609288, 0.0 ], [ 15.074104435546689, 55.155694451150289, 0.0 ], [ 15.074631041531717, 55.156130324559072, 0.0 ], [ 15.075816704654383, 55.155528685900606, 0.0 ], [ 15.076018378751096, 55.155038773003028, 0.0 ], [ 15.076599870779287, 55.15479358997662, 0.0 ], [ 15.076742151207743, 55.155080018610576, 0.0 ], [ 15.076742154414957, 55.154639195190327, 0.0 ], [ 15.077119656182086, 55.155156182741713, 0.0 ], [ 15.077510265056796, 55.155087367283684, 0.0 ], [ 15.080994261948568, 55.153998009695201, 0.0 ], [ 15.081123269196294, 55.153711652426409, 0.0 ], [ 15.083383371998098, 55.153707421086224, 0.0 ], [ 15.084293194346445, 55.15298520368259, 0.0 ], [ 15.087417636955488, 55.152447635619559, 0.0 ], [ 15.087619729255417, 55.152038029317588, 0.0 ], [ 15.088491500562508, 55.152014616798979, 0.0 ], [ 15.087810554230321, 55.151421806173204, 0.0 ], [ 15.088498248399965, 55.150530086590862, 0.0 ], [ 15.092580314446252, 55.150339949052352, 0.0 ], [ 15.095109080944665, 55.149734758287352, 0.0 ], [ 15.097640485891986, 55.149705581962081, 0.0 ], [ 15.09812577915422, 55.149350318877566, 0.0 ], [ 15.098542436815638, 55.14947841346951, 0.0 ], [ 15.099828136006703, 55.149001642101844, 0.0 ], [ 15.100762817653985, 55.148939692201701, 0.0 ], [ 15.101906527032625, 55.148402914833063, 0.0 ], [ 15.104400225099177, 55.148361840291322, 0.0 ], [ 15.104722517163417, 55.147610315281618, 0.0 ], [ 15.105387083779025, 55.148066907530371, 0.0 ], [ 15.106861433288564, 55.147924168577049, 0.0 ], [ 15.107230596965342, 55.14728054522633, 0.0 ], [ 15.10614390491496, 55.146705848425739, 0.0 ], [ 15.105878390706957, 55.147508555641288, 0.0 ], [ 15.103833746881516, 55.147406008429641, 0.0 ], [ 15.101676215655237, 55.147669025385525, 0.0 ], [ 15.101728383967854, 55.147908099257826, 0.0 ], [ 15.10024986734777, 55.14792997960766, 0.0 ], [ 15.099747644994933, 55.148241298470744, 0.0 ], [ 15.099540116398986, 55.147261965008859, 0.0 ], [ 15.102396762138689, 55.146481720198871, 0.0 ], [ 15.10390378249601, 55.145602735330293, 0.0 ], [ 15.103160079213527, 55.144784532027082, 0.0 ], [ 15.10162510708488, 55.145467580289107, 0.0 ], [ 15.099085825793381, 55.14588943004587, 0.0 ], [ 15.097415985487496, 55.146678680273595, 0.0 ], [ 15.092161423450095, 55.147425102300936, 0.0 ], [ 15.089556274252605, 55.14744005553748, 0.0 ], [ 15.086400442150278, 55.148033384918371, 0.0 ], [ 15.084762481562219, 55.148791186131781, 0.0 ], [ 15.082426788249032, 55.150656706171191, 0.0 ], [ 15.079748939531655, 55.151165858568405, 0.0 ], [ 15.081679023665609, 55.152698735942785, 0.0 ], [ 15.080953701696222, 55.153276628054208, 0.0 ], [ 15.077089478202959, 55.154398557811454, 0.0 ], [ 15.072487644621535, 55.155070570226925, 0.0 ], [ 15.072722294219291, 55.155332798893703, 0.0 ], [ 15.071371592428058, 55.155829381965809, 0.0 ], [ 15.070725353972282, 55.154860464617066, 0.0 ], [ 15.072065689127349, 55.154392786494519, 0.0 ], [ 15.071695580400844, 55.153699471382559, 0.0 ], [ 15.072667396919361, 55.153494913442941, 0.0 ], [ 15.071933554126575, 55.153133235256291, 0.0 ], [ 15.07097234594251, 55.153274698511069, 0.0 ], [ 15.068944290573473, 55.15415421547393, 0.0 ], [ 15.06731650837864, 55.155958581150998, 0.0 ] ], [ [ 15.031863006874588, 55.173119073345994, 0.0 ], [ 15.031399569306837, 55.173609205749493, 0.0 ], [ 15.030200336026937, 55.173692411638598, 0.0 ], [ 15.030147714912298, 55.173333159457805, 0.0 ], [ 15.031362498628898, 55.172948101095201, 0.0 ], [ 15.031863006874588, 55.173119073345994, 0.0 ] ], [ [ 15.057443818816884, 55.161133502037984, 0.0 ], [ 15.057316280836092, 55.160416391563281, 0.0 ], [ 15.058083978401495, 55.160150006056412, 0.0 ], [ 15.059332775706171, 55.160403076600495, 0.0 ], [ 15.058676871548222, 55.160857520348678, 0.0 ], [ 15.058019723906495, 55.160830680866695, 0.0 ], [ 15.058025219544154, 55.161110847078405, 0.0 ], [ 15.057443818816884, 55.161133502037984, 0.0 ] ], [ [ 15.012223837902551, 55.180786787969723, 0.0 ], [ 15.011164771835679, 55.18169755938964, 0.0 ], [ 15.010741869958444, 55.181545477091461, 0.0 ], [ 15.011851389456194, 55.180651093659897, 0.0 ], [ 15.012223837902551, 55.180786787969723, 0.0 ] ], [ [ 15.016068532107489, 55.179223360782736, 0.0 ], [ 15.012260326430964, 55.180755667170352, 0.0 ], [ 15.011371991802591, 55.180440134980515, 0.0 ], [ 15.013030185334326, 55.17941095734102, 0.0 ], [ 15.013724993298929, 55.179508923663121, 0.0 ], [ 15.014285905663272, 55.179058969142183, 0.0 ], [ 15.015136449177659, 55.179355291318146, 0.0 ], [ 15.015613079419092, 55.179012124563315, 0.0 ], [ 15.016068532107489, 55.179223360782736, 0.0 ] ], [ [ 15.017356643035603, 55.178213783970513, 0.0 ], [ 15.018366018783579, 55.177501168536992, 0.0 ], [ 15.018657076949607, 55.1776216786674, 0.0 ], [ 15.016543492516165, 55.17894548533134, 0.0 ], [ 15.015688268575595, 55.178557334714796, 0.0 ], [ 15.016928757801487, 55.177956863237867, 0.0 ], [ 15.017356643035603, 55.178213783970513, 0.0 ] ], [ [ 15.090558223337101, 55.149683632644255, 0.0 ], [ 15.089448504525313, 55.149510532698791, 0.0 ], [ 15.089508317481076, 55.149024021676944, 0.0 ], [ 15.091199890754895, 55.14911403314408, 0.0 ], [ 15.093272981512122, 55.148646245080045, 0.0 ], [ 15.093789484521889, 55.149058841773524, 0.0 ], [ 15.090558223337101, 55.149683632644255, 0.0 ] ], [ [ 15.086024226928705, 55.151053553650755, 0.0 ], [ 15.083632249511888, 55.152150189910799, 0.0 ], [ 15.08342582220034, 55.152080502733646, 0.0 ], [ 15.085078751356395, 55.150894998773701, 0.0 ], [ 15.085568866106801, 55.15076468192018, 0.0 ], [ 15.086024226928705, 55.151053553650755, 0.0 ] ], [ [ 15.089241120059585, 55.149931213460746, 0.0 ], [ 15.087159459300514, 55.150568425902577, 0.0 ], [ 15.086670126677483, 55.150017949913696, 0.0 ], [ 15.08820966509461, 55.149654009319981, 0.0 ], [ 15.089241120059585, 55.149931213460746, 0.0 ] ], [ [ 15.023354159838743, 55.174715935110768, 0.0 ], [ 15.025130289719101, 55.174640854173596, 0.0 ], [ 15.025147791868115, 55.174950159422359, 0.0 ], [ 15.023255815710119, 55.175064107347623, 0.0 ], [ 15.023354159838743, 55.174715935110768, 0.0 ] ] ], [ [ [ 15.031284331187591, 55.174209164680512, 0.0 ], [ 15.030925294050311, 55.174175513366919, 0.0 ], [ 15.030887659650192, 55.174215862871826, 0.0 ], [ 15.031284331187591, 55.174209164680512, 0.0 ] ] ] ] } }
]
}
