{
"type": "FeatureCollection",
"name": "aviation_approach_zones",
"crs": { "type": "name", "properties": { "name": "urn:ogc:def:crs:OGC:1.3:CRS84" } },
"features": [
{ "type": "Feature", "properties": { "layer_id": "aviation_approach_zones", "label": "Aviation approach zones", "tooltip_title": "Source layer: Aviation approach zones", "tooltip_body": "Approach-zone restriction polygons.<br>Clipped to Bornholm DAGI Landsdel landmass." }, "geometry": { "type": "Polygon", "coordinates": [ [ [ 14.745405866544887, 55.06710544542446, 0.0 ], [ 14.774085518625482, 55.059844613740701, 0.0 ], [ 14.77380099059207, 55.059474648341912, 0.0 ], [ 14.74512154134519, 55.066735408199719, 0.0 ], [ 14.745405866544887, 55.06710544542446, 0.0 ] ] ] } },
{ "type": "Feature", "properties": { "layer_id": "aviation_approach_zones", "label": "Aviation approach zones", "tooltip_title": "Source layer: Aviation approach zones", "tooltip_body": "Approach-zone restriction polygons.<br>Clipped to Bornholm DAGI Landsdel landmass." }, "geometry": { "type": "Polygon", "coordinates": [ [ [ 14.75638451738998, 55.067775792462847, 0.0 ], [ 14.754116822043397, 55.066153304937458, 0.0 ], [ 14.775750915878275, 55.060675115010966, 0.0 ], [ 14.77385432646774, 55.058208737992963, 0.0 ], [ 14.751075199699452, 55.06397677359179, 0.0 ], [ 14.750523148295445, 55.06358172339236, 0.0 ], [ 14.749038925400754, 55.063955974970092, 0.0 ], [ 14.749592407608702, 55.064352044168643, 0.0 ], [ 14.743456761483269, 55.065904555454907, 0.0 ], [ 14.745351751704851, 55.068371268646878, 0.0 ], [ 14.752633968918188, 55.066528524392481, 0.0 ], [ 14.755162943006894, 55.06833809444435, 0.0 ], [ 14.75638451738998, 55.067775792462847, 0.0 ] ] ] } },
{ "type": "Feature", "properties": { "layer_id": "aviation_approach_zones", "label": "Aviation approach zones", "tooltip_title": "Source layer: Aviation approach zones", "tooltip_body": "Approach-zone restriction polygons.<br>Clipped to Bornholm DAGI Landsdel landmass." }, "geometry": { "type": "MultiPolygon", "coordinates": [ [ [ [ 14.768983250544562, 55.055980630269154, 0.0 ], [ 14.765401932257605, 55.057803816343835, 0.0 ], [ 14.761902838821385, 55.058300199266526, 0.0 ], [ 14.756371993015769, 55.06137761236949, 0.0 ], [ 14.753049612735444, 55.062224167607788, 0.0 ], [ 14.751392776127004, 55.062279020998147, 0.0 ], [ 14.750523148295445, 55.06358172339236, 0.0 ], [ 14.751075199699452, 55.06397677359179, 0.0 ], [ 14.77385432646774, 55.058208737992963, 0.0 ], [ 14.786429168599932, 55.053640635311581, 0.0 ], [ 14.7811341051531, 55.052913341093898, 0.0 ], [ 14.768983250544562, 55.055980630269154, 0.0 ] ] ], [ [ [ 14.775750915878275, 55.060675115010966, 0.0 ], [ 14.754116822043397, 55.066153304937458, 0.0 ], [ 14.760443649827963, 55.067951137351223, 0.0 ], [ 14.811092674822602, 55.0551626792153, 0.0 ], [ 14.775750915878275, 55.060675115010966, 0.0 ] ] ], [ [ [ 14.752633968918188, 55.066528524392481, 0.0 ], [ 14.745351751704851, 55.068371268646878, 0.0 ], [ 14.731989711588083, 55.073206890070125, 0.0 ], [ 14.729361371005449, 55.075784687561395, 0.0 ], [ 14.753319256302326, 55.069747631599206, 0.0 ], [ 14.752633968918188, 55.066528524392481, 0.0 ] ] ], [ [ [ 14.749038925400754, 55.063955974970092, 0.0 ], [ 14.746246846393168, 55.063257514825402, 0.0 ], [ 14.745219667756333, 55.06338392405037, 0.0 ], [ 14.743128903969467, 55.064516124476384, 0.0 ], [ 14.741855457142574, 55.066152606936846, 0.0 ], [ 14.749592407608702, 55.064352044168643, 0.0 ], [ 14.749038925400754, 55.063955974970092, 0.0 ] ] ] ] } },
{ "type": "Feature", "properties": { "layer_id": "aviation_approach_zones", "label": "Aviation approach zones", "tooltip_title": "Source layer: Aviation approach zones", "tooltip_body": "Approach-zone restriction polygons.<br>Clipped to Bornholm DAGI Landsdel landmass." }, "geometry": { "type": "MultiPolygon", "coordinates": [ [ [ [ 14.755162943006894, 55.06833809444435, 0.0 ], [ 14.752633968918188, 55.066528524392481, 0.0 ], [ 14.753319256302326, 55.069747631599206, 0.0 ], [ 14.764405913166547, 55.077677787527016, 0.0 ], [ 14.755162943006894, 55.06833809444435, 0.0 ] ] ], [ [ [ 14.760443649827963, 55.067951137351223, 0.0 ], [ 14.754116822043397, 55.066153304937458, 0.0 ], [ 14.75638451738998, 55.067775792462847, 0.0 ], [ 14.770269342322015, 55.074978392084212, 0.0 ], [ 14.760443649827963, 55.067951137351223, 0.0 ] ] ], [ [ [ 14.749038925400754, 55.063955974970092, 0.0 ], [ 14.747243897371577, 55.063246224758387, 0.0 ], [ 14.746246846393168, 55.063257514825402, 0.0 ], [ 14.749038925400754, 55.063955974970092, 0.0 ] ] ], [ [ [ 14.7504970452213, 55.063243047130115, 0.0 ], [ 14.750269298081502, 55.063305450700334, 0.0 ], [ 14.750523148295445, 55.06358172339236, 0.0 ], [ 14.7504970452213, 55.063243047130115, 0.0 ] ] ] ] } },
{ "type": "Feature", "properties": { "layer_id": "aviation_approach_zones", "label": "Aviation approach zones", "tooltip_title": "Source layer: Aviation approach zones", "tooltip_body": "Approach-zone restriction polygons.<br>Clipped to Bornholm DAGI Landsdel landmass." }, "geometry": { "type": "MultiPolygon", "coordinates": [ [ [ [ 14.743456761483269, 55.065904555454907, 0.0 ], [ 14.741855457142574, 55.066152606936846, 0.0 ], [ 14.740408964911412, 55.066925806341921, 0.0 ], [ 14.73758398680593, 55.067446466468986, 0.0 ], [ 14.736295650766674, 55.067997157126761, 0.0 ], [ 14.735670661626099, 55.068745677234695, 0.0 ], [ 14.735801306813446, 55.069746819327975, 0.0 ], [ 14.734082459479021, 55.070754870516517, 0.0 ], [ 14.734155606287025, 55.071286579106257, 0.0 ], [ 14.731989711588083, 55.073206890070125, 0.0 ], [ 14.745351751704851, 55.068371268646878, 0.0 ], [ 14.743456761483269, 55.065904555454907, 0.0 ] ] ], [ [ [ 14.695307166737438, 55.086468446567338, 0.0 ], [ 14.692445191266156, 55.08621025383038, 0.0 ], [ 14.689513715522216, 55.086606912785996, 0.0 ], [ 14.684115561433966, 55.088991349043283, 0.0 ], [ 14.684362458733872, 55.089138219114375, 0.0 ], [ 14.689794206335224, 55.086749407123968, 0.0 ], [ 14.692760830959022, 55.087388264929224, 0.0 ], [ 14.695307166737438, 55.086468446567338, 0.0 ] ] ] ] } },
{ "type": "Feature", "properties": { "layer_id": "aviation_approach_zones", "label": "Aviation approach zones", "tooltip_title": "Source layer: Aviation approach zones", "tooltip_body": "Approach-zone restriction polygons.<br>Clipped to Bornholm DAGI Landsdel landmass." }, "geometry": { "type": "Polygon", "coordinates": [ [ [ 14.775750915878275, 55.060675115010966, 0.0 ], [ 14.890318866491075, 55.042762451492926, 0.0 ], [ 14.882482189453857, 55.032609659623034, 0.0 ], [ 14.876718181573677, 55.033601688565319, 0.0 ], [ 14.872485171564573, 55.035405390377363, 0.0 ], [ 14.867715845498964, 55.036200021834254, 0.0 ], [ 14.866682355743846, 55.036857327677339, 0.0 ], [ 14.862869744919808, 55.038173914895218, 0.0 ], [ 14.857566384104299, 55.039022569564167, 0.0 ], [ 14.852248738684462, 55.040301187909904, 0.0 ], [ 14.850622522628065, 55.040294191764126, 0.0 ], [ 14.842670736555007, 55.042521494195938, 0.0 ], [ 14.838565784334815, 55.04284596146946, 0.0 ], [ 14.83600818737812, 55.042655912679464, 0.0 ], [ 14.833620462650412, 55.042034076103654, 0.0 ], [ 14.832372758282654, 55.040947151256084, 0.0 ], [ 14.8320119291475, 55.040986193489502, 0.0 ], [ 14.822594470551902, 55.044147364321134, 0.0 ], [ 14.817934482871696, 55.046127099991203, 0.0 ], [ 14.814915803333632, 55.046771444839365, 0.0 ], [ 14.808127901103751, 55.050614683083793, 0.0 ], [ 14.808928860045222, 55.050318963599018, 0.0 ], [ 14.808985545350737, 55.050356220158569, 0.0 ], [ 14.808110826864674, 55.050656911098443, 0.0 ], [ 14.80688057651324, 55.050829853342897, 0.0 ], [ 14.806741925733405, 55.050984036749057, 0.0 ], [ 14.804403739739216, 55.051322678439291, 0.0 ], [ 14.801245155878608, 55.052702634907817, 0.0 ], [ 14.794229000674186, 55.053900553639288, 0.0 ], [ 14.789696748565435, 55.053893899876385, 0.0 ], [ 14.79000247973201, 55.053969334473834, 0.0 ], [ 14.789983382688746, 55.054090875546535, 0.0 ], [ 14.786429168599932, 55.053640635311581, 0.0 ], [ 14.77385432646774, 55.058208737992963, 0.0 ], [ 14.775750915878275, 55.060675115010966, 0.0 ] ] ] } },
{ "type": "Feature", "properties": { "layer_id": "aviation_approach_zones", "label": "Aviation approach zones", "tooltip_title": "Source layer: Aviation approach zones", "tooltip_body": "Approach-zone restriction polygons.<br>Clipped to Bornholm DAGI Landsdel landmass." }, "geometry": { "type": "Polygon", "coordinates": [ [ [ 14.764405913166547, 55.077677787527016, 0.0 ], [ 14.770269342322015, 55.074978392084212, 0.0 ], [ 14.75638451738998, 55.067775792462847, 0.0 ], [ 14.755162943006894, 55.06833809444435, 0.0 ], [ 14.764405913166547, 55.077677787527016, 0.0 ] ] ] } },
{ "type": "Feature", "properties": { "layer_id": "aviation_approach_zones", "label": "Aviation approach zones", "tooltip_title": "Source layer: Aviation approach zones", "tooltip_body": "Approach-zone restriction polygons.<br>Clipped to Bornholm DAGI Landsdel landmass." }, "geometry": { "type": "Polygon", "coordinates": [ [ [ 14.750523148295445, 55.06358172339236, 0.0 ], [ 14.750269298081502, 55.063305450700334, 0.0 ], [ 14.748147227040047, 55.063505556223767, 0.0 ], [ 14.749038925400754, 55.063955974970092, 0.0 ], [ 14.750523148295445, 55.06358172339236, 0.0 ] ] ] } },
{ "type": "Feature", "properties": { "layer_id": "aviation_approach_zones", "label": "Aviation approach zones", "tooltip_title": "Source layer: Aviation approach zones", "tooltip_body": "Approach-zone restriction polygons.<br>Clipped to Bornholm DAGI Landsdel landmass." }, "geometry": { "type": "MultiPolygon", "coordinates": [ [ [ [ 14.7811341051531, 55.052913341093898, 0.0 ], [ 14.776877024252778, 55.052234357098214, 0.0 ], [ 14.772677809588151, 55.053970591517924, 0.0 ], [ 14.768983250544562, 55.055980630269154, 0.0 ], [ 14.7811341051531, 55.052913341093898, 0.0 ] ] ], [ [ [ 14.693556940851916, 55.088571490722678, 0.0 ], [ 14.697194871738382, 55.091366290256737, 0.0 ], [ 14.704887104295372, 55.095815654871302, 0.0 ], [ 14.713811402387119, 55.099430896189538, 0.0 ], [ 14.723695921851583, 55.102101699126202, 0.0 ], [ 14.7342404224765, 55.103746773109748, 0.0 ], [ 14.73966010997132, 55.104167799960855, 0.0 ], [ 14.750588231384549, 55.104190595028932, 0.0 ], [ 14.761356641322667, 55.103124202859213, 0.0 ], [ 14.771637723211171, 55.101000868443911, 0.0 ], [ 14.802056472444457, 55.093298199831558, 0.0 ], [ 14.811532735797821, 55.09018043324113, 0.0 ], [ 14.819919184625313, 55.086165572068715, 0.0 ], [ 14.826961306808982, 55.081375952400066, 0.0 ], [ 14.832444872795056, 55.075957476535052, 0.0 ], [ 14.836204014097374, 55.070074772161576, 0.0 ], [ 14.838124899699849, 55.063906755872154, 0.0 ], [ 14.838150149945998, 55.057641168640274, 0.0 ], [ 14.836158939793107, 55.051245774012891, 0.0 ], [ 14.811092674822602, 55.0551626792153, 0.0 ], [ 14.760443649827963, 55.067951137351223, 0.0 ], [ 14.770269342322015, 55.074978392084212, 0.0 ], [ 14.764405913166547, 55.077677787527016, 0.0 ], [ 14.753319256302326, 55.069747631599206, 0.0 ], [ 14.729361371005449, 55.075784687561395, 0.0 ], [ 14.725892643215497, 55.078575865738351, 0.0 ], [ 14.721548515882832, 55.080395354849664, 0.0 ], [ 14.719832589304804, 55.080446150286797, 0.0 ], [ 14.720053368407694, 55.080621545659149, 0.0 ], [ 14.718460194529527, 55.081102496159382, 0.0 ], [ 14.715693492078248, 55.080963186057993, 0.0 ], [ 14.713749576790919, 55.081617667597151, 0.0 ], [ 14.712587626409228, 55.0814794415828, 0.0 ], [ 14.711915117733081, 55.080997802965868, 0.0 ], [ 14.712007944179865, 55.081291484897818, 0.0 ], [ 14.710701806743193, 55.081429899014964, 0.0 ], [ 14.709391844669643, 55.08225423460518, 0.0 ], [ 14.707509267465042, 55.082631803208905, 0.0 ], [ 14.705430363019673, 55.083484139580641, 0.0 ], [ 14.70271838649429, 55.087155368369743, 0.0 ], [ 14.701104131636876, 55.088285644432645, 0.0 ], [ 14.700612508796251, 55.088443394516581, 0.0 ], [ 14.69974608392957, 55.087885007248083, 0.0 ], [ 14.699265434453922, 55.087948078613579, 0.0 ], [ 14.695307236885176, 55.08646845720844, 0.0 ], [ 14.692760908065441, 55.087388277817659, 0.0 ], [ 14.694697012954199, 55.088003562244744, 0.0 ], [ 14.693556940851916, 55.088571490722678, 0.0 ] ] ], [ [ [ 14.781016326464364, 55.050785741296032, 0.0 ], [ 14.780153276191131, 55.050855033037081, 0.0 ], [ 14.780317628939539, 55.051169841828234, 0.0 ], [ 14.780868141415223, 55.051129572594164, 0.0 ], [ 14.780327132458842, 55.050932901991452, 0.0 ], [ 14.780870641511314, 55.050837692918016, 0.0 ], [ 14.781188899149766, 55.051145438405328, 0.0 ], [ 14.781016326464364, 55.050785741296032, 0.0 ] ] ] ] } },
{ "type": "Feature", "properties": { "layer_id": "aviation_approach_zones", "label": "Aviation approach zones", "tooltip_title": "Source layer: Aviation approach zones", "tooltip_body": "Approach-zone restriction polygons.<br>Clipped to Bornholm DAGI Landsdel landmass." }, "geometry": { "type": "MultiPolygon", "coordinates": [ [ [ [ 14.701620175781903, 55.117056546880185, 0.0 ], [ 14.712312151859685, 55.119808421876414, 0.0 ], [ 14.720259739483373, 55.121264980964305, 0.0 ], [ 14.728399009128481, 55.122318420057951, 0.0 ], [ 14.736667818106621, 55.122960650260801, 0.0 ], [ 14.745003079747846, 55.123187062167176, 0.0 ], [ 14.753341018764385, 55.122995526416339, 0.0 ], [ 14.76161778213749, 55.122387894808895, 0.0 ], [ 14.769770405473993, 55.121368516000146, 0.0 ], [ 14.777736331011468, 55.119945335428582, 0.0 ], [ 14.815884074018784, 55.110422988838941, 0.0 ], [ 14.823293215625657, 55.108225839161321, 0.0 ], [ 14.830339327068891, 55.105666362971895, 0.0 ], [ 14.836968467174236, 55.102764313173566, 0.0 ], [ 14.843130169455891, 55.099541626995091, 0.0 ], [ 14.848777671202303, 55.096023041505916, 0.0 ], [ 14.853867925430036, 55.092235363732215, 0.0 ], [ 14.858362382154526, 55.088207440972077, 0.0 ], [ 14.862226592870966, 55.08397016715611, 0.0 ], [ 14.865431633265247, 55.079555606662474, 0.0 ], [ 14.86795327956391, 55.074997570827037, 0.0 ], [ 14.869772373368535, 55.070330696999434, 0.0 ], [ 14.870875377981228, 55.065590691683965, 0.0 ], [ 14.871254247499291, 55.060813522487052, 0.0 ], [ 14.870906169054997, 55.056035522345724, 0.0 ], [ 14.869834176020559, 55.051293178411491, 0.0 ], [ 14.867861668485856, 55.04628341021305, 0.0 ], [ 14.836158939793107, 55.051245774012891, 0.0 ], [ 14.838150149945998, 55.057641168640274, 0.0 ], [ 14.838375930528935, 55.060774327781992, 0.0 ], [ 14.837399192590977, 55.067014851555101, 0.0 ], [ 14.83454840510994, 55.073063205690644, 0.0 ], [ 14.829909517472993, 55.078735455556668, 0.0 ], [ 14.826961306808982, 55.081375952400066, 0.0 ], [ 14.819919184625313, 55.086165572068715, 0.0 ], [ 14.815879029160055, 55.088278028910636, 0.0 ], [ 14.806913386569274, 55.09185802961801, 0.0 ], [ 14.771637723211171, 55.101000868443911, 0.0 ], [ 14.761356641322667, 55.103124202859213, 0.0 ], [ 14.750588231384549, 55.104190595028932, 0.0 ], [ 14.73966010997132, 55.104167799960855, 0.0 ], [ 14.7342404224765, 55.103746773109748, 0.0 ], [ 14.723695921851583, 55.102101699126202, 0.0 ], [ 14.713811402387119, 55.099430896189538, 0.0 ], [ 14.709211323480236, 55.097735137462671, 0.0 ], [ 14.700871570725317, 55.093687317096546, 0.0 ], [ 14.693556940851916, 55.088571490722678, 0.0 ], [ 14.691127666914667, 55.089761973600247, 0.0 ], [ 14.691616493396451, 55.090042416513519, 0.0 ], [ 14.691233572461808, 55.090262904086934, 0.0 ], [ 14.692230480695686, 55.090688939711065, 0.0 ], [ 14.689757507308014, 55.092248360925275, 0.0 ], [ 14.68150015565868, 55.093251452602331, 0.0 ], [ 14.681542619719922, 55.093549940109064, 0.0 ], [ 14.682399005101653, 55.093162852333428, 0.0 ], [ 14.689069732824592, 55.092463232349729, 0.0 ], [ 14.68643262636259, 55.095048627706916, 0.0 ], [ 14.688563786276056, 55.094273138627585, 0.0 ], [ 14.689111473332984, 55.093077981227012, 0.0 ], [ 14.689692848618094, 55.09315731954284, 0.0 ], [ 14.69094148120552, 55.095181972363427, 0.0 ], [ 14.692600828315109, 55.095873834426328, 0.0 ], [ 14.691671419920674, 55.094301240351164, 0.0 ], [ 14.692526243026059, 55.094001738628727, 0.0 ], [ 14.691636661937176, 55.094195029422544, 0.0 ], [ 14.69139346521837, 55.093849872233498, 0.0 ], [ 14.69314633289645, 55.093098421114156, 0.0 ], [ 14.6938502868901, 55.093427550356751, 0.0 ], [ 14.692851272754369, 55.094047711537229, 0.0 ], [ 14.692969369356142, 55.094108697033782, 0.0 ], [ 14.693838829618688, 55.093542049137675, 0.0 ], [ 14.695598943346885, 55.09410744126059, 0.0 ], [ 14.695522626258606, 55.09458595121837, 0.0 ], [ 14.693435017516597, 55.095417314517171, 0.0 ], [ 14.694282697498918, 55.095958174343522, 0.0 ], [ 14.697144020174532, 55.094783627984917, 0.0 ], [ 14.697452420819024, 55.095374162877505, 0.0 ], [ 14.698483176682259, 55.095407888657192, 0.0 ], [ 14.697965105779103, 55.097013443451218, 0.0 ], [ 14.696092483797576, 55.098159544005846, 0.0 ], [ 14.696029192087204, 55.098513669700949, 0.0 ], [ 14.696647980263544, 55.098423249881172, 0.0 ], [ 14.696066898667572, 55.098763678782817, 0.0 ], [ 14.695342886838622, 55.098346473607144, 0.0 ], [ 14.696107957238477, 55.09802262226524, 0.0 ], [ 14.696078880582515, 55.097928838151915, 0.0 ], [ 14.694877889287453, 55.098385925871931, 0.0 ], [ 14.69254318208176, 55.098107696275484, 0.0 ], [ 14.694808815281432, 55.098794242049514, 0.0 ], [ 14.694001853258795, 55.099836134135678, 0.0 ], [ 14.693160841880713, 55.099861164406505, 0.0 ], [ 14.692742751853432, 55.099050539329774, 0.0 ], [ 14.692049103874862, 55.09912140351112, 0.0 ], [ 14.691787138133526, 55.099803318484554, 0.0 ], [ 14.691112399922478, 55.099773461914062, 0.0 ], [ 14.691291257527819, 55.097515018102548, 0.0 ], [ 14.690687902342431, 55.097517641059831, 0.0 ], [ 14.690729122273273, 55.098000719893072, 0.0 ], [ 14.689884017419574, 55.098154284040803, 0.0 ], [ 14.689676643648056, 55.099687714663773, 0.0 ], [ 14.688000758846593, 55.099611128360387, 0.0 ], [ 14.687302582039372, 55.097235615047552, 0.0 ], [ 14.688594259362825, 55.096621416941197, 0.0 ], [ 14.685773585524391, 55.097515157332232, 0.0 ], [ 14.685165848580116, 55.096767040168587, 0.0 ], [ 14.685433928001267, 55.095662137897371, 0.0 ], [ 14.684986293915141, 55.09699211645313, 0.0 ], [ 14.682536635206906, 55.097322368971483, 0.0 ], [ 14.681116093013239, 55.094570068263046, 0.0 ], [ 14.680701105616, 55.094821815742826, 0.0 ], [ 14.683932685969818, 55.100814209005371, 0.0 ], [ 14.685578987786306, 55.102721103702088, 0.0 ], [ 14.694312604891913, 55.106647642276116, 0.0 ], [ 14.690815425542642, 55.104422616051465, 0.0 ], [ 14.69231248718318, 55.10406943847974, 0.0 ], [ 14.694240185003196, 55.105027221196664, 0.0 ], [ 14.693599727416769, 55.104184895998998, 0.0 ], [ 14.692195913757395, 55.10393015557532, 0.0 ], [ 14.691774629277695, 55.103495946873487, 0.0 ], [ 14.692533403825262, 55.10326360344834, 0.0 ], [ 14.693601023710594, 55.104123533663774, 0.0 ], [ 14.693753582441962, 55.10375334234454, 0.0 ], [ 14.69309091160115, 55.103374833823935, 0.0 ], [ 14.693544365833127, 55.103248524609299, 0.0 ], [ 14.694164694715351, 55.104451771539523, 0.0 ], [ 14.696279822600891, 55.104688159216956, 0.0 ], [ 14.698931518186892, 55.106454649517282, 0.0 ], [ 14.700883123624179, 55.110592154968082, 0.0 ], [ 14.700174317772159, 55.112255729210965, 0.0 ], [ 14.701420311970294, 55.112763001760555, 0.0 ], [ 14.702554088741984, 55.114294709026439, 0.0 ], [ 14.701620175781903, 55.117056546880185, 0.0 ] ] ], [ [ [ 14.692760908065441, 55.087388277817659, 0.0 ], [ 14.69530719498229, 55.08646845085196, 0.0 ], [ 14.692760862005773, 55.087388270118737, 0.0 ], [ 14.692760908065441, 55.087388277817659, 0.0 ] ] ], [ [ [ 14.696968816778901, 55.095961801451004, 0.0 ], [ 14.697041498505586, 55.096301806822765, 0.0 ], [ 14.697041778217722, 55.095819661774378, 0.0 ], [ 14.696968816778901, 55.095961801451004, 0.0 ] ] ] ] } }
]
}
