{
"type": "FeatureCollection",
"name": "aviation_bird_collision",
"crs": { "type": "name", "properties": { "name": "urn:ogc:def:crs:OGC:1.3:CRS84" } },
"features": [
{ "type": "Feature", "properties": { "layer_id": "aviation_bird_collision", "label": "Aviation bird-collision zones", "tooltip_title": "Source layer: Aviation bird-collision zones", "tooltip_body": "Bird-collision sensitivity polygons.<br>Clipped to Bornholm DAGI Landsdel landmass." }, "geometry": { "type": "MultiPolygon", "coordinates": [ [ [ [ 14.777415383715203, 55.178656117217862, 0.0 ], [ 14.790106584274893, 55.177764269941228, 0.0 ], [ 14.801111720086574, 55.176610489068466, 0.0 ], [ 14.813530266656359, 55.174869836817308, 0.0 ], [ 14.824220532541689, 55.172982679907314, 0.0 ], [ 14.834712539498293, 55.170761684818501, 0.0 ], [ 14.846419823580366, 55.167823334546661, 0.0 ], [ 14.85778021703322, 55.164469476207323, 0.0 ], [ 14.868748755447946, 55.160713419651856, 0.0 ], [ 14.877990643380194, 55.157108620750954, 0.0 ], [ 14.888108933001234, 55.152639815656194, 0.0 ], [ 14.897715559834772, 55.147815730962492, 0.0 ], [ 14.906772665630522, 55.142655482598713, 0.0 ], [ 14.914218780359851, 55.137880545534344, 0.0 ], [ 14.92215132805098, 55.132146062527539, 0.0 ], [ 14.929438352819588, 55.126137460042607, 0.0 ], [ 14.936051340363248, 55.119878504141703, 0.0 ], [ 14.941964479339731, 55.113393943603995, 0.0 ], [ 14.946546218297751, 55.107555010515249, 0.0 ], [ 14.950560870803855, 55.101580614007482, 0.0 ], [ 14.95443949677721, 55.094610043546503, 0.0 ], [ 14.957547087627653, 55.08751364678038, 0.0 ], [ 14.95962435525216, 55.081223074675627, 0.0 ], [ 14.961256784199696, 55.07396648043423, 0.0 ], [ 14.962092527015049, 55.0666654312463, 0.0 ], [ 14.962167952574083, 55.060263144798938, 0.0 ], [ 14.961504697656105, 55.052956267151941, 0.0 ], [ 14.960045038355664, 55.045687621158542, 0.0 ], [ 14.957795140648907, 55.038485781653073, 0.0 ], [ 14.95518544364155, 55.032261229990851, 0.0 ], [ 14.95148121189445, 55.025260623494837, 0.0 ], [ 14.947021544018936, 55.018407049500077, 0.0 ], [ 14.942353570635392, 55.012360491299553, 0.0 ], [ 14.936476712730755, 55.014672618552105, 0.0 ], [ 14.931250299319645, 55.015888269154594, 0.0 ], [ 14.9290922574967, 55.015724523060051, 0.0 ], [ 14.927672100753801, 55.014872314700298, 0.0 ], [ 14.92446479671945, 55.014377507250728, 0.0 ], [ 14.923972924037745, 55.015184976142329, 0.0 ], [ 14.9227117530553, 55.016015793264948, 0.0 ], [ 14.9129412969735, 55.021149166681987, 0.0 ], [ 14.907623004158415, 55.022803435345345, 0.0 ], [ 14.905562469245471, 55.022483354228221, 0.0 ], [ 14.905279588638569, 55.022167623451104, 0.0 ], [ 14.905124961895902, 55.022830741381647, 0.0 ], [ 14.904625197808912, 55.022967519773992, 0.0 ], [ 14.903952023490058, 55.022493790979723, 0.0 ], [ 14.905302633959266, 55.021957364647214, 0.0 ], [ 14.903925910235973, 55.022231728453889, 0.0 ], [ 14.903515529493967, 55.022858768230243, 0.0 ], [ 14.901765103818132, 55.023227190344343, 0.0 ], [ 14.89749105195793, 55.025938694543335, 0.0 ], [ 14.886327132763927, 55.031480164528503, 0.0 ], [ 14.881679019569534, 55.032838816249765, 0.0 ], [ 14.876718181573677, 55.033601688565319, 0.0 ], [ 14.872485171564573, 55.035405390377363, 0.0 ], [ 14.867715845498964, 55.036200021834254, 0.0 ], [ 14.866682355743846, 55.036857327677339, 0.0 ], [ 14.862869744919808, 55.038173914895218, 0.0 ], [ 14.857566384104299, 55.039022569564167, 0.0 ], [ 14.852248738684462, 55.040301187909904, 0.0 ], [ 14.850622522628065, 55.040294191764126, 0.0 ], [ 14.844393375033411, 55.042214627581473, 0.0 ], [ 14.841335658784317, 55.042718030307249, 0.0 ], [ 14.83600818737812, 55.042655912679464, 0.0 ], [ 14.833620462650412, 55.042034076103654, 0.0 ], [ 14.832372758282654, 55.040947151256084, 0.0 ], [ 14.8320119291475, 55.040986193489502, 0.0 ], [ 14.822594470551902, 55.044147364321134, 0.0 ], [ 14.817934482871696, 55.046127099991203, 0.0 ], [ 14.814915803333632, 55.046771444839365, 0.0 ], [ 14.808127901103751, 55.050614683083793, 0.0 ], [ 14.808974978579034, 55.05031585545057, 0.0 ], [ 14.808748392938275, 55.050447514313582, 0.0 ], [ 14.808110826864674, 55.050656911098443, 0.0 ], [ 14.80688057651324, 55.050829853342897, 0.0 ], [ 14.806741925733405, 55.050984036749057, 0.0 ], [ 14.8044449677366, 55.051310713670219, 0.0 ], [ 14.801991842791693, 55.052469963756003, 0.0 ], [ 14.798335816950681, 55.053352302308312, 0.0 ], [ 14.794229000674186, 55.053900553639288, 0.0 ], [ 14.789696748565435, 55.053893899876385, 0.0 ], [ 14.79000247973201, 55.053969334473834, 0.0 ], [ 14.789983382688746, 55.054090875546535, 0.0 ], [ 14.776877024252778, 55.052234357098214, 0.0 ], [ 14.771093651103877, 55.05472767275463, 0.0 ], [ 14.765710816438753, 55.057695699485272, 0.0 ], [ 14.761902838821385, 55.058300199266526, 0.0 ], [ 14.756371993015769, 55.06137761236949, 0.0 ], [ 14.753049612735444, 55.062224167607788, 0.0 ], [ 14.751392776127004, 55.062279020998147, 0.0 ], [ 14.751186782965855, 55.062873913705985, 0.0 ], [ 14.750296091871334, 55.063300504079464, 0.0 ], [ 14.748392677584391, 55.063531194263987, 0.0 ], [ 14.746311443796177, 55.063252749054207, 0.0 ], [ 14.744608011947065, 55.063628744475693, 0.0 ], [ 14.743128903969467, 55.064516124476384, 0.0 ], [ 14.740984524038343, 55.066716383737017, 0.0 ], [ 14.736295650766674, 55.067997157126761, 0.0 ], [ 14.735670661626099, 55.068745677234695, 0.0 ], [ 14.735801306813446, 55.069746819327975, 0.0 ], [ 14.734082459479021, 55.070754870516517, 0.0 ], [ 14.734155606287025, 55.071286579106257, 0.0 ], [ 14.72808741516438, 55.077088371692852, 0.0 ], [ 14.72546099172969, 55.078827663421016, 0.0 ], [ 14.722272922089889, 55.080162719567362, 0.0 ], [ 14.719832589304804, 55.080446150286797, 0.0 ], [ 14.720053368407694, 55.080621545659149, 0.0 ], [ 14.718548347548646, 55.081092402446203, 0.0 ], [ 14.715693492078248, 55.080963186057993, 0.0 ], [ 14.713749576790919, 55.081617667597151, 0.0 ], [ 14.712587626409228, 55.0814794415828, 0.0 ], [ 14.711915117733081, 55.080997802965868, 0.0 ], [ 14.712007944179865, 55.081291484897818, 0.0 ], [ 14.710701806743193, 55.081429899014964, 0.0 ], [ 14.709391844669643, 55.08225423460518, 0.0 ], [ 14.707509267465042, 55.082631803208905, 0.0 ], [ 14.705430363019673, 55.083484139580641, 0.0 ], [ 14.70271838649429, 55.087155368369743, 0.0 ], [ 14.700718167443476, 55.088428261538745, 0.0 ], [ 14.69537092215845, 55.086478117962656, 0.0 ], [ 14.692445191266156, 55.08621025383038, 0.0 ], [ 14.688708694723447, 55.086860674991904, 0.0 ], [ 14.684115561433966, 55.088991349043283, 0.0 ], [ 14.684362458733872, 55.089138219114375, 0.0 ], [ 14.689794206335224, 55.086749407123968, 0.0 ], [ 14.694050104281331, 55.087604972106874, 0.0 ], [ 14.694697012954199, 55.088003562244744, 0.0 ], [ 14.691127666914667, 55.089761973600247, 0.0 ], [ 14.691616493396451, 55.090042416513519, 0.0 ], [ 14.691233572461808, 55.090262904086934, 0.0 ], [ 14.692230480695686, 55.090688939711065, 0.0 ], [ 14.689757507308014, 55.092248360925275, 0.0 ], [ 14.682358154935519, 55.092978340184544, 0.0 ], [ 14.681398529861259, 55.093468286201357, 0.0 ], [ 14.689069732824592, 55.092463232349729, 0.0 ], [ 14.68643262636259, 55.095048627706916, 0.0 ], [ 14.688563786276056, 55.094273138627585, 0.0 ], [ 14.689111473332984, 55.093077981227012, 0.0 ], [ 14.689692848618094, 55.09315731954284, 0.0 ], [ 14.69094148120552, 55.095181972363427, 0.0 ], [ 14.692600828315109, 55.095873834426328, 0.0 ], [ 14.691671419920674, 55.094301240351164, 0.0 ], [ 14.692526243026059, 55.094001738628727, 0.0 ], [ 14.691636661937176, 55.094195029422544, 0.0 ], [ 14.69139346521837, 55.093849872233498, 0.0 ], [ 14.69314633289645, 55.093098421114156, 0.0 ], [ 14.6938502868901, 55.093427550356751, 0.0 ], [ 14.692851272754369, 55.094047711537229, 0.0 ], [ 14.692969369356142, 55.094108697033782, 0.0 ], [ 14.693838829618688, 55.093542049137675, 0.0 ], [ 14.695598943346885, 55.09410744126059, 0.0 ], [ 14.695522626258606, 55.09458595121837, 0.0 ], [ 14.693435017516597, 55.095417314517171, 0.0 ], [ 14.694282697498918, 55.095958174343522, 0.0 ], [ 14.697144020174532, 55.094783627984917, 0.0 ], [ 14.697452420819024, 55.095374162877505, 0.0 ], [ 14.698460906020978, 55.095393720923887, 0.0 ], [ 14.697965105779103, 55.097013443451218, 0.0 ], [ 14.696092483797576, 55.098159544005846, 0.0 ], [ 14.696029192087204, 55.098513669700949, 0.0 ], [ 14.696647980263544, 55.098423249881172, 0.0 ], [ 14.696066898667572, 55.098763678782817, 0.0 ], [ 14.695342886838622, 55.098346473607144, 0.0 ], [ 14.696107957238477, 55.09802262226524, 0.0 ], [ 14.696078880582515, 55.097928838151915, 0.0 ], [ 14.694877889287453, 55.098385925871931, 0.0 ], [ 14.69254318208176, 55.098107696275484, 0.0 ], [ 14.694808815281432, 55.098794242049514, 0.0 ], [ 14.694001853258795, 55.099836134135678, 0.0 ], [ 14.693160841880713, 55.099861164406505, 0.0 ], [ 14.692742751853432, 55.099050539329774, 0.0 ], [ 14.692049103874862, 55.09912140351112, 0.0 ], [ 14.691787138133526, 55.099803318484554, 0.0 ], [ 14.691112399922478, 55.099773461914062, 0.0 ], [ 14.691209308105496, 55.097511657697382, 0.0 ], [ 14.690647841189671, 55.097547153680992, 0.0 ], [ 14.690729122273273, 55.098000719893072, 0.0 ], [ 14.689884017419574, 55.098154284040803, 0.0 ], [ 14.689676643648056, 55.099687714663773, 0.0 ], [ 14.688000758846593, 55.099611128360387, 0.0 ], [ 14.687302582039372, 55.097235615047552, 0.0 ], [ 14.688594259362825, 55.096621416941197, 0.0 ], [ 14.685773585524391, 55.097515157332232, 0.0 ], [ 14.685165848580116, 55.096767040168587, 0.0 ], [ 14.685433928001267, 55.095662137897371, 0.0 ], [ 14.684986293915141, 55.09699211645313, 0.0 ], [ 14.682536635206906, 55.097322368971483, 0.0 ], [ 14.681116093013239, 55.094570068263046, 0.0 ], [ 14.680701105616, 55.094821815742826, 0.0 ], [ 14.683932685969818, 55.100814209005371, 0.0 ], [ 14.685578987786306, 55.102721103702088, 0.0 ], [ 14.694312604891913, 55.106647642276116, 0.0 ], [ 14.690815425542642, 55.104422616051465, 0.0 ], [ 14.69231248718318, 55.10406943847974, 0.0 ], [ 14.694240185003196, 55.105027221196664, 0.0 ], [ 14.693599727416769, 55.104184895998998, 0.0 ], [ 14.692195913757395, 55.10393015557532, 0.0 ], [ 14.691774629277695, 55.103495946873487, 0.0 ], [ 14.692533403825262, 55.10326360344834, 0.0 ], [ 14.693601023710594, 55.104123533663774, 0.0 ], [ 14.693753582441962, 55.10375334234454, 0.0 ], [ 14.69309091160115, 55.103374833823935, 0.0 ], [ 14.693544365833127, 55.103248524609299, 0.0 ], [ 14.694164694715351, 55.104451771539523, 0.0 ], [ 14.696279822600891, 55.104688159216956, 0.0 ], [ 14.699423666927023, 55.107003882930037, 0.0 ], [ 14.700883123624179, 55.110592154968082, 0.0 ], [ 14.700174317772159, 55.112255729210965, 0.0 ], [ 14.701420311970294, 55.112763001760555, 0.0 ], [ 14.702554088741984, 55.114294709026439, 0.0 ], [ 14.702181470519633, 55.116058902451293, 0.0 ], [ 14.699491890870322, 55.11991735237315, 0.0 ], [ 14.698863510527733, 55.12164501261698, 0.0 ], [ 14.70314334597558, 55.124915389163633, 0.0 ], [ 14.705968026453133, 55.128005274448476, 0.0 ], [ 14.70699170409554, 55.13017378063293, 0.0 ], [ 14.70767807795608, 55.135168123105821, 0.0 ], [ 14.706789587638756, 55.142142755891413, 0.0 ], [ 14.705694181784803, 55.146305758569021, 0.0 ], [ 14.704228236772337, 55.148421768901223, 0.0 ], [ 14.705181831453872, 55.149625091436477, 0.0 ], [ 14.704590552785914, 55.150749806546472, 0.0 ], [ 14.705652392882349, 55.154219189729595, 0.0 ], [ 14.704027694170371, 55.160680049031384, 0.0 ], [ 14.706385714799183, 55.165014869505022, 0.0 ], [ 14.706316782389262, 55.168022715427973, 0.0 ], [ 14.705424519176628, 55.169823999333126, 0.0 ], [ 14.705709310073967, 55.170799653649723, 0.0 ], [ 14.705038306942253, 55.173576058050429, 0.0 ], [ 14.704143597871255, 55.174814697417418, 0.0 ], [ 14.721701528404514, 55.177157766482026, 0.0 ], [ 14.740697004860893, 55.178661231877435, 0.0 ], [ 14.758257176302051, 55.179133479453618, 0.0 ], [ 14.777415383715203, 55.178656117217862, 0.0 ] ] ], [ [ [ 14.781016326464364, 55.050785741296032, 0.0 ], [ 14.780153276191131, 55.050855033037081, 0.0 ], [ 14.780317628939539, 55.051169841828234, 0.0 ], [ 14.780868141415223, 55.051129572594164, 0.0 ], [ 14.780327132458842, 55.050932901991452, 0.0 ], [ 14.780870641511314, 55.050837692918016, 0.0 ], [ 14.781188899149766, 55.051145438405328, 0.0 ], [ 14.781016326464364, 55.050785741296032, 0.0 ] ] ], [ [ [ 14.696968816778901, 55.095961801451004, 0.0 ], [ 14.697041498505586, 55.096301806822765, 0.0 ], [ 14.697041778217722, 55.095819661774378, 0.0 ], [ 14.696968816778901, 55.095961801451004, 0.0 ] ] ] ] } }
]
}
