{
"type": "FeatureCollection",
"name": "buildings_high",
"crs": { "type": "name", "properties": { "name": "urn:ogc:def:crs:OGC:1.3:CRS84" } },
"features": [
{ "type": "Feature", "properties": { "layer_id": "buildings_high", "label": "Buildings High", "tooltip_title": "Source layer: Buildings High", "tooltip_body": "Higher building structure, already used in the current hard-settlement logic.<br>Clipped to Bornholm DAGI Landsdel landmass." }, "geometry": { "type": "Polygon", "coordinates": [ [ [ 14.706529622617492, 55.113115165142311, 9.85 ], [ 14.708593973536244, 55.115979735411329, 11.55 ], [ 14.711469588955078, 55.115680347992566, 12.16 ], [ 14.710790424060265, 55.113528990202134, 10.91 ], [ 14.709347600996965, 55.112187056562711, 10.31 ], [ 14.706529622617492, 55.113115165142311, 9.85 ] ] ] } },
{ "type": "Feature", "properties": { "layer_id": "buildings_high", "label": "Buildings High", "tooltip_title": "Source layer: Buildings High", "tooltip_body": "Higher building structure, already used in the current hard-settlement logic.<br>Clipped to Bornholm DAGI Landsdel landmass." }, "geometry": { "type": "Polygon", "coordinates": [ [ [ 14.699711712077717, 55.106428286897575, 7.76 ], [ 14.700355751416517, 55.108156456314283, 6.14 ], [ 14.70150621313018, 55.107917823941406, 9.2 ], [ 14.700346801455339, 55.106323673265223, 10.18 ], [ 14.699711712077717, 55.106428286897575, 7.76 ] ] ] } },
{ "type": "Feature", "properties": { "layer_id": "buildings_high", "label": "Buildings High", "tooltip_title": "Source layer: Buildings High", "tooltip_body": "Higher building structure, already used in the current hard-settlement logic.<br>Clipped to Bornholm DAGI Landsdel landmass." }, "geometry": { "type": "Polygon", "coordinates": [ [ [ 14.923282154438182, 55.071554455807139, 80.49 ], [ 14.923300733108368, 55.070869052665742, 81.94 ], [ 14.922897828859137, 55.070883856532923, 82.76 ], [ 14.923282154438182, 55.071554455807139, 80.49 ] ] ] } },
{ "type": "Feature", "properties": { "layer_id": "buildings_high", "label": "Buildings High", "tooltip_title": "Source layer: Buildings High", "tooltip_body": "Higher building structure, already used in the current hard-settlement logic.<br>Clipped to Bornholm DAGI Landsdel landmass." }, "geometry": { "type": "Polygon", "coordinates": [ [ [ 14.709847778045514, 55.090318907020226, 18.27 ], [ 14.707186309115187, 55.089460508155192, 16.16 ], [ 14.706118745063449, 55.090710531476653, 16.45 ], [ 14.706503047194593, 55.090844059558513, 16.76 ], [ 14.705787023802793, 55.091052704958678, 16.27 ], [ 14.706612944222456, 55.091333091432986, 16.9 ], [ 14.706047376045307, 55.092111499730059, 16.32 ], [ 14.705436845481003, 55.092275396924947, 15.93 ], [ 14.706119133655251, 55.093149811780059, 16.21 ], [ 14.708055070657652, 55.093060796050793, 17.46 ], [ 14.709847778045514, 55.090318907020226, 18.27 ] ] ] } },
{ "type": "Feature", "properties": { "layer_id": "buildings_high", "label": "Buildings High", "tooltip_title": "Source layer: Buildings High", "tooltip_body": "Higher building structure, already used in the current hard-settlement logic.<br>Clipped to Bornholm DAGI Landsdel landmass." }, "geometry": { "type": "Polygon", "coordinates": [ [ [ 14.699293903397329, 55.094812801625352, 6.93 ], [ 14.702523799347256, 55.095156879519877, 12.58 ], [ 14.70304209374464, 55.094861134189038, 13.25 ], [ 14.702680175304824, 55.094450369584976, 12.15 ], [ 14.698884518319005, 55.094032843377285, 11.7 ], [ 14.699293903397329, 55.094812801625352, 6.93 ] ] ] } }
]
}
