{
"type": "FeatureCollection",
"name": "built_centre",
"crs": { "type": "name", "properties": { "name": "urn:ogc:def:crs:OGC:1.3:CRS84" } },
"features": [
{ "type": "Feature", "properties": { "layer_id": "built_centre", "label": "Built Centre", "tooltip_title": "Source layer: Built Centre", "tooltip_body": "Town-centre footprint.<br>Clipped to Bornholm DAGI Landsdel landmass." }, "geometry": { "type": "Polygon", "coordinates": [ [ [ 14.919803842215289, 55.071375948821313, 84.42 ], [ 14.921081242168894, 55.071527088644601, 83.63 ], [ 14.921253645065031, 55.07121140542084, 84.51 ], [ 14.921885682381861, 55.071179033769091, 84.15 ], [ 14.921841141885871, 55.071601555883404, 82.77 ], [ 14.922657498559765, 55.071677944588991, 81.47 ], [ 14.922568587434343, 55.070698078932082, 83.52 ], [ 14.924169605398172, 55.070902894270247, 80.15 ], [ 14.924224619396185, 55.070250643442016, 80.74 ], [ 14.924842755387051, 55.070130975375875, 78.36 ], [ 14.924477412797156, 55.069447750098902, 78.98 ], [ 14.921353875277495, 55.070034958874999, 83.96 ], [ 14.920959752256541, 55.06974790878963, 83.24 ], [ 14.920577361477035, 55.069902150480303, 83.7 ], [ 14.92041066865769, 55.070702183505055, 85.1 ], [ 14.919805695431853, 55.071088754128638, 84.9 ], [ 14.919803842215289, 55.071375948821313, 84.42 ] ] ] } },
{ "type": "Feature", "properties": { "layer_id": "built_centre", "label": "Built Centre", "tooltip_title": "Source layer: Built Centre", "tooltip_body": "Town-centre footprint.<br>Clipped to Bornholm DAGI Landsdel landmass." }, "geometry": { "type": "Polygon", "coordinates": [ [ [ 14.69240946426415, 55.100932205180023, 2.36 ], [ 14.692983114089188, 55.10227654074351, 1.59 ], [ 14.692593669773251, 55.102487253883545, 1.96 ], [ 14.698900100571223, 55.106060848899013, 4.26 ], [ 14.699598946811221, 55.105903557551891, 9.65 ], [ 14.700346801455339, 55.106323673265223, 10.18 ], [ 14.701285130381263, 55.107618813437441, 9.05 ], [ 14.701914199320525, 55.107495030818392, 9.94 ], [ 14.702314112228189, 55.108145623183376, 9.58 ], [ 14.704161307969594, 55.107532721457744, 11.76 ], [ 14.706767670707604, 55.107227714850261, 9.87 ], [ 14.707016774839657, 55.106947125699214, 10.04 ], [ 14.705644290618338, 55.104805015075222, 13.84 ], [ 14.703481954710444, 55.103710169290594, 13.66 ], [ 14.703430875048452, 55.102693300079302, 14.35 ], [ 14.706288231179188, 55.102653761801335, 18.19 ], [ 14.707625178929622, 55.100844855436442, 20.66 ], [ 14.707608087857739, 55.099672187510777, 20.1 ], [ 14.706943064678608, 55.099735670745083, 19.66 ], [ 14.705239773895547, 55.096784817703522, 16.68 ], [ 14.704760662360293, 55.096689045225666, 16.69 ], [ 14.705308325771783, 55.095983590539738, 16.13 ], [ 14.702729447621369, 55.095632955450945, 13.8 ], [ 14.702941886379788, 55.095165148933113, 13.65 ], [ 14.699319980562327, 55.094811847664218, 7.01 ], [ 14.699333483287699, 55.096396688369929, 12.29 ], [ 14.697046574404579, 55.099123147480178, 9.79 ], [ 14.694800383879477, 55.099922721880354, 3.16 ], [ 14.694451679272941, 55.099800268556351, 2.45 ], [ 14.69240946426415, 55.100932205180023, 2.36 ] ] ] } },
{ "type": "Feature", "properties": { "layer_id": "built_centre", "label": "Built Centre", "tooltip_title": "Source layer: Built Centre", "tooltip_body": "Town-centre footprint.<br>Clipped to Bornholm DAGI Landsdel landmass." }, "geometry": { "type": "Polygon", "coordinates": [ [ [ 15.12862028987656, 55.063696857454289, 7.38 ], [ 15.130194943657376, 55.063925867967065, 6.54 ], [ 15.130010656723169, 55.064181894723319, 5.98 ], [ 15.131711010313239, 55.064895532291231, 5.84 ], [ 15.132210465449294, 55.06549301549363, 4.45 ], [ 15.13219517382117, 55.067667938686597, 3.8 ], [ 15.133614664688922, 55.067770139591737, 4.28 ], [ 15.134116229254241, 55.06834617004683, 3.8 ], [ 15.134379678263103, 55.066574239304053, 2.91 ], [ 15.135196559453474, 55.066577770751323, 2.99 ], [ 15.134805098152352, 55.0636409488, 2.51 ], [ 15.133669849833796, 55.062278393930249, 3.02 ], [ 15.133766861038739, 55.059770593469402, 2.93 ], [ 15.132271443141285, 55.058568507454019, 3.02 ], [ 15.128086064401552, 55.057326210923925, 2.34 ], [ 15.127227526883834, 55.05774649507736, 2.47 ], [ 15.127971508417081, 55.058242588660768, 1.82 ], [ 15.128080767071161, 55.058852863385063, 2.23 ], [ 15.129304217631388, 55.058881811565136, 3.4 ], [ 15.12961207618692, 55.059582987024321, 3.35 ], [ 15.126828572041687, 55.060385143758246, 4.96 ], [ 15.128711223363089, 55.061327410197336, 4.23 ], [ 15.129843304164913, 55.062556094474189, 4.6 ], [ 15.127590989946013, 55.063080114987159, 6.86 ], [ 15.12862028987656, 55.063696857454289, 7.38 ] ] ] } }
]
}
