{
"type": "FeatureCollection",
"name": "existing_wind_turbines",
"crs": { "type": "name", "properties": { "name": "urn:ogc:def:crs:OGC:1.3:CRS84" } },
"features": [
{ "type": "Feature", "properties": { "layer_id": "existing_wind_turbines", "label": "Existing wind turbines", "tooltip_title": "Source layer: Existing wind turbines", "tooltip_body": "Existing wind turbines / windmills from ENS. Included here as an optional electrical-infrastructure source.<br>Clipped to Bornholm DAGI Landsdel landmass." }, "geometry": { "type": "Point", "coordinates": [ 14.736274664641321, 55.214280963606981 ] } },
{ "type": "Feature", "properties": { "layer_id": "existing_wind_turbines", "label": "Existing wind turbines", "tooltip_title": "Source layer: Existing wind turbines", "tooltip_body": "Existing wind turbines / windmills from ENS. Included here as an optional electrical-infrastructure source.<br>Clipped to Bornholm DAGI Landsdel landmass." }, "geometry": { "type": "Point", "coordinates": [ 14.774811276476539, 55.221475598866249 ] } },
{ "type": "Feature", "properties": { "layer_id": "existing_wind_turbines", "label": "Existing wind turbines", "tooltip_title": "Source layer: Existing wind turbines", "tooltip_body": "Existing wind turbines / windmills from ENS. Included here as an optional electrical-infrastructure source.<br>Clipped to Bornholm DAGI Landsdel landmass." }, "geometry": { "type": "Point", "coordinates": [ 15.052295546801345, 55.052327047179183 ] } },
{ "type": "Feature", "properties": { "layer_id": "existing_wind_turbines", "label": "Existing wind turbines", "tooltip_title": "Source layer: Existing wind turbines", "tooltip_body": "Existing wind turbines / windmills from ENS. Included here as an optional electrical-infrastructure source.<br>Clipped to Bornholm DAGI Landsdel landmass." }, "geometry": { "type": "Point", "coordinates": [ 14.728660829630899, 55.207034000384809 ] } },
{ "type": "Feature", "properties": { "layer_id": "existing_wind_turbines", "label": "Existing wind turbines", "tooltip_title": "Source layer: Existing wind turbines", "tooltip_body": "Existing wind turbines / windmills from ENS. Included here as an optional electrical-infrastructure source.<br>Clipped to Bornholm DAGI Landsdel landmass." }, "geometry": { "type": "Point", "coordinates": [ 15.045099526234104, 55.0402508618442 ] } },
{ "type": "Feature", "properties": { "layer_id": "existing_wind_turbines", "label": "Existing wind turbines", "tooltip_title": "Source layer: Existing wind turbines", "tooltip_body": "Existing wind turbines / windmills from ENS. Included here as an optional electrical-infrastructure source.<br>Clipped to Bornholm DAGI Landsdel landmass." }, "geometry": { "type": "Point", "coordinates": [ 14.887609281423188, 55.065751080030964 ] } },
{ "type": "Feature", "properties": { "layer_id": "existing_wind_turbines", "label": "Existing wind turbines", "tooltip_title": "Source layer: Existing wind turbines", "tooltip_body": "Existing wind turbines / windmills from ENS. Included here as an optional electrical-infrastructure source.<br>Clipped to Bornholm DAGI Landsdel landmass." }, "geometry": { "type": "Point", "coordinates": [ 14.86853104973199, 55.04849909931167 ] } },
{ "type": "Feature", "properties": { "layer_id": "existing_wind_turbines", "label": "Existing wind turbines", "tooltip_title": "Source layer: Existing wind turbines", "tooltip_body": "Existing wind turbines / windmills from ENS. Included here as an optional electrical-infrastructure source.<br>Clipped to Bornholm DAGI Landsdel landmass." }, "geometry": { "type": "Point", "coordinates": [ 15.026216301179307, 55.151776641056763 ] } },
{ "type": "Feature", "properties": { "layer_id": "existing_wind_turbines", "label": "Existing wind turbines", "tooltip_title": "Source layer: Existing wind turbines", "tooltip_body": "Existing wind turbines / windmills from ENS. Included here as an optional electrical-infrastructure source.<br>Clipped to Bornholm DAGI Landsdel landmass." }, "geometry": { "type": "Point", "coordinates": [ 14.865670198312731, 55.056462368829102 ] } },
{ "type": "Feature", "properties": { "layer_id": "existing_wind_turbines", "label": "Existing wind turbines", "tooltip_title": "Source layer: Existing wind turbines", "tooltip_body": "Existing wind turbines / windmills from ENS. Included here as an optional electrical-infrastructure source.<br>Clipped to Bornholm DAGI Landsdel landmass." }, "geometry": { "type": "Point", "coordinates": [ 14.933498934784847, 55.144083684679075 ] } },
{ "type": "Feature", "properties": { "layer_id": "existing_wind_turbines", "label": "Existing wind turbines", "tooltip_title": "Source layer: Existing wind turbines", "tooltip_body": "Existing wind turbines / windmills from ENS. Included here as an optional electrical-infrastructure source.<br>Clipped to Bornholm DAGI Landsdel landmass." }, "geometry": { "type": "Point", "coordinates": [ 15.050124511743483, 55.055084382943505 ] } },
{ "type": "Feature", "properties": { "layer_id": "existing_wind_turbines", "label": "Existing wind turbines", "tooltip_title": "Source layer: Existing wind turbines", "tooltip_body": "Existing wind turbines / windmills from ENS. Included here as an optional electrical-infrastructure source.<br>Clipped to Bornholm DAGI Landsdel landmass." }, "geometry": { "type": "Point", "coordinates": [ 14.722981014987802, 55.120040309343771 ] } },
{ "type": "Feature", "properties": { "layer_id": "existing_wind_turbines", "label": "Existing wind turbines", "tooltip_title": "Source layer: Existing wind turbines", "tooltip_body": "Existing wind turbines / windmills from ENS. Included here as an optional electrical-infrastructure source.<br>Clipped to Bornholm DAGI Landsdel landmass." }, "geometry": { "type": "Point", "coordinates": [ 15.077381315888216, 55.040235734662112 ] } },
{ "type": "Feature", "properties": { "layer_id": "existing_wind_turbines", "label": "Existing wind turbines", "tooltip_title": "Source layer: Existing wind turbines", "tooltip_body": "Existing wind turbines / windmills from ENS. Included here as an optional electrical-infrastructure source.<br>Clipped to Bornholm DAGI Landsdel landmass." }, "geometry": { "type": "Point", "coordinates": [ 14.99939331942214, 55.128373377357583 ] } },
{ "type": "Feature", "properties": { "layer_id": "existing_wind_turbines", "label": "Existing wind turbines", "tooltip_title": "Source layer: Existing wind turbines", "tooltip_body": "Existing wind turbines / windmills from ENS. Included here as an optional electrical-infrastructure source.<br>Clipped to Bornholm DAGI Landsdel landmass." }, "geometry": { "type": "Point", "coordinates": [ 14.873224007770025, 55.138808148294011 ] } },
{ "type": "Feature", "properties": { "layer_id": "existing_wind_turbines", "label": "Existing wind turbines", "tooltip_title": "Source layer: Existing wind turbines", "tooltip_body": "Existing wind turbines / windmills from ENS. Included here as an optional electrical-infrastructure source.<br>Clipped to Bornholm DAGI Landsdel landmass." }, "geometry": { "type": "Point", "coordinates": [ 15.046907534995277, 55.054846190126064 ] } },
{ "type": "Feature", "properties": { "layer_id": "existing_wind_turbines", "label": "Existing wind turbines", "tooltip_title": "Source layer: Existing wind turbines", "tooltip_body": "Existing wind turbines / windmills from ENS. Included here as an optional electrical-infrastructure source.<br>Clipped to Bornholm DAGI Landsdel landmass." }, "geometry": { "type": "Point", "coordinates": [ 14.867585529079125, 55.051151641116391 ] } },
{ "type": "Feature", "properties": { "layer_id": "existing_wind_turbines", "label": "Existing wind turbines", "tooltip_title": "Source layer: Existing wind turbines", "tooltip_body": "Existing wind turbines / windmills from ENS. Included here as an optional electrical-infrastructure source.<br>Clipped to Bornholm DAGI Landsdel landmass." }, "geometry": { "type": "Point", "coordinates": [ 14.87779616366095, 55.091864747611083 ] } },
{ "type": "Feature", "properties": { "layer_id": "existing_wind_turbines", "label": "Existing wind turbines", "tooltip_title": "Source layer: Existing wind turbines", "tooltip_body": "Existing wind turbines / windmills from ENS. Included here as an optional electrical-infrastructure source.<br>Clipped to Bornholm DAGI Landsdel landmass." }, "geometry": { "type": "Point", "coordinates": [ 14.889145259338342, 55.067811557617397 ] } },
{ "type": "Feature", "properties": { "layer_id": "existing_wind_turbines", "label": "Existing wind turbines", "tooltip_title": "Source layer: Existing wind turbines", "tooltip_body": "Existing wind turbines / windmills from ENS. Included here as an optional electrical-infrastructure source.<br>Clipped to Bornholm DAGI Landsdel landmass." }, "geometry": { "type": "Point", "coordinates": [ 14.760698172978792, 55.162198647816453 ] } },
{ "type": "Feature", "properties": { "layer_id": "existing_wind_turbines", "label": "Existing wind turbines", "tooltip_title": "Source layer: Existing wind turbines", "tooltip_body": "Existing wind turbines / windmills from ENS. Included here as an optional electrical-infrastructure source.<br>Clipped to Bornholm DAGI Landsdel landmass." }, "geometry": { "type": "Point", "coordinates": [ 15.013185163672432, 55.169888077169759 ] } },
{ "type": "Feature", "properties": { "layer_id": "existing_wind_turbines", "label": "Existing wind turbines", "tooltip_title": "Source layer: Existing wind turbines", "tooltip_body": "Existing wind turbines / windmills from ENS. Included here as an optional electrical-infrastructure source.<br>Clipped to Bornholm DAGI Landsdel landmass." }, "geometry": { "type": "Point", "coordinates": [ 14.797728501321611, 55.144997882903866 ] } },
{ "type": "Feature", "properties": { "layer_id": "existing_wind_turbines", "label": "Existing wind turbines", "tooltip_title": "Source layer: Existing wind turbines", "tooltip_body": "Existing wind turbines / windmills from ENS. Included here as an optional electrical-infrastructure source.<br>Clipped to Bornholm DAGI Landsdel landmass." }, "geometry": { "type": "Point", "coordinates": [ 14.719258780796352, 55.198612929682561 ] } },
{ "type": "Feature", "properties": { "layer_id": "existing_wind_turbines", "label": "Existing wind turbines", "tooltip_title": "Source layer: Existing wind turbines", "tooltip_body": "Existing wind turbines / windmills from ENS. Included here as an optional electrical-infrastructure source.<br>Clipped to Bornholm DAGI Landsdel landmass." }, "geometry": { "type": "Point", "coordinates": [ 14.773543068775451, 55.208395031501986 ] } },
{ "type": "Feature", "properties": { "layer_id": "existing_wind_turbines", "label": "Existing wind turbines", "tooltip_title": "Source layer: Existing wind turbines", "tooltip_body": "Existing wind turbines / windmills from ENS. Included here as an optional electrical-infrastructure source.<br>Clipped to Bornholm DAGI Landsdel landmass." }, "geometry": { "type": "Point", "coordinates": [ 14.770469590308494, 55.208018898256675 ] } },
{ "type": "Feature", "properties": { "layer_id": "existing_wind_turbines", "label": "Existing wind turbines", "tooltip_title": "Source layer: Existing wind turbines", "tooltip_body": "Existing wind turbines / windmills from ENS. Included here as an optional electrical-infrastructure source.<br>Clipped to Bornholm DAGI Landsdel landmass." }, "geometry": { "type": "Point", "coordinates": [ 14.715918501851007, 55.218465365739412 ] } },
{ "type": "Feature", "properties": { "layer_id": "existing_wind_turbines", "label": "Existing wind turbines", "tooltip_title": "Source layer: Existing wind turbines", "tooltip_body": "Existing wind turbines / windmills from ENS. Included here as an optional electrical-infrastructure source.<br>Clipped to Bornholm DAGI Landsdel landmass." }, "geometry": { "type": "Point", "coordinates": [ 14.975078481477743, 55.131478109130938 ] } },
{ "type": "Feature", "properties": { "layer_id": "existing_wind_turbines", "label": "Existing wind turbines", "tooltip_title": "Source layer: Existing wind turbines", "tooltip_body": "Existing wind turbines / windmills from ENS. Included here as an optional electrical-infrastructure source.<br>Clipped to Bornholm DAGI Landsdel landmass." }, "geometry": { "type": "Point", "coordinates": [ 15.075366113145867, 55.023104510797978 ] } },
{ "type": "Feature", "properties": { "layer_id": "existing_wind_turbines", "label": "Existing wind turbines", "tooltip_title": "Source layer: Existing wind turbines", "tooltip_body": "Existing wind turbines / windmills from ENS. Included here as an optional electrical-infrastructure source.<br>Clipped to Bornholm DAGI Landsdel landmass." }, "geometry": { "type": "Point", "coordinates": [ 14.899193603623566, 55.083635664238486 ] } },
{ "type": "Feature", "properties": { "layer_id": "existing_wind_turbines", "label": "Existing wind turbines", "tooltip_title": "Source layer: Existing wind turbines", "tooltip_body": "Existing wind turbines / windmills from ENS. Included here as an optional electrical-infrastructure source.<br>Clipped to Bornholm DAGI Landsdel landmass." }, "geometry": { "type": "Point", "coordinates": [ 15.11961357155921, 55.137413192882114 ] } },
{ "type": "Feature", "properties": { "layer_id": "existing_wind_turbines", "label": "Existing wind turbines", "tooltip_title": "Source layer: Existing wind turbines", "tooltip_body": "Existing wind turbines / windmills from ENS. Included here as an optional electrical-infrastructure source.<br>Clipped to Bornholm DAGI Landsdel landmass." }, "geometry": { "type": "Point", "coordinates": [ 15.00248896144886, 55.134781555787178 ] } },
{ "type": "Feature", "properties": { "layer_id": "existing_wind_turbines", "label": "Existing wind turbines", "tooltip_title": "Source layer: Existing wind turbines", "tooltip_body": "Existing wind turbines / windmills from ENS. Included here as an optional electrical-infrastructure source.<br>Clipped to Bornholm DAGI Landsdel landmass." }, "geometry": { "type": "Point", "coordinates": [ 14.935429806661341, 55.203503313796958 ] } },
{ "type": "Feature", "properties": { "layer_id": "existing_wind_turbines", "label": "Existing wind turbines", "tooltip_title": "Source layer: Existing wind turbines", "tooltip_body": "Existing wind turbines / windmills from ENS. Included here as an optional electrical-infrastructure source.<br>Clipped to Bornholm DAGI Landsdel landmass." }, "geometry": { "type": "Point", "coordinates": [ 14.928125137274423, 55.143220861396372 ] } },
{ "type": "Feature", "properties": { "layer_id": "existing_wind_turbines", "label": "Existing wind turbines", "tooltip_title": "Source layer: Existing wind turbines", "tooltip_body": "Existing wind turbines / windmills from ENS. Included here as an optional electrical-infrastructure source.<br>Clipped to Bornholm DAGI Landsdel landmass." }, "geometry": { "type": "Point", "coordinates": [ 15.054109835480055, 55.12533003849672 ] } },
{ "type": "Feature", "properties": { "layer_id": "existing_wind_turbines", "label": "Existing wind turbines", "tooltip_title": "Source layer: Existing wind turbines", "tooltip_body": "Existing wind turbines / windmills from ENS. Included here as an optional electrical-infrastructure source.<br>Clipped to Bornholm DAGI Landsdel landmass." }, "geometry": { "type": "Point", "coordinates": [ 14.878666584423604, 55.198917623480362 ] } },
{ "type": "Feature", "properties": { "layer_id": "existing_wind_turbines", "label": "Existing wind turbines", "tooltip_title": "Source layer: Existing wind turbines", "tooltip_body": "Existing wind turbines / windmills from ENS. Included here as an optional electrical-infrastructure source.<br>Clipped to Bornholm DAGI Landsdel landmass." }, "geometry": { "type": "Point", "coordinates": [ 14.716946305794123, 55.196477891541427 ] } },
{ "type": "Feature", "properties": { "layer_id": "existing_wind_turbines", "label": "Existing wind turbines", "tooltip_title": "Source layer: Existing wind turbines", "tooltip_body": "Existing wind turbines / windmills from ENS. Included here as an optional electrical-infrastructure source.<br>Clipped to Bornholm DAGI Landsdel landmass." }, "geometry": { "type": "Point", "coordinates": [ 14.807912069074957, 55.18573521291578 ] } },
{ "type": "Feature", "properties": { "layer_id": "existing_wind_turbines", "label": "Existing wind turbines", "tooltip_title": "Source layer: Existing wind turbines", "tooltip_body": "Existing wind turbines / windmills from ENS. Included here as an optional electrical-infrastructure source.<br>Clipped to Bornholm DAGI Landsdel landmass." }, "geometry": { "type": "Point", "coordinates": [ 14.746363195577397, 55.216496796787354 ] } },
{ "type": "Feature", "properties": { "layer_id": "existing_wind_turbines", "label": "Existing wind turbines", "tooltip_title": "Source layer: Existing wind turbines", "tooltip_body": "Existing wind turbines / windmills from ENS. Included here as an optional electrical-infrastructure source.<br>Clipped to Bornholm DAGI Landsdel landmass." }, "geometry": { "type": "Point", "coordinates": [ 15.053350082249803, 55.055326204008807 ] } },
{ "type": "Feature", "properties": { "layer_id": "existing_wind_turbines", "label": "Existing wind turbines", "tooltip_title": "Source layer: Existing wind turbines", "tooltip_body": "Existing wind turbines / windmills from ENS. Included here as an optional electrical-infrastructure source.<br>Clipped to Bornholm DAGI Landsdel landmass." }, "geometry": { "type": "Point", "coordinates": [ 14.763112306405132, 55.160420055582307 ] } },
{ "type": "Feature", "properties": { "layer_id": "existing_wind_turbines", "label": "Existing wind turbines", "tooltip_title": "Source layer: Existing wind turbines", "tooltip_body": "Existing wind turbines / windmills from ENS. Included here as an optional electrical-infrastructure source.<br>Clipped to Bornholm DAGI Landsdel landmass." }, "geometry": { "type": "Point", "coordinates": [ 14.901318138108682, 55.030036007123272 ] } },
{ "type": "Feature", "properties": { "layer_id": "existing_wind_turbines", "label": "Existing wind turbines", "tooltip_title": "Source layer: Existing wind turbines", "tooltip_body": "Existing wind turbines / windmills from ENS. Included here as an optional electrical-infrastructure source.<br>Clipped to Bornholm DAGI Landsdel landmass." }, "geometry": { "type": "Point", "coordinates": [ 15.047508102507365, 55.040897183630669 ] } },
{ "type": "Feature", "properties": { "layer_id": "existing_wind_turbines", "label": "Existing wind turbines", "tooltip_title": "Source layer: Existing wind turbines", "tooltip_body": "Existing wind turbines / windmills from ENS. Included here as an optional electrical-infrastructure source.<br>Clipped to Bornholm DAGI Landsdel landmass." }, "geometry": { "type": "Point", "coordinates": [ 15.094674541611102, 55.025562157608995 ] } },
{ "type": "Feature", "properties": { "layer_id": "existing_wind_turbines", "label": "Existing wind turbines", "tooltip_title": "Source layer: Existing wind turbines", "tooltip_body": "Existing wind turbines / windmills from ENS. Included here as an optional electrical-infrastructure source.<br>Clipped to Bornholm DAGI Landsdel landmass." }, "geometry": { "type": "Point", "coordinates": [ 15.070366313674491, 55.028202841570376 ] } },
{ "type": "Feature", "properties": { "layer_id": "existing_wind_turbines", "label": "Existing wind turbines", "tooltip_title": "Source layer: Existing wind turbines", "tooltip_body": "Existing wind turbines / windmills from ENS. Included here as an optional electrical-infrastructure source.<br>Clipped to Bornholm DAGI Landsdel landmass." }, "geometry": { "type": "Point", "coordinates": [ 14.731095620697094, 55.193714025117806 ] } },
{ "type": "Feature", "properties": { "layer_id": "existing_wind_turbines", "label": "Existing wind turbines", "tooltip_title": "Source layer: Existing wind turbines", "tooltip_body": "Existing wind turbines / windmills from ENS. Included here as an optional electrical-infrastructure source.<br>Clipped to Bornholm DAGI Landsdel landmass." }, "geometry": { "type": "Point", "coordinates": [ 15.030793233515325, 55.021588164260194 ] } },
{ "type": "Feature", "properties": { "layer_id": "existing_wind_turbines", "label": "Existing wind turbines", "tooltip_title": "Source layer: Existing wind turbines", "tooltip_body": "Existing wind turbines / windmills from ENS. Included here as an optional electrical-infrastructure source.<br>Clipped to Bornholm DAGI Landsdel landmass." }, "geometry": { "type": "Point", "coordinates": [ 14.730985526509965, 55.210369753218345 ] } },
{ "type": "Feature", "properties": { "layer_id": "existing_wind_turbines", "label": "Existing wind turbines", "tooltip_title": "Source layer: Existing wind turbines", "tooltip_body": "Existing wind turbines / windmills from ENS. Included here as an optional electrical-infrastructure source.<br>Clipped to Bornholm DAGI Landsdel landmass." }, "geometry": { "type": "Point", "coordinates": [ 15.139269308311881, 55.061655873943103 ] } },
{ "type": "Feature", "properties": { "layer_id": "existing_wind_turbines", "label": "Existing wind turbines", "tooltip_title": "Source layer: Existing wind turbines", "tooltip_body": "Existing wind turbines / windmills from ENS. Included here as an optional electrical-infrastructure source.<br>Clipped to Bornholm DAGI Landsdel landmass." }, "geometry": { "type": "Point", "coordinates": [ 14.767396320454996, 55.207643758867569 ] } },
{ "type": "Feature", "properties": { "layer_id": "existing_wind_turbines", "label": "Existing wind turbines", "tooltip_title": "Source layer: Existing wind turbines", "tooltip_body": "Existing wind turbines / windmills from ENS. Included here as an optional electrical-infrastructure source.<br>Clipped to Bornholm DAGI Landsdel landmass." }, "geometry": { "type": "Point", "coordinates": [ 15.081773882945644, 55.148978858513303 ] } },
{ "type": "Feature", "properties": { "layer_id": "existing_wind_turbines", "label": "Existing wind turbines", "tooltip_title": "Source layer: Existing wind turbines", "tooltip_body": "Existing wind turbines / windmills from ENS. Included here as an optional electrical-infrastructure source.<br>Clipped to Bornholm DAGI Landsdel landmass." }, "geometry": { "type": "Point", "coordinates": [ 14.758285698132322, 55.163979268531307 ] } },
{ "type": "Feature", "properties": { "layer_id": "existing_wind_turbines", "label": "Existing wind turbines", "tooltip_title": "Source layer: Existing wind turbines", "tooltip_body": "Existing wind turbines / windmills from ENS. Included here as an optional electrical-infrastructure source.<br>Clipped to Bornholm DAGI Landsdel landmass." }, "geometry": { "type": "Point", "coordinates": [ 15.052090221717357, 55.020644568929207 ] } },
{ "type": "Feature", "properties": { "layer_id": "existing_wind_turbines", "label": "Existing wind turbines", "tooltip_title": "Source layer: Existing wind turbines", "tooltip_body": "Existing wind turbines / windmills from ENS. Included here as an optional electrical-infrastructure source.<br>Clipped to Bornholm DAGI Landsdel landmass." }, "geometry": { "type": "Point", "coordinates": [ 14.978620405059674, 55.055789100327374 ] } },
{ "type": "Feature", "properties": { "layer_id": "existing_wind_turbines", "label": "Existing wind turbines", "tooltip_title": "Source layer: Existing wind turbines", "tooltip_body": "Existing wind turbines / windmills from ENS. Included here as an optional electrical-infrastructure source.<br>Clipped to Bornholm DAGI Landsdel landmass." }, "geometry": { "type": "Point", "coordinates": [ 14.796270593935848, 55.147131399237701 ] } },
{ "type": "Feature", "properties": { "layer_id": "existing_wind_turbines", "label": "Existing wind turbines", "tooltip_title": "Source layer: Existing wind turbines", "tooltip_body": "Existing wind turbines / windmills from ENS. Included here as an optional electrical-infrastructure source.<br>Clipped to Bornholm DAGI Landsdel landmass." }, "geometry": { "type": "Point", "coordinates": [ 14.782915981923381, 55.112193587197133 ] } },
{ "type": "Feature", "properties": { "layer_id": "existing_wind_turbines", "label": "Existing wind turbines", "tooltip_title": "Source layer: Existing wind turbines", "tooltip_body": "Existing wind turbines / windmills from ENS. Included here as an optional electrical-infrastructure source.<br>Clipped to Bornholm DAGI Landsdel landmass." }, "geometry": { "type": "Point", "coordinates": [ 14.72157893646599, 55.200753599577595 ] } },
{ "type": "Feature", "properties": { "layer_id": "existing_wind_turbines", "label": "Existing wind turbines", "tooltip_title": "Source layer: Existing wind turbines", "tooltip_body": "Existing wind turbines / windmills from ENS. Included here as an optional electrical-infrastructure source.<br>Clipped to Bornholm DAGI Landsdel landmass." }, "geometry": { "type": "Point", "coordinates": [ 15.04268950306002, 55.039603755820863 ] } },
{ "type": "Feature", "properties": { "layer_id": "existing_wind_turbines", "label": "Existing wind turbines", "tooltip_title": "Source layer: Existing wind turbines", "tooltip_body": "Existing wind turbines / windmills from ENS. Included here as an optional electrical-infrastructure source.<br>Clipped to Bornholm DAGI Landsdel landmass." }, "geometry": { "type": "Point", "coordinates": [ 14.74094427668531, 55.116027498839976 ] } },
{ "type": "Feature", "properties": { "layer_id": "existing_wind_turbines", "label": "Existing wind turbines", "tooltip_title": "Source layer: Existing wind turbines", "tooltip_body": "Existing wind turbines / windmills from ENS. Included here as an optional electrical-infrastructure source.<br>Clipped to Bornholm DAGI Landsdel landmass." }, "geometry": { "type": "Point", "coordinates": [ 14.739339899967742, 55.117010723930015 ] } },
{ "type": "Feature", "properties": { "layer_id": "existing_wind_turbines", "label": "Existing wind turbines", "tooltip_title": "Source layer: Existing wind turbines", "tooltip_body": "Existing wind turbines / windmills from ENS. Included here as an optional electrical-infrastructure source.<br>Clipped to Bornholm DAGI Landsdel landmass." }, "geometry": { "type": "Point", "coordinates": [ 14.770148729003816, 55.219386338737145 ] } },
{ "type": "Feature", "properties": { "layer_id": "existing_wind_turbines", "label": "Existing wind turbines", "tooltip_title": "Source layer: Existing wind turbines", "tooltip_body": "Existing wind turbines / windmills from ENS. Included here as an optional electrical-infrastructure source.<br>Clipped to Bornholm DAGI Landsdel landmass." }, "geometry": { "type": "Point", "coordinates": [ 14.878427785399003, 55.169619252306674 ] } },
{ "type": "Feature", "properties": { "layer_id": "existing_wind_turbines", "label": "Existing wind turbines", "tooltip_title": "Source layer: Existing wind turbines", "tooltip_body": "Existing wind turbines / windmills from ENS. Included here as an optional electrical-infrastructure source.<br>Clipped to Bornholm DAGI Landsdel landmass." }, "geometry": { "type": "Point", "coordinates": [ 15.009542474088709, 55.154814970906777 ] } },
{ "type": "Feature", "properties": { "layer_id": "existing_wind_turbines", "label": "Existing wind turbines", "tooltip_title": "Source layer: Existing wind turbines", "tooltip_body": "Existing wind turbines / windmills from ENS. Included here as an optional electrical-infrastructure source.<br>Clipped to Bornholm DAGI Landsdel landmass." }, "geometry": { "type": "Point", "coordinates": [ 15.027905398473711, 55.137187778963636 ] } },
{ "type": "Feature", "properties": { "layer_id": "existing_wind_turbines", "label": "Existing wind turbines", "tooltip_title": "Source layer: Existing wind turbines", "tooltip_body": "Existing wind turbines / windmills from ENS. Included here as an optional electrical-infrastructure source.<br>Clipped to Bornholm DAGI Landsdel landmass." }, "geometry": { "type": "Point", "coordinates": [ 15.139271940510222, 55.061026615570889 ] } },
{ "type": "Feature", "properties": { "layer_id": "existing_wind_turbines", "label": "Existing wind turbines", "tooltip_title": "Source layer: Existing wind turbines", "tooltip_body": "Existing wind turbines / windmills from ENS. Included here as an optional electrical-infrastructure source.<br>Clipped to Bornholm DAGI Landsdel landmass." }, "geometry": { "type": "Point", "coordinates": [ 14.890681246957277, 55.069878411210453 ] } },
{ "type": "Feature", "properties": { "layer_id": "existing_wind_turbines", "label": "Existing wind turbines", "tooltip_title": "Source layer: Existing wind turbines", "tooltip_body": "Existing wind turbines / windmills from ENS. Included here as an optional electrical-infrastructure source.<br>Clipped to Bornholm DAGI Landsdel landmass." }, "geometry": { "type": "Point", "coordinates": [ 14.866629547359668, 55.05380953968902 ] } },
{ "type": "Feature", "properties": { "layer_id": "existing_wind_turbines", "label": "Existing wind turbines", "tooltip_title": "Source layer: Existing wind turbines", "tooltip_body": "Existing wind turbines / windmills from ENS. Included here as an optional electrical-infrastructure source.<br>Clipped to Bornholm DAGI Landsdel landmass." }, "geometry": { "type": "Point", "coordinates": [ 15.050177583067581, 55.124492431587541 ] } },
{ "type": "Feature", "properties": { "layer_id": "existing_wind_turbines", "label": "Existing wind turbines", "tooltip_title": "Source layer: Existing wind turbines", "tooltip_body": "Existing wind turbines / windmills from ENS. Included here as an optional electrical-infrastructure source.<br>Clipped to Bornholm DAGI Landsdel landmass." }, "geometry": { "type": "Point", "coordinates": [ 14.89359801807171, 55.052519392447742 ] } },
{ "type": "Feature", "properties": { "layer_id": "existing_wind_turbines", "label": "Existing wind turbines", "tooltip_title": "Source layer: Existing wind turbines", "tooltip_body": "Existing wind turbines / windmills from ENS. Included here as an optional electrical-infrastructure source.<br>Clipped to Bornholm DAGI Landsdel landmass." }, "geometry": { "type": "Point", "coordinates": [ 14.794959530694186, 55.215026060005286 ] } },
{ "type": "Feature", "properties": { "layer_id": "existing_wind_turbines", "label": "Existing wind turbines", "tooltip_title": "Source layer: Existing wind turbines", "tooltip_body": "Existing wind turbines / windmills from ENS. Included here as an optional electrical-infrastructure source.<br>Clipped to Bornholm DAGI Landsdel landmass." }, "geometry": { "type": "Point", "coordinates": [ 14.72982420945222, 55.20869737664119 ] } },
{ "type": "Feature", "properties": { "layer_id": "existing_wind_turbines", "label": "Existing wind turbines", "tooltip_title": "Source layer: Existing wind turbines", "tooltip_body": "Existing wind turbines / windmills from ENS. Included here as an optional electrical-infrastructure source.<br>Clipped to Bornholm DAGI Landsdel landmass." }, "geometry": { "type": "Point", "coordinates": [ 14.742554268729002, 55.115041275361328 ] } },
{ "type": "Feature", "properties": { "layer_id": "existing_wind_turbines", "label": "Existing wind turbines", "tooltip_title": "Source layer: Existing wind turbines", "tooltip_body": "Existing wind turbines / windmills from ENS. Included here as an optional electrical-infrastructure source.<br>Clipped to Bornholm DAGI Landsdel landmass." }, "geometry": { "type": "Point", "coordinates": [ 14.864711302793552, 55.059113724888896 ] } },
{ "type": "Feature", "properties": { "layer_id": "existing_wind_turbines", "label": "Existing wind turbines", "tooltip_title": "Source layer: Existing wind turbines", "tooltip_body": "Existing wind turbines / windmills from ENS. Included here as an optional electrical-infrastructure source.<br>Clipped to Bornholm DAGI Landsdel landmass." }, "geometry": { "type": "Point", "coordinates": [ 14.861004975306376, 55.090780202968752 ] } }
]
}
