{
"type": "FeatureCollection",
"name": "high_voltage_lines",
"crs": { "type": "name", "properties": { "name": "urn:ogc:def:crs:OGC:1.3:CRS84" } },
"features": [
{ "type": "Feature", "properties": { "layer_id": "high_voltage_lines", "label": "High-voltage lines", "tooltip_title": "Source layer: High-voltage lines", "tooltip_body": "Primary grid-connection line source.<br>Clipped to Bornholm DAGI Landsdel landmass." }, "geometry": { "type": "LineString", "coordinates": [ [ 14.7956668, 55.2319985, 0.0 ], [ 14.796398, 55.231712099999989, 0.0 ], [ 14.793383, 55.1710102, 0.0 ] ] } },
{ "type": "Feature", "properties": { "layer_id": "high_voltage_lines", "label": "High-voltage lines", "tooltip_title": "Source layer: High-voltage lines", "tooltip_body": "Primary grid-connection line source.<br>Clipped to Bornholm DAGI Landsdel landmass." }, "geometry": { "type": "LineString", "coordinates": [ [ 14.7447425, 55.1119491, 0.0 ], [ 14.7446857, 55.111982, 0.0 ] ] } },
{ "type": "Feature", "properties": { "layer_id": "high_voltage_lines", "label": "High-voltage lines", "tooltip_title": "Source layer: High-voltage lines", "tooltip_body": "Primary grid-connection line source.<br>Clipped to Bornholm DAGI Landsdel landmass." }, "geometry": { "type": "LineString", "coordinates": [ [ 14.7447116, 55.1119246, 0.0 ], [ 14.7387255, 55.1068012, 0.0 ] ] } },
{ "type": "Feature", "properties": { "layer_id": "high_voltage_lines", "label": "High-voltage lines", "tooltip_title": "Source layer: High-voltage lines", "tooltip_body": "Primary grid-connection line source.<br>Clipped to Bornholm DAGI Landsdel landmass." }, "geometry": { "type": "LineString", "coordinates": [ [ 14.9353406, 55.1536947, 0.0 ], [ 14.8767194, 55.1691869, 0.0 ], [ 14.8428404, 55.1908321, 0.0 ], [ 14.808248, 55.2299133, 0.0 ], [ 14.7958438, 55.23214, 0.0 ] ] } },
{ "type": "Feature", "properties": { "layer_id": "high_voltage_lines", "label": "High-voltage lines", "tooltip_title": "Source layer: High-voltage lines", "tooltip_body": "Primary grid-connection line source.<br>Clipped to Bornholm DAGI Landsdel landmass." }, "geometry": { "type": "LineString", "coordinates": [ [ 15.0659657, 55.0631983, 0.0 ], [ 15.0519619, 55.0994132, 0.0 ], [ 15.0511163, 55.1000626, 0.0 ] ] } },
{ "type": "Feature", "properties": { "layer_id": "high_voltage_lines", "label": "High-voltage lines", "tooltip_title": "Source layer: High-voltage lines", "tooltip_body": "Primary grid-connection line source.<br>Clipped to Bornholm DAGI Landsdel landmass." }, "geometry": { "type": "LineString", "coordinates": [ [ 15.0510358, 55.1001174, 0.0 ], [ 15.0163016, 55.1263533, 0.0 ], [ 15.0057819, 55.13489, 0.0 ], [ 14.9353406, 55.1536947, 0.0 ] ] } },
{ "type": "Feature", "properties": { "layer_id": "high_voltage_lines", "label": "High-voltage lines", "tooltip_title": "Source layer: High-voltage lines", "tooltip_body": "Primary grid-connection line source.<br>Clipped to Bornholm DAGI Landsdel landmass." }, "geometry": { "type": "LineString", "coordinates": [ [ 14.793383, 55.1710102, 0.0 ], [ 14.7850496, 55.1708888, 0.0 ], [ 14.7627524, 55.172555499999987, 0.0 ], [ 14.7422898, 55.1678816, 0.0 ], [ 14.7233051, 55.170518299999983, 0.0 ] ] } },
{ "type": "Feature", "properties": { "layer_id": "high_voltage_lines", "label": "High-voltage lines", "tooltip_title": "Source layer: High-voltage lines", "tooltip_body": "Primary grid-connection line source.<br>Clipped to Bornholm DAGI Landsdel landmass." }, "geometry": { "type": "LineString", "coordinates": [ [ 14.7872631, 55.1534056, 0.0 ], [ 14.7682106, 55.1320027, 0.0 ], [ 14.7447116, 55.1119246, 0.0 ] ] } },
{ "type": "Feature", "properties": { "layer_id": "high_voltage_lines", "label": "High-voltage lines", "tooltip_title": "Source layer: High-voltage lines", "tooltip_body": "Primary grid-connection line source.<br>Clipped to Bornholm DAGI Landsdel landmass." }, "geometry": { "type": "LineString", "coordinates": [ [ 15.0510358, 55.1001174, 0.0 ], [ 15.0511163, 55.1000626, 0.0 ] ] } },
{ "type": "Feature", "properties": { "layer_id": "high_voltage_lines", "label": "High-voltage lines", "tooltip_title": "Source layer: High-voltage lines", "tooltip_body": "Primary grid-connection line source.<br>Clipped to Bornholm DAGI Landsdel landmass." }, "geometry": { "type": "LineString", "coordinates": [ [ 14.7446665, 55.1118878, 0.0 ], [ 14.7446087, 55.1119024, 0.0 ] ] } },
{ "type": "Feature", "properties": { "layer_id": "high_voltage_lines", "label": "High-voltage lines", "tooltip_title": "Source layer: High-voltage lines", "tooltip_body": "Primary grid-connection line source.<br>Clipped to Bornholm DAGI Landsdel landmass." }, "geometry": { "type": "LineString", "coordinates": [ [ 14.793383, 55.1710102, 0.0 ], [ 14.7928414, 55.1597091, 0.0 ], [ 14.7872631, 55.1534056, 0.0 ] ] } },
{ "type": "Feature", "properties": { "layer_id": "high_voltage_lines", "label": "High-voltage lines", "tooltip_title": "Source layer: High-voltage lines", "tooltip_body": "Primary grid-connection line source.<br>Clipped to Bornholm DAGI Landsdel landmass." }, "geometry": { "type": "LineString", "coordinates": [ [ 14.8978577, 55.0681549, 0.0 ], [ 14.9219576, 55.0645274, 0.0 ], [ 14.9857914, 55.0591281, 0.0 ], [ 15.0659725, 55.0630355, 0.0 ] ] } },
{ "type": "Feature", "properties": { "layer_id": "high_voltage_lines", "label": "High-voltage lines", "tooltip_title": "Source layer: High-voltage lines", "tooltip_body": "Primary grid-connection line source.<br>Clipped to Bornholm DAGI Landsdel landmass." }, "geometry": { "type": "LineString", "coordinates": [ [ 14.7235546, 55.1702693, 0.0 ], [ 14.7347581, 55.16699, 0.0 ], [ 14.7872631, 55.1534056, 0.0 ] ] } },
{ "type": "Feature", "properties": { "layer_id": "high_voltage_lines", "label": "High-voltage lines", "tooltip_title": "Source layer: High-voltage lines", "tooltip_body": "Primary grid-connection line source.<br>Clipped to Bornholm DAGI Landsdel landmass." }, "geometry": { "type": "LineString", "coordinates": [ [ 14.7304628, 55.08994, 0.0 ], [ 14.7564331, 55.0894363, 0.0 ], [ 14.8978577, 55.0681549, 0.0 ] ] } }
]
}
