{
"type": "FeatureCollection",
"name": "military_areas",
"crs": { "type": "name", "properties": { "name": "urn:ogc:def:crs:OGC:1.3:CRS84" } },
"features": [
{ "type": "Feature", "properties": { "layer_id": "military_areas", "label": "Military areas", "tooltip_title": "Source layer: Military areas", "tooltip_body": "Military training or protected-use polygons.<br>Clipped to Bornholm DAGI Landsdel landmass." }, "geometry": { "type": "Polygon", "coordinates": [ [ [ 14.713934313845733, 55.12046618011447, 0.0 ], [ 14.716230795472894, 55.12410099027008, 0.0 ], [ 14.720092068636502, 55.123998070819248, 0.0 ], [ 14.723026701280798, 55.124356107969767, 0.0 ], [ 14.725004669979365, 55.121158781759583, 0.0 ], [ 14.723575668374771, 55.119927430792458, 0.0 ], [ 14.717251924587716, 55.118988773465802, 0.0 ], [ 14.713934313845733, 55.12046618011447, 0.0 ] ] ] } },
{ "type": "Feature", "properties": { "layer_id": "military_areas", "label": "Military areas", "tooltip_title": "Source layer: Military areas", "tooltip_body": "Military training or protected-use polygons.<br>Clipped to Bornholm DAGI Landsdel landmass." }, "geometry": { "type": "Polygon", "coordinates": [ [ [ 14.746486337053083, 55.119331173519697, 0.0 ], [ 14.746654417689841, 55.119951739650752, 0.0 ], [ 14.743773090054122, 55.120010348818603, 0.0 ], [ 14.744630945334855, 55.121556645250422, 0.0 ], [ 14.742051849762074, 55.121914093684339, 0.0 ], [ 14.741822992418079, 55.121149123811719, 0.0 ], [ 14.734164798102048, 55.121074323808593, 0.0 ], [ 14.734151475106938, 55.120257128395799, 0.0 ], [ 14.731256894523012, 55.119705375235689, 0.0 ], [ 14.731593035964654, 55.118532408056197, 0.0 ], [ 14.732145312234577, 55.118161030952365, 0.0 ], [ 14.728306813463615, 55.116596125659058, 0.0 ], [ 14.726027954533526, 55.116224057060641, 0.0 ], [ 14.723575668374771, 55.119927430792458, 0.0 ], [ 14.725004669979365, 55.121158781759583, 0.0 ], [ 14.723026701280798, 55.124356107969767, 0.0 ], [ 14.725521916091187, 55.124716695223483, 0.0 ], [ 14.728511728623847, 55.128048205269323, 0.0 ], [ 14.727876385925015, 55.128612428166619, 0.0 ], [ 14.73040309387874, 55.131727638781442, 0.0 ], [ 14.729748076239657, 55.132112490879273, 0.0 ], [ 14.729847865235691, 55.132434102749144, 0.0 ], [ 14.728113843907394, 55.133046092166097, 0.0 ], [ 14.728020238957116, 55.13350465107105, 0.0 ], [ 14.725475336693059, 55.13559351198866, 0.0 ], [ 14.738913163282975, 55.134191118753144, 0.0 ], [ 14.738810271842681, 55.133471863057693, 0.0 ], [ 14.739413169783413, 55.133446890246177, 0.0 ], [ 14.739634332633095, 55.127407744896871, 0.0 ], [ 14.741025577873769, 55.12729410664604, 0.0 ], [ 14.740763857550604, 55.126907779692566, 0.0 ], [ 14.739145795711867, 55.126565201239295, 0.0 ], [ 14.73836331229268, 55.125689553238509, 0.0 ], [ 14.739297926048268, 55.125584182401745, 0.0 ], [ 14.741331445683661, 55.126005242316445, 0.0 ], [ 14.741431443459417, 55.125551857959479, 0.0 ], [ 14.743304070868076, 55.125598356614944, 0.0 ], [ 14.743470535568436, 55.125860904594838, 0.0 ], [ 14.74452974069753, 55.125880040379677, 0.0 ], [ 14.744832337223773, 55.126467061176349, 0.0 ], [ 14.745303954137055, 55.126304683763344, 0.0 ], [ 14.746535921690571, 55.126569846635796, 0.0 ], [ 14.746882697356877, 55.126352245634074, 0.0 ], [ 14.746488045309407, 55.126047835896095, 0.0 ], [ 14.7473196334587, 55.125742121528781, 0.0 ], [ 14.747018182949812, 55.124817657348395, 0.0 ], [ 14.752465157966746, 55.124183074285511, 0.0 ], [ 14.754346748246176, 55.122004214371053, 0.0 ], [ 14.754066325881078, 55.118709794006413, 0.0 ], [ 14.746486337053083, 55.119331173519697, 0.0 ] ] ] } },
{ "type": "Feature", "properties": { "layer_id": "military_areas", "label": "Military areas", "tooltip_title": "Source layer: Military areas", "tooltip_body": "Military training or protected-use polygons.<br>Clipped to Bornholm DAGI Landsdel landmass." }, "geometry": { "type": "Polygon", "coordinates": [ [ [ 14.920170625988986, 55.023895291207673, 0.0 ], [ 14.921803327789981, 55.024298589568694, 0.0 ], [ 14.922896832104264, 55.023988156368375, 0.0 ], [ 14.923909123297637, 55.025384502612525, 0.0 ], [ 14.936557012173248, 55.024264764912161, 0.0 ], [ 14.936901216971389, 55.026662533306251, 0.0 ], [ 14.934483245161918, 55.027130190586533, 0.0 ], [ 14.935483920279497, 55.029972908981478, 0.0 ], [ 14.942567478241404, 55.028716644404717, 0.0 ], [ 14.953131621618141, 55.028973193233817, 0.0 ], [ 14.950462191179332, 55.02037674213603, 0.0 ], [ 14.951861798669073, 55.020275466269268, 0.0 ], [ 14.950863384281803, 55.019498967471975, 0.0 ], [ 14.951062313212896, 55.01917697691372, 0.0 ], [ 14.950543266490717, 55.019223874949738, 0.0 ], [ 14.950287866956137, 55.018502832461181, 0.0 ], [ 14.949035805713388, 55.018896477142007, 0.0 ], [ 14.948647559393912, 55.017738815698046, 0.0 ], [ 14.947206619072059, 55.016383039943534, 0.0 ], [ 14.951917330475689, 55.015131411193423, 0.0 ], [ 14.94886993667418, 55.010031232920106, 0.0 ], [ 14.946502880783372, 55.011201424298804, 0.0 ], [ 14.93479258991597, 55.015474666881381, 0.0 ], [ 14.930671554492903, 55.016007955649222, 0.0 ], [ 14.925118447930858, 55.01459045169404, 0.0 ], [ 14.924430598813315, 55.014642553323803, 0.0 ], [ 14.922719985988376, 55.016408280696766, 0.0 ], [ 14.920474363946418, 55.017885755750271, 0.0 ], [ 14.922640675099142, 55.023340388351045, 0.0 ], [ 14.920170625988986, 55.023895291207673, 0.0 ] ] ] } },
{ "type": "Feature", "properties": { "layer_id": "military_areas", "label": "Military areas", "tooltip_title": "Source layer: Military areas", "tooltip_body": "Military training or protected-use polygons.<br>Clipped to Bornholm DAGI Landsdel landmass." }, "geometry": { "type": "Polygon", "coordinates": [ [ [ 14.799051596224073, 55.272309023866285, 0.0 ], [ 14.802638506355486, 55.269463543517325, 0.0 ], [ 14.800316919283365, 55.267749553919103, 0.0 ], [ 14.798711459891706, 55.270829053162046, 0.0 ], [ 14.799051596224073, 55.272309023866285, 0.0 ] ] ] } }
]
}
