{
"type": "FeatureCollection",
"name": "nature_wildlife_reserve",
"crs": { "type": "name", "properties": { "name": "urn:ogc:def:crs:OGC:1.3:CRS84" } },
"features": [
{ "type": "Feature", "properties": { "layer_id": "nature_wildlife_reserve", "label": "Nature and wildlife reserve", "tooltip_title": "Source layer: Nature and wildlife reserve", "tooltip_body": "Nature and wildlife reserve polygons.<br>Clipped to Bornholm DAGI Landsdel landmass." }, "geometry": null },
{ "type": "Feature", "properties": { "layer_id": "nature_wildlife_reserve", "label": "Nature and wildlife reserve", "tooltip_title": "Source layer: Nature and wildlife reserve", "tooltip_body": "Nature and wildlife reserve polygons.<br>Clipped to Bornholm DAGI Landsdel landmass." }, "geometry": { "type": "MultiPolygon", "coordinates": [ [ [ [ 15.196705880084574, 55.318569852355289, 0.0 ], [ 15.197310240394213, 55.318353403779739, 0.0 ], [ 15.197369171490509, 55.318228570281896, 0.0 ], [ 15.196756543919607, 55.318317574454525, 0.0 ], [ 15.196705880084574, 55.318569852355289, 0.0 ] ] ], [ [ [ 15.191807990037251, 55.318577990330724, 0.0 ], [ 15.191590555142168, 55.318495224341447, 0.0 ], [ 15.191619810327119, 55.318608544608722, 0.0 ], [ 15.191807990037251, 55.318577990330724, 0.0 ] ] ], [ [ [ 15.197058383574349, 55.318694266956797, 0.0 ], [ 15.196731734133163, 55.318642193812231, 0.0 ], [ 15.196862906985622, 55.318789133866069, 0.0 ], [ 15.197058383574349, 55.318694266956797, 0.0 ] ] ], [ [ [ 15.197364462138239, 55.31863311798449, 0.0 ], [ 15.197142623805147, 55.318755261075054, 0.0 ], [ 15.197344054782077, 55.318791197902598, 0.0 ], [ 15.197364462138239, 55.31863311798449, 0.0 ] ] ], [ [ [ 15.192966959879305, 55.319582735506032, 0.0 ], [ 15.19324323096083, 55.319586326348691, 0.0 ], [ 15.193097111907635, 55.319514341151468, 0.0 ], [ 15.192966959879305, 55.319582735506032, 0.0 ] ] ], [ [ [ 15.18780283248733, 55.323616152633129, 0.0 ], [ 15.189650764191599, 55.32338631255638, 0.0 ], [ 15.189176246092066, 55.323225038571053, 0.0 ], [ 15.189165375001146, 55.323079807198241, 0.0 ], [ 15.191442715714805, 55.323167215476531, 0.0 ], [ 15.191758155985529, 55.322780089396048, 0.0 ], [ 15.191174866332837, 55.322305143765, 0.0 ], [ 15.191856296670249, 55.32174100874623, 0.0 ], [ 15.190976710195283, 55.32100523528689, 0.0 ], [ 15.192066859309644, 55.321119694635271, 0.0 ], [ 15.19257348665802, 55.320443786248703, 0.0 ], [ 15.19233544952561, 55.320098234745672, 0.0 ], [ 15.192749636972888, 55.320404928226324, 0.0 ], [ 15.193276200588835, 55.320113849303532, 0.0 ], [ 15.192968767669081, 55.319729508604134, 0.0 ], [ 15.191858385782536, 55.319462289153762, 0.0 ], [ 15.192346745302554, 55.318931114116367, 0.0 ], [ 15.191905581443923, 55.318720340495759, 0.0 ], [ 15.191956147349712, 55.319082904310982, 0.0 ], [ 15.191580006852782, 55.318991013697449, 0.0 ], [ 15.190770151836551, 55.317564912975975, 0.0 ], [ 15.190054793235984, 55.317445339924966, 0.0 ], [ 15.189806322679479, 55.317796099418139, 0.0 ], [ 15.189230858068575, 55.317257446910098, 0.0 ], [ 15.187811357610785, 55.317395900806488, 0.0 ], [ 15.187336162787483, 55.318566071747711, 0.0 ], [ 15.186189512136401, 55.318966443461221, 0.0 ], [ 15.186529513478515, 55.319072703806896, 0.0 ], [ 15.18600184284967, 55.320801567055824, 0.0 ], [ 15.186568842407528, 55.322704226745742, 0.0 ], [ 15.18780283248733, 55.323616152633129, 0.0 ] ] ], [ [ [ 15.181750664025529, 55.320775249525894, 0.0 ], [ 15.182299182239603, 55.320540284286871, 0.0 ], [ 15.182171163269713, 55.320472859726841, 0.0 ], [ 15.181750664025529, 55.320775249525894, 0.0 ] ] ], [ [ [ 15.18390795942299, 55.322659266926863, 0.0 ], [ 15.185380358955495, 55.322483148088573, 0.0 ], [ 15.184493072099377, 55.321700447797539, 0.0 ], [ 15.185617676763552, 55.320508813886242, 0.0 ], [ 15.185011303956676, 55.319501494756018, 0.0 ], [ 15.185617309408565, 55.318794994846982, 0.0 ], [ 15.184391438213364, 55.319434303919529, 0.0 ], [ 15.184308123662911, 55.319124458650627, 0.0 ], [ 15.183629641633061, 55.319309668508531, 0.0 ], [ 15.183495424795939, 55.31964119154329, 0.0 ], [ 15.183982579109447, 55.319702883938405, 0.0 ], [ 15.183132643231081, 55.320615094583943, 0.0 ], [ 15.183583460083677, 55.321036385553263, 0.0 ], [ 15.183224986225087, 55.322122806671892, 0.0 ], [ 15.184022596582281, 55.322365116786145, 0.0 ], [ 15.18390795942299, 55.322659266926863, 0.0 ] ] ], [ [ [ 15.181744796737126, 55.32158181366384, 0.0 ], [ 15.182194901133851, 55.32089774873338, 0.0 ], [ 15.182006886606432, 55.320874882306072, 0.0 ], [ 15.181463442241856, 55.321457793697967, 0.0 ], [ 15.181744796737126, 55.32158181366384, 0.0 ] ] ], [ [ [ 15.182491909253931, 55.321306956006026, 0.0 ], [ 15.182375562059232, 55.321200039088794, 0.0 ], [ 15.182317887710202, 55.321280677847952, 0.0 ], [ 15.182491909253931, 55.321306956006026, 0.0 ] ] ], [ [ [ 15.191901496232108, 55.32232760996397, 0.0 ], [ 15.191440335859562, 55.322414192200839, 0.0 ], [ 15.191992695321266, 55.322536019097612, 0.0 ], [ 15.191901496232108, 55.32232760996397, 0.0 ] ] ], [ [ [ 15.18371385122397, 55.322415560796827, 0.0 ], [ 15.183687787115323, 55.322547901173628, 0.0 ], [ 15.183820739028771, 55.322466948932323, 0.0 ], [ 15.18371385122397, 55.322415560796827, 0.0 ] ] ], [ [ [ 15.190779093668395, 55.323560705042539, 0.0 ], [ 15.190619627124798, 55.323562962982919, 0.0 ], [ 15.190664871368648, 55.323654309495033, 0.0 ], [ 15.190779093668395, 55.323560705042539, 0.0 ] ] ], [ [ [ 15.19014998584103, 55.323488428913251, 0.0 ], [ 15.190263353234528, 55.323778013672097, 0.0 ], [ 15.190443277078439, 55.323443166778596, 0.0 ], [ 15.19014998584103, 55.323488428913251, 0.0 ] ] ], [ [ [ 15.178624604553219, 55.325575271861013, 0.0 ], [ 15.17940251873044, 55.325160292648818, 0.0 ], [ 15.179263842545282, 55.325244141484667, 0.0 ], [ 15.179344557458549, 55.325514231500847, 0.0 ], [ 15.18010239328585, 55.324623927438459, 0.0 ], [ 15.180289033267055, 55.325373982683189, 0.0 ], [ 15.180871475328553, 55.324970539377915, 0.0 ], [ 15.180898487888872, 55.323739148675614, 0.0 ], [ 15.180325843103411, 55.323861423985356, 0.0 ], [ 15.179861612997936, 55.322854697457082, 0.0 ], [ 15.178328709358521, 55.323063264283498, 0.0 ], [ 15.177464737474262, 55.32276089363554, 0.0 ], [ 15.177300477852212, 55.323063227550698, 0.0 ], [ 15.177134356112717, 55.32280431463974, 0.0 ], [ 15.175378898070596, 55.323124988841478, 0.0 ], [ 15.17567234662627, 55.323765717593766, 0.0 ], [ 15.174229813490753, 55.324489024854252, 0.0 ], [ 15.174562122255397, 55.324990196227006, 0.0 ], [ 15.175228730331414, 55.325177348858347, 0.0 ], [ 15.175427230105072, 55.324974851943118, 0.0 ], [ 15.175525155612242, 55.3252734252669, 0.0 ], [ 15.176564515394922, 55.32497207336457, 0.0 ], [ 15.17676996484737, 55.32534731069601, 0.0 ], [ 15.178617696077664, 55.325039493559025, 0.0 ], [ 15.178624604553219, 55.325575271861013, 0.0 ] ] ], [ [ [ 15.175994316656542, 55.330055864140405, 0.0 ], [ 15.175640967450665, 55.329723876505767, 0.0 ], [ 15.175811370978119, 55.330076851918484, 0.0 ], [ 15.175994316656542, 55.330055864140405, 0.0 ] ] ], [ [ [ 15.173833817333676, 55.329921799908455, 0.0 ], [ 15.174058970492641, 55.32992532762573, 0.0 ], [ 15.173837661632364, 55.329842185330016, 0.0 ], [ 15.173833817333676, 55.329921799908455, 0.0 ] ] ], [ [ [ 15.174710825915163, 55.330772362593706, 0.0 ], [ 15.174708048816408, 55.3300127942072, 0.0 ], [ 15.174009659006671, 55.330047588461184, 0.0 ], [ 15.174710825915163, 55.330772362593706, 0.0 ] ] ] ] } },
{ "type": "Feature", "properties": { "layer_id": "nature_wildlife_reserve", "label": "Nature and wildlife reserve", "tooltip_title": "Source layer: Nature and wildlife reserve", "tooltip_body": "Nature and wildlife reserve polygons.<br>Clipped to Bornholm DAGI Landsdel landmass." }, "geometry": null }
]
}
