{
"type": "FeatureCollection",
"name": "natura_bird_protection",
"crs": { "type": "name", "properties": { "name": "urn:ogc:def:crs:OGC:1.3:CRS84" } },
"features": [
{ "type": "Feature", "properties": { "layer_id": "natura_bird_protection", "label": "Natura bird protection", "tooltip_title": "Source layer: Natura bird protection", "tooltip_body": "Bird-protection polygons.<br>Clipped to Bornholm DAGI Landsdel landmass." }, "geometry": { "type": "MultiPolygon", "coordinates": [ [ [ [ 15.196705880084574, 55.318569852355289, 0.0 ], [ 15.197310240394213, 55.318353403779739, 0.0 ], [ 15.197369171490509, 55.318228570281896, 0.0 ], [ 15.196756543919607, 55.318317574454525, 0.0 ], [ 15.196705880084574, 55.318569852355289, 0.0 ] ] ], [ [ [ 15.191807990037251, 55.318577990330724, 0.0 ], [ 15.191590555142168, 55.318495224341447, 0.0 ], [ 15.191619810327119, 55.318608544608722, 0.0 ], [ 15.191807990037251, 55.318577990330724, 0.0 ] ] ], [ [ [ 15.197058383574349, 55.318694266956797, 0.0 ], [ 15.196731734133163, 55.318642193812231, 0.0 ], [ 15.196862906985622, 55.318789133866069, 0.0 ], [ 15.197058383574349, 55.318694266956797, 0.0 ] ] ], [ [ [ 15.197364462138239, 55.31863311798449, 0.0 ], [ 15.197142623805147, 55.318755261075054, 0.0 ], [ 15.197344054782077, 55.318791197902598, 0.0 ], [ 15.197364462138239, 55.31863311798449, 0.0 ] ] ], [ [ [ 15.192966959879305, 55.319582735506032, 0.0 ], [ 15.19324323096083, 55.319586326348691, 0.0 ], [ 15.193097111907635, 55.319514341151468, 0.0 ], [ 15.192966959879305, 55.319582735506032, 0.0 ] ] ], [ [ [ 15.18780283248733, 55.323616152633129, 0.0 ], [ 15.189650764191599, 55.32338631255638, 0.0 ], [ 15.189176246092066, 55.323225038571053, 0.0 ], [ 15.189165375001146, 55.323079807198241, 0.0 ], [ 15.191442715714805, 55.323167215476531, 0.0 ], [ 15.191758155985529, 55.322780089396048, 0.0 ], [ 15.191174866332837, 55.322305143765, 0.0 ], [ 15.191856296670249, 55.32174100874623, 0.0 ], [ 15.190976710195283, 55.32100523528689, 0.0 ], [ 15.192066859309644, 55.321119694635271, 0.0 ], [ 15.19257348665802, 55.320443786248703, 0.0 ], [ 15.19233544952561, 55.320098234745672, 0.0 ], [ 15.192749636972888, 55.320404928226324, 0.0 ], [ 15.193276200588835, 55.320113849303532, 0.0 ], [ 15.192968767669081, 55.319729508604134, 0.0 ], [ 15.191858385782536, 55.319462289153762, 0.0 ], [ 15.192346745302554, 55.318931114116367, 0.0 ], [ 15.191905581443923, 55.318720340495759, 0.0 ], [ 15.191956147349712, 55.319082904310982, 0.0 ], [ 15.191580006852782, 55.318991013697449, 0.0 ], [ 15.190770151836551, 55.317564912975975, 0.0 ], [ 15.190054793235984, 55.317445339924966, 0.0 ], [ 15.189806322679479, 55.317796099418139, 0.0 ], [ 15.189230858068575, 55.317257446910098, 0.0 ], [ 15.187811357610785, 55.317395900806488, 0.0 ], [ 15.187336162787483, 55.318566071747711, 0.0 ], [ 15.186189512136401, 55.318966443461221, 0.0 ], [ 15.186529513478515, 55.319072703806896, 0.0 ], [ 15.18600184284967, 55.320801567055824, 0.0 ], [ 15.186568842407528, 55.322704226745742, 0.0 ], [ 15.18780283248733, 55.323616152633129, 0.0 ] ] ], [ [ [ 15.181750664025529, 55.320775249525894, 0.0 ], [ 15.182299182239603, 55.320540284286871, 0.0 ], [ 15.182171163269713, 55.320472859726841, 0.0 ], [ 15.181750664025529, 55.320775249525894, 0.0 ] ] ], [ [ [ 15.18390795942299, 55.322659266926863, 0.0 ], [ 15.185380358955495, 55.322483148088573, 0.0 ], [ 15.184493072099377, 55.321700447797539, 0.0 ], [ 15.185617676763552, 55.320508813886242, 0.0 ], [ 15.185011303956676, 55.319501494756018, 0.0 ], [ 15.185617309408565, 55.318794994846982, 0.0 ], [ 15.184391438213364, 55.319434303919529, 0.0 ], [ 15.184308123662911, 55.319124458650627, 0.0 ], [ 15.183629641633061, 55.319309668508531, 0.0 ], [ 15.183495424795939, 55.31964119154329, 0.0 ], [ 15.183982579109447, 55.319702883938405, 0.0 ], [ 15.183132643231081, 55.320615094583943, 0.0 ], [ 15.183583460083677, 55.321036385553263, 0.0 ], [ 15.183224986225087, 55.322122806671892, 0.0 ], [ 15.184022596582281, 55.322365116786145, 0.0 ], [ 15.18390795942299, 55.322659266926863, 0.0 ] ] ], [ [ [ 15.181744796737126, 55.32158181366384, 0.0 ], [ 15.182194901133851, 55.32089774873338, 0.0 ], [ 15.182006886606432, 55.320874882306072, 0.0 ], [ 15.181463442241856, 55.321457793697967, 0.0 ], [ 15.181744796737126, 55.32158181366384, 0.0 ] ] ], [ [ [ 15.182491909253931, 55.321306956006026, 0.0 ], [ 15.182375562059232, 55.321200039088794, 0.0 ], [ 15.182317887710202, 55.321280677847952, 0.0 ], [ 15.182491909253931, 55.321306956006026, 0.0 ] ] ], [ [ [ 15.191901496232108, 55.32232760996397, 0.0 ], [ 15.191440335859562, 55.322414192200839, 0.0 ], [ 15.191992695321266, 55.322536019097612, 0.0 ], [ 15.191901496232108, 55.32232760996397, 0.0 ] ] ], [ [ [ 15.18371385122397, 55.322415560796827, 0.0 ], [ 15.183687787115323, 55.322547901173628, 0.0 ], [ 15.183820739028771, 55.322466948932323, 0.0 ], [ 15.18371385122397, 55.322415560796827, 0.0 ] ] ], [ [ [ 15.190779093668395, 55.323560705042539, 0.0 ], [ 15.190619627124798, 55.323562962982919, 0.0 ], [ 15.190664871368648, 55.323654309495033, 0.0 ], [ 15.190779093668395, 55.323560705042539, 0.0 ] ] ], [ [ [ 15.19014998584103, 55.323488428913251, 0.0 ], [ 15.190263353234528, 55.323778013672097, 0.0 ], [ 15.190443277078439, 55.323443166778596, 0.0 ], [ 15.19014998584103, 55.323488428913251, 0.0 ] ] ], [ [ [ 15.178624604553219, 55.325575271861013, 0.0 ], [ 15.17940251873044, 55.325160292648818, 0.0 ], [ 15.179263842545282, 55.325244141484667, 0.0 ], [ 15.179344557458549, 55.325514231500847, 0.0 ], [ 15.18010239328585, 55.324623927438459, 0.0 ], [ 15.180289033267055, 55.325373982683189, 0.0 ], [ 15.180871475328553, 55.324970539377915, 0.0 ], [ 15.180898487888872, 55.323739148675614, 0.0 ], [ 15.180325843103411, 55.323861423985356, 0.0 ], [ 15.179861612997936, 55.322854697457082, 0.0 ], [ 15.178328709358521, 55.323063264283498, 0.0 ], [ 15.177464737474262, 55.32276089363554, 0.0 ], [ 15.177300477852212, 55.323063227550698, 0.0 ], [ 15.177134356112717, 55.32280431463974, 0.0 ], [ 15.175378898070596, 55.323124988841478, 0.0 ], [ 15.17567234662627, 55.323765717593766, 0.0 ], [ 15.174229813490753, 55.324489024854252, 0.0 ], [ 15.174562122255397, 55.324990196227006, 0.0 ], [ 15.175228730331414, 55.325177348858347, 0.0 ], [ 15.175427230105072, 55.324974851943118, 0.0 ], [ 15.175525155612242, 55.3252734252669, 0.0 ], [ 15.176564515394922, 55.32497207336457, 0.0 ], [ 15.17676996484737, 55.32534731069601, 0.0 ], [ 15.178617696077664, 55.325039493559025, 0.0 ], [ 15.178624604553219, 55.325575271861013, 0.0 ] ] ], [ [ [ 15.175994316656542, 55.330055864140405, 0.0 ], [ 15.175640967450665, 55.329723876505767, 0.0 ], [ 15.175811370978119, 55.330076851918484, 0.0 ], [ 15.175994316656542, 55.330055864140405, 0.0 ] ] ], [ [ [ 15.173833817333676, 55.329921799908455, 0.0 ], [ 15.174058970492641, 55.32992532762573, 0.0 ], [ 15.173837661632364, 55.329842185330016, 0.0 ], [ 15.173833817333676, 55.329921799908455, 0.0 ] ] ], [ [ [ 15.174710825915163, 55.330772362593706, 0.0 ], [ 15.174708048816408, 55.3300127942072, 0.0 ], [ 15.174009659006671, 55.330047588461184, 0.0 ], [ 15.174710825915163, 55.330772362593706, 0.0 ] ] ] ] } },
{ "type": "Feature", "properties": { "layer_id": "natura_bird_protection", "label": "Natura bird protection", "tooltip_title": "Source layer: Natura bird protection", "tooltip_body": "Bird-protection polygons.<br>Clipped to Bornholm DAGI Landsdel landmass." }, "geometry": { "type": "MultiPolygon", "coordinates": [ [ [ [ 14.755078716266535, 55.275555215715272, 0.0 ], [ 14.75466539181401, 55.273923493243124, 0.0 ], [ 14.753902234116079, 55.273803874100743, 0.0 ], [ 14.753381085817207, 55.272745069493915, 0.0 ], [ 14.753350068844465, 55.271290574251701, 0.0 ], [ 14.752592358857319, 55.269555787349326, 0.0 ], [ 14.752823125683841, 55.268225359993686, 0.0 ], [ 14.751070192016726, 55.265880327513784, 0.0 ], [ 14.75103823697042, 55.264042830882225, 0.0 ], [ 14.749123387561053, 55.262339221477454, 0.0 ], [ 14.747845595477571, 55.262150373410996, 0.0 ], [ 14.74328053396297, 55.253873397254246, 0.0 ], [ 14.741115829303626, 55.25268611410349, 0.0 ], [ 14.740876978068421, 55.252949388095921, 0.0 ], [ 14.742237066557438, 55.254435313692127, 0.0 ], [ 14.744511916515849, 55.258868315668018, 0.0 ], [ 14.746002645924589, 55.260331535492867, 0.0 ], [ 14.746145312213461, 55.261366842936319, 0.0 ], [ 14.747663027350141, 55.263059577486956, 0.0 ], [ 14.74863213093982, 55.263485562979696, 0.0 ], [ 14.748658504642169, 55.263947476230612, 0.0 ], [ 14.75250670887781, 55.268227400147204, 0.0 ], [ 14.752622125996735, 55.268637387418181, 0.0 ], [ 14.751641882341, 55.269270677035848, 0.0 ], [ 14.75240618495285, 55.270286143170559, 0.0 ], [ 14.752106465938693, 55.271043805236935, 0.0 ], [ 14.753192531717024, 55.271649865293405, 0.0 ], [ 14.753154354422652, 55.272083497280903, 0.0 ], [ 14.752583613627342, 55.272012984527429, 0.0 ], [ 14.752201975460007, 55.272398229358572, 0.0 ], [ 14.75283657786909, 55.272993050774403, 0.0 ], [ 14.752373359674158, 55.273175231432617, 0.0 ], [ 14.753614042894645, 55.274087400937667, 0.0 ], [ 14.75413645795461, 55.274051628848895, 0.0 ], [ 14.753921457649266, 55.274466999908242, 0.0 ], [ 14.755078716266535, 55.275555215715272, 0.0 ] ] ], [ [ [ 14.756916850397575, 55.290494856280041, 0.0 ], [ 14.757141230767276, 55.290030902791315, 0.0 ], [ 14.755711259773884, 55.28972591926992, 0.0 ], [ 14.754461586233973, 55.288879672853639, 0.0 ], [ 14.752230103536078, 55.286211108810221, 0.0 ], [ 14.752153976289796, 55.28459809227494, 0.0 ], [ 14.753080593911918, 55.281481272181331, 0.0 ], [ 14.753530166161324, 55.281205225586938, 0.0 ], [ 14.753078619938544, 55.280844691891595, 0.0 ], [ 14.75201259914444, 55.281863519287526, 0.0 ], [ 14.752058566819795, 55.283748170047033, 0.0 ], [ 14.75141613517061, 55.284841763966291, 0.0 ], [ 14.751256391578675, 55.286530726417595, 0.0 ], [ 14.751897313568746, 55.286997417234758, 0.0 ], [ 14.751643499518549, 55.287300221149167, 0.0 ], [ 14.752557273613471, 55.287575755773595, 0.0 ], [ 14.752064584559083, 55.287907545791924, 0.0 ], [ 14.752259753213142, 55.288199436731254, 0.0 ], [ 14.75440223300353, 55.289245474920605, 0.0 ], [ 14.754323431458488, 55.289635831159814, 0.0 ], [ 14.754834975281787, 55.289501198881183, 0.0 ], [ 14.755487853073978, 55.29014113167954, 0.0 ], [ 14.756916850397575, 55.290494856280041, 0.0 ] ] ] ] } },
{ "type": "Feature", "properties": { "layer_id": "natura_bird_protection", "label": "Natura bird protection", "tooltip_title": "Source layer: Natura bird protection", "tooltip_body": "Bird-protection polygons.<br>Clipped to Bornholm DAGI Landsdel landmass." }, "geometry": { "type": "Polygon", "coordinates": [ [ [ 14.897075038943683, 55.15190417259037, 0.0 ], [ 14.8986661073855, 55.148925182002372, 0.0 ], [ 14.90484363392021, 55.147047445948829, 0.0 ], [ 14.904602458510972, 55.146784457200049, 0.0 ], [ 14.913080266696506, 55.144425403196152, 0.0 ], [ 14.912349696488995, 55.143560855596753, 0.0 ], [ 14.912730729731436, 55.142294127995143, 0.0 ], [ 14.923617364337952, 55.140013328863674, 0.0 ], [ 14.923330692153414, 55.139567710800939, 0.0 ], [ 14.923916090271124, 55.13943789792814, 0.0 ], [ 14.924201405772809, 55.139883941037311, 0.0 ], [ 14.964394337562586, 55.131395042487227, 0.0 ], [ 14.963945912196134, 55.13100804213547, 0.0 ], [ 14.964462323177205, 55.129537057667598, 0.0 ], [ 14.968165529192625, 55.130281901057629, 0.0 ], [ 14.968382735197562, 55.130559181303575, 0.0 ], [ 14.977220185762514, 55.12869409949321, 0.0 ], [ 14.983477350878394, 55.122227305716173, 0.0 ], [ 14.977682571737404, 55.112772688997381, 0.0 ], [ 14.98357131204676, 55.110763683838101, 0.0 ], [ 14.981603055539475, 55.108368254014025, 0.0 ], [ 14.991102481000029, 55.107437873829504, 0.0 ], [ 14.990999498775643, 55.105344427611968, 0.0 ], [ 14.989543317821076, 55.105477672906844, 0.0 ], [ 14.988717435056191, 55.104717552570342, 0.0 ], [ 14.987962815091274, 55.104700498878174, 0.0 ], [ 14.985765502963527, 55.1052492168443, 0.0 ], [ 14.984363371204996, 55.103588616549082, 0.0 ], [ 14.995204064478115, 55.099631951743959, 0.0 ], [ 14.999906646341893, 55.105098505627026, 0.0 ], [ 15.003543059960972, 55.10462139766652, 0.0 ], [ 15.004368637438155, 55.105383599883332, 0.0 ], [ 15.005916389722806, 55.104021333994403, 0.0 ], [ 15.007693031912167, 55.104217151215359, 0.0 ], [ 15.009763064847107, 55.104945719691692, 0.0 ], [ 15.012169156914421, 55.107263865530747, 0.0 ], [ 15.018571948718177, 55.102027079009979, 0.0 ], [ 15.017722141271697, 55.100312981391397, 0.0 ], [ 15.024260220915552, 55.101595840078495, 0.0 ], [ 15.042825446265825, 55.101754055632888, 0.0 ], [ 15.044056353114339, 55.102305795805101, 0.0 ], [ 15.053110435993847, 55.103129651558596, 0.0 ], [ 15.059439776929477, 55.107842423766748, 0.0 ], [ 15.065726222895286, 55.109469012185748, 0.0 ], [ 15.065701666629884, 55.109211252062281, 0.0 ], [ 15.066190777010052, 55.109230560517091, 0.0 ], [ 15.065926984283845, 55.107534809061058, 0.0 ], [ 15.067723466269509, 55.107663500606598, 0.0 ], [ 15.068113014266112, 55.106849513281887, 0.0 ], [ 15.068711666569463, 55.106742887995338, 0.0 ], [ 15.068788047944583, 55.107147129592519, 0.0 ], [ 15.069959164804198, 55.10717202190478, 0.0 ], [ 15.070056232538473, 55.107652555302415, 0.0 ], [ 15.068798700350994, 55.107626672581368, 0.0 ], [ 15.068499903809172, 55.109227941048573, 0.0 ], [ 15.069726806424102, 55.109272643457736, 0.0 ], [ 15.069806711683283, 55.109699933092074, 0.0 ], [ 15.072685829680134, 55.109613819619419, 0.0 ], [ 15.073845753995949, 55.109460906815734, 0.0 ], [ 15.073514645099966, 55.108976331201674, 0.0 ], [ 15.07252683300133, 55.109188686899657, 0.0 ], [ 15.072285585285742, 55.108763437652286, 0.0 ], [ 15.073217903192702, 55.108526043657164, 0.0 ], [ 15.072847417967186, 55.108057479968075, 0.0 ], [ 15.076293432055277, 55.106640051510119, 0.0 ], [ 15.077116274983366, 55.108013078461177, 0.0 ], [ 15.078369736489011, 55.108013783508156, 0.0 ], [ 15.08194282388628, 55.107214568164196, 0.0 ], [ 15.081763867353889, 55.106904591361086, 0.0 ], [ 15.084070448203224, 55.107002351626512, 0.0 ], [ 15.085433396368488, 55.106704746924905, 0.0 ], [ 15.085087864480558, 55.1062978903078, 0.0 ], [ 15.085719116452653, 55.106161639339781, 0.0 ], [ 15.085959208627244, 55.106592054348042, 0.0 ], [ 15.089043349523116, 55.105916159720309, 0.0 ], [ 15.088654787039756, 55.105225834772774, 0.0 ], [ 15.089192128932631, 55.104728970468202, 0.0 ], [ 15.09159418442392, 55.104376369269069, 0.0 ], [ 15.092037320247742, 55.105033698976726, 0.0 ], [ 15.093417020301178, 55.104578613741651, 0.0 ], [ 15.092134788043362, 55.10366030483371, 0.0 ], [ 15.092696972514187, 55.103282444083838, 0.0 ], [ 15.094495479127803, 55.103324843778687, 0.0 ], [ 15.095635946547437, 55.102645256246177, 0.0 ], [ 15.095518017088061, 55.102086023519284, 0.0 ], [ 15.098689660502089, 55.101512240954108, 0.0 ], [ 15.099321009177441, 55.1008589167499, 0.0 ], [ 15.100661398092051, 55.100841782461167, 0.0 ], [ 15.10218826105133, 55.100202390017188, 0.0 ], [ 15.103545135389618, 55.100195827626031, 0.0 ], [ 15.103451953321999, 55.09991928555899, 0.0 ], [ 15.104251641586416, 55.099605311769459, 0.0 ], [ 15.105782120042825, 55.09977300737463, 0.0 ], [ 15.107773041394871, 55.09945335867075, 0.0 ], [ 15.106821547867654, 55.098221753659772, 0.0 ], [ 15.108519854386357, 55.098234232512304, 0.0 ], [ 15.108658792689242, 55.097187933386046, 0.0 ], [ 15.107580172051984, 55.097089901553488, 0.0 ], [ 15.107471116479147, 55.096728369444946, 0.0 ], [ 15.108438582809896, 55.09667967955145, 0.0 ], [ 15.108405258742584, 55.096266533911802, 0.0 ], [ 15.1068892655284, 55.095431173337019, 0.0 ], [ 15.106455363791662, 55.094250310671313, 0.0 ], [ 15.107601835608596, 55.094324411993014, 0.0 ], [ 15.110121641522646, 55.096453442280144, 0.0 ], [ 15.110760518573748, 55.096401470735323, 0.0 ], [ 15.113161204834753, 55.094785567620846, 0.0 ], [ 15.111923539922437, 55.094029871248381, 0.0 ], [ 15.111466725761488, 55.092953883189431, 0.0 ], [ 15.11200112351916, 55.092849821681106, 0.0 ], [ 15.11184822485667, 55.0922418589278, 0.0 ], [ 15.110820966821924, 55.092329688858392, 0.0 ], [ 15.110882134963349, 55.091537742979327, 0.0 ], [ 15.112440710163247, 55.091041097335349, 0.0 ], [ 15.116090841513815, 55.090917326146332, 0.0 ], [ 15.115630043027375, 55.090425890292352, 0.0 ], [ 15.116102863424636, 55.089803590954176, 0.0 ], [ 15.117561516582111, 55.089966736107762, 0.0 ], [ 15.116823173537293, 55.089006414126509, 0.0 ], [ 15.117267744373002, 55.088554776152407, 0.0 ], [ 15.111182540844936, 55.082511741624984, 0.0 ], [ 15.109256552355211, 55.081219862823282, 0.0 ], [ 15.108643887321563, 55.08020636065563, 0.0 ], [ 15.107586774257488, 55.079779667641603, 0.0 ], [ 15.105447304884471, 55.079810370009113, 0.0 ], [ 15.104831713613311, 55.079442366003612, 0.0 ], [ 15.103576717827659, 55.079679063804328, 0.0 ], [ 15.103383309636474, 55.080417068881864, 0.0 ], [ 15.102139336960548, 55.080563535256246, 0.0 ], [ 15.101934228406723, 55.081054925963606, 0.0 ], [ 15.100253100466555, 55.080117257679376, 0.0 ], [ 15.100241894380504, 55.079887995786883, 0.0 ], [ 15.100874510541596, 55.079818740448793, 0.0 ], [ 15.100567570906351, 55.078798923435201, 0.0 ], [ 15.099061125832941, 55.07879327534463, 0.0 ], [ 15.099219177814719, 55.079615509676835, 0.0 ], [ 15.098467569435114, 55.07968182476489, 0.0 ], [ 15.098421445221945, 55.079457738558887, 0.0 ], [ 15.096176364014969, 55.079426338862611, 0.0 ], [ 15.095447407149759, 55.078860986869564, 0.0 ], [ 15.091035905409079, 55.078666799910245, 0.0 ], [ 15.09030243145043, 55.0794239663838, 0.0 ], [ 15.08720076450332, 55.07935338215659, 0.0 ], [ 15.087445665673171, 55.080348790093261, 0.0 ], [ 15.08656270547837, 55.080352483237796, 0.0 ], [ 15.086624272573564, 55.080815883551118, 0.0 ], [ 15.085969938840382, 55.08084987304499, 0.0 ], [ 15.085992116840282, 55.081083715179872, 0.0 ], [ 15.084532686420333, 55.081104242012863, 0.0 ], [ 15.083963832888539, 55.080435284431914, 0.0 ], [ 15.081664848805762, 55.080587168872384, 0.0 ], [ 15.081716635152411, 55.0809612187048, 0.0 ], [ 15.080181909361473, 55.081035428463608, 0.0 ], [ 15.080433420991666, 55.07797995276804, 0.0 ], [ 15.079697004981275, 55.077910538765444, 0.0 ], [ 15.079089077310778, 55.079060221270829, 0.0 ], [ 15.07432344974757, 55.078878575761607, 0.0 ], [ 15.07505228206829, 55.079993897202712, 0.0 ], [ 15.076586454256395, 55.080191010882118, 0.0 ], [ 15.076878374083673, 55.081285351703002, 0.0 ], [ 15.076112588437766, 55.081422181599287, 0.0 ], [ 15.076080886466885, 55.081176393413259, 0.0 ], [ 15.074641035628554, 55.080933411143484, 0.0 ], [ 15.074221712608905, 55.080415991858864, 0.0 ], [ 15.071655467278635, 55.080467457343353, 0.0 ], [ 15.071438773403367, 55.08011893974507, 0.0 ], [ 15.070552431395322, 55.080168415699056, 0.0 ], [ 15.071837154427191, 55.082766479010708, 0.0 ], [ 15.070949008782826, 55.082745741123894, 0.0 ], [ 15.069881703080407, 55.082044406208105, 0.0 ], [ 15.068397438850949, 55.083496033382794, 0.0 ], [ 15.066796573942508, 55.083512164240155, 0.0 ], [ 15.066294811469234, 55.083157005217821, 0.0 ], [ 15.065601793223653, 55.08354839482854, 0.0 ], [ 15.063567195049446, 55.083572838011335, 0.0 ], [ 15.063457469852018, 55.083029201422121, 0.0 ], [ 15.062229383847916, 55.082170739816711, 0.0 ], [ 15.064282734170579, 55.080367133700982, 0.0 ], [ 15.061203446843042, 55.079260260785105, 0.0 ], [ 15.059303725158815, 55.079007932777344, 0.0 ], [ 15.05870392618051, 55.078540526323117, 0.0 ], [ 15.058074003883938, 55.078643992355545, 0.0 ], [ 15.05624595793711, 55.076471802568705, 0.0 ], [ 15.053331288806866, 55.074139560414153, 0.0 ], [ 15.052889680799552, 55.073221613877799, 0.0 ], [ 15.049825240411156, 55.074570073888786, 0.0 ], [ 15.049553036905346, 55.075256445196615, 0.0 ], [ 15.046307202466371, 55.077537711450418, 0.0 ], [ 15.026615429860403, 55.07105251335026, 0.0 ], [ 15.01507053152994, 55.068998418305306, 0.0 ], [ 15.013766815596133, 55.072313631651696, 0.0 ], [ 15.012085827165096, 55.072944501679416, 0.0 ], [ 15.012055724312852, 55.073360069740993, 0.0 ], [ 15.01147132379457, 55.073393883174056, 0.0 ], [ 15.011632435696868, 55.073799887807844, 0.0 ], [ 15.00818472064671, 55.073921857223532, 0.0 ], [ 15.010956549016214, 55.075941376086035, 0.0 ], [ 15.008206869766914, 55.077050987305171, 0.0 ], [ 15.008849897671876, 55.077588051976441, 0.0 ], [ 15.005489414246801, 55.077986016291561, 0.0 ], [ 15.004275580087622, 55.076306160876989, 0.0 ], [ 14.999267350887445, 55.077877093184249, 0.0 ], [ 14.999914787966189, 55.078466643844095, 0.0 ], [ 14.999331772611212, 55.078644623838869, 0.0 ], [ 14.999871140774017, 55.079376971852142, 0.0 ], [ 14.999184235618143, 55.07950004701275, 0.0 ], [ 14.99984772527311, 55.080098075943582, 0.0 ], [ 14.995492277759858, 55.081324206821186, 0.0 ], [ 14.993118818597342, 55.079796498464553, 0.0 ], [ 14.989579646924792, 55.081197685480191, 0.0 ], [ 14.980580056073075, 55.082485406499096, 0.0 ], [ 14.979823629778302, 55.082000504828386, 0.0 ], [ 14.952240426820223, 55.089970517226668, 0.0 ], [ 14.947747881545975, 55.088416319771113, 0.0 ], [ 14.942608620160378, 55.08507771707125, 0.0 ], [ 14.939044997260737, 55.087997883736882, 0.0 ], [ 14.940110731658958, 55.089795577170797, 0.0 ], [ 14.937941903619008, 55.089983427477108, 0.0 ], [ 14.937563572263086, 55.089402903829409, 0.0 ], [ 14.936990989061425, 55.090194395348121, 0.0 ], [ 14.937405317854886, 55.090446865690865, 0.0 ], [ 14.935324783211339, 55.09078229063379, 0.0 ], [ 14.935681299069277, 55.09131546109618, 0.0 ], [ 14.935010833548523, 55.091468051738246, 0.0 ], [ 14.935795179549309, 55.092784111867736, 0.0 ], [ 14.937159756769892, 55.093129541467739, 0.0 ], [ 14.937496999479153, 55.094767021287879, 0.0 ], [ 14.940381982358334, 55.094523707326523, 0.0 ], [ 14.941606862100079, 55.096324316465534, 0.0 ], [ 14.942795550006345, 55.096080972383646, 0.0 ], [ 14.944171431680052, 55.098137274493041, 0.0 ], [ 14.926544665726027, 55.104320598281966, 0.0 ], [ 14.929483159236122, 55.108733963680123, 0.0 ], [ 14.930486084435639, 55.112855769204415, 0.0 ], [ 14.929902069326424, 55.115978990919515, 0.0 ], [ 14.924172007514255, 55.115718985348295, 0.0 ], [ 14.922157430012849, 55.115187269082504, 0.0 ], [ 14.915241992422631, 55.111539932135969, 0.0 ], [ 14.913536709954307, 55.11311979075839, 0.0 ], [ 14.914101553384123, 55.113544764163059, 0.0 ], [ 14.913625418392996, 55.113497206070328, 0.0 ], [ 14.913318926766038, 55.11395282698998, 0.0 ], [ 14.910982961138009, 55.113445133130135, 0.0 ], [ 14.911804011344106, 55.112053467805929, 0.0 ], [ 14.911815415069592, 55.110488164552116, 0.0 ], [ 14.90926765297759, 55.110455030633496, 0.0 ], [ 14.906237793492979, 55.111212005326813, 0.0 ], [ 14.905797459217357, 55.11100533793563, 0.0 ], [ 14.906268920101637, 55.110830016750917, 0.0 ], [ 14.904782475956184, 55.109854053371841, 0.0 ], [ 14.903833638851205, 55.109950240210978, 0.0 ], [ 14.903082549674743, 55.109291969612784, 0.0 ], [ 14.903362248611238, 55.108933901127529, 0.0 ], [ 14.905842693540931, 55.108133243507332, 0.0 ], [ 14.906416291036987, 55.107294795923828, 0.0 ], [ 14.905480214809229, 55.106127529252433, 0.0 ], [ 14.904018885850691, 55.105698052795489, 0.0 ], [ 14.902536790854311, 55.104311139730427, 0.0 ], [ 14.899096954047161, 55.104796602732513, 0.0 ], [ 14.895172340861153, 55.103638162636564, 0.0 ], [ 14.896874093995484, 55.102712215556082, 0.0 ], [ 14.898124360653494, 55.10107693591317, 0.0 ], [ 14.89726602797978, 55.100291171313806, 0.0 ], [ 14.896257780014247, 55.099984605451645, 0.0 ], [ 14.894186601289425, 55.100021363730391, 0.0 ], [ 14.893841980363812, 55.100502815583511, 0.0 ], [ 14.891772166018081, 55.100499861343991, 0.0 ], [ 14.89126561864717, 55.095935211708635, 0.0 ], [ 14.888073996747407, 55.096077275427874, 0.0 ], [ 14.884781969903695, 55.097031234363008, 0.0 ], [ 14.884578329054399, 55.096433093511472, 0.0 ], [ 14.885172562194933, 55.096314007735842, 0.0 ], [ 14.884625291942401, 55.093836839387876, 0.0 ], [ 14.880930773868098, 55.093802014658955, 0.0 ], [ 14.88036876895238, 55.092799446484662, 0.0 ], [ 14.878165636995639, 55.093140981358637, 0.0 ], [ 14.878265606427004, 55.093455132247158, 0.0 ], [ 14.87652872028651, 55.09392626340621, 0.0 ], [ 14.875564527039119, 55.09375052265316, 0.0 ], [ 14.876012006402165, 55.094634441764995, 0.0 ], [ 14.877767202903375, 55.094956581273181, 0.0 ], [ 14.877898123509857, 55.09537895457963, 0.0 ], [ 14.877944967259689, 55.096281815585002, 0.0 ], [ 14.875664266802119, 55.09597458218056, 0.0 ], [ 14.875803626422968, 55.096697178120017, 0.0 ], [ 14.877167267333366, 55.098141877509704, 0.0 ], [ 14.878949129918848, 55.097727970745659, 0.0 ], [ 14.879201152113055, 55.098281562342208, 0.0 ], [ 14.878044175798969, 55.098608512720801, 0.0 ], [ 14.878189553733675, 55.099825235503125, 0.0 ], [ 14.880113564483517, 55.100099928606049, 0.0 ], [ 14.880693983348927, 55.100589637216608, 0.0 ], [ 14.879886348350956, 55.100775740243876, 0.0 ], [ 14.88013346457913, 55.101048830654875, 0.0 ], [ 14.876704263126079, 55.10176356484628, 0.0 ], [ 14.874273043126992, 55.098506347314149, 0.0 ], [ 14.867931969027202, 55.098239560447439, 0.0 ], [ 14.865753856810059, 55.098695850688671, 0.0 ], [ 14.868449281474227, 55.103550521549437, 0.0 ], [ 14.864767809496781, 55.104336324848134, 0.0 ], [ 14.865064593366609, 55.104850156890272, 0.0 ], [ 14.864335979566579, 55.105020813317253, 0.0 ], [ 14.863962899193996, 55.104496984228412, 0.0 ], [ 14.860042774998483, 55.105319908312055, 0.0 ], [ 14.857184029482243, 55.101467087180318, 0.0 ], [ 14.848904419872873, 55.105991449233365, 0.0 ], [ 14.84815519959977, 55.105490105409061, 0.0 ], [ 14.846779450371903, 55.105923770803855, 0.0 ], [ 14.848322642710865, 55.107587039363096, 0.0 ], [ 14.843873977640859, 55.109075549778417, 0.0 ], [ 14.844000743233915, 55.109449548202718, 0.0 ], [ 14.843219349377161, 55.109689758722332, 0.0 ], [ 14.843874164510826, 55.114840937842722, 0.0 ], [ 14.837780229036714, 55.116297386469121, 0.0 ], [ 14.837921186661555, 55.116907516166656, 0.0 ], [ 14.838953938108084, 55.11721636023681, 0.0 ], [ 14.83928088672903, 55.118317442463407, 0.0 ], [ 14.842972235768096, 55.11882619331994, 0.0 ], [ 14.843320559960983, 55.118441844863789, 0.0 ], [ 14.843737665840083, 55.11853149234134, 0.0 ], [ 14.843636427902288, 55.11891907410768, 0.0 ], [ 14.844683283791845, 55.119065359811458, 0.0 ], [ 14.844857157622139, 55.11860164580176, 0.0 ], [ 14.845058803710646, 55.119116861221201, 0.0 ], [ 14.84692373689775, 55.11937712251742, 0.0 ], [ 14.847088314497535, 55.118953545412182, 0.0 ], [ 14.84780591007836, 55.119051032546274, 0.0 ], [ 14.847514248886029, 55.119459398623604, 0.0 ], [ 14.849920038956153, 55.119810130001902, 0.0 ], [ 14.849967102764392, 55.118942262606609, 0.0 ], [ 14.851218688110203, 55.118824898707267, 0.0 ], [ 14.851374732751173, 55.118486512858773, 0.0 ], [ 14.853330887074055, 55.11862950129283, 0.0 ], [ 14.852872028752399, 55.117867922181127, 0.0 ], [ 14.855769858435542, 55.117933887110361, 0.0 ], [ 14.855573306326905, 55.116921328016346, 0.0 ], [ 14.857076545339361, 55.116873314774836, 0.0 ], [ 14.857954005658719, 55.117520628881579, 0.0 ], [ 14.858917613642728, 55.117175764635718, 0.0 ], [ 14.859371153725403, 55.117596180130327, 0.0 ], [ 14.866449880249345, 55.117739739540617, 0.0 ], [ 14.867034905193991, 55.119446294827604, 0.0 ], [ 14.868306336217168, 55.119290532497757, 0.0 ], [ 14.870006863247315, 55.11950789166152, 0.0 ], [ 14.871806181988095, 55.12143448414519, 0.0 ], [ 14.872921468321529, 55.121412595099507, 0.0 ], [ 14.872794568925203, 55.120914953875214, 0.0 ], [ 14.873718396348965, 55.12080861771188, 0.0 ], [ 14.872458269655535, 55.119663626219086, 0.0 ], [ 14.874162805374386, 55.119634380566197, 0.0 ], [ 14.877991811445888, 55.122927405416881, 0.0 ], [ 14.877256754097184, 55.1230060956592, 0.0 ], [ 14.876528674154555, 55.123896143862467, 0.0 ], [ 14.877167487525663, 55.125577198154794, 0.0 ], [ 14.876088805617108, 55.126023273432835, 0.0 ], [ 14.875210700253914, 55.125941275631412, 0.0 ], [ 14.874267892963481, 55.12504710109841, 0.0 ], [ 14.874397881641524, 55.125565473923054, 0.0 ], [ 14.870143346365531, 55.127211240162346, 0.0 ], [ 14.871619140505176, 55.128348534458993, 0.0 ], [ 14.874008921031681, 55.127380321181249, 0.0 ], [ 14.874760582122486, 55.12866772239407, 0.0 ], [ 14.873870039172109, 55.128780462846819, 0.0 ], [ 14.873975479039077, 55.129191923656357, 0.0 ], [ 14.873098490048521, 55.129515523601022, 0.0 ], [ 14.877434520826831, 55.132971197205265, 0.0 ], [ 14.881282876172126, 55.131850343564722, 0.0 ], [ 14.883151719315414, 55.134551018060215, 0.0 ], [ 14.879526197175924, 55.135374280834945, 0.0 ], [ 14.880170797579158, 55.136850637235412, 0.0 ], [ 14.8806333618825, 55.136978558005794, 0.0 ], [ 14.880267066591543, 55.137043816319164, 0.0 ], [ 14.880443803671827, 55.137389805795529, 0.0 ], [ 14.880993251982089, 55.137448711846083, 0.0 ], [ 14.880508154128231, 55.13752296390534, 0.0 ], [ 14.881773491622088, 55.139829568028183, 0.0 ], [ 14.881001987307382, 55.140315889064652, 0.0 ], [ 14.8813930366256, 55.140587684480366, 0.0 ], [ 14.880774774166996, 55.140425449878649, 0.0 ], [ 14.87608428519113, 55.142688445221992, 0.0 ], [ 14.876308594764311, 55.142846450082331, 0.0 ], [ 14.875930743061755, 55.142764278796683, 0.0 ], [ 14.873842961448563, 55.143772720186149, 0.0 ], [ 14.878936082219846, 55.142823995563319, 0.0 ], [ 14.878830372845117, 55.144172945489693, 0.0 ], [ 14.877786621222809, 55.14447151890068, 0.0 ], [ 14.877483996972332, 55.144319554532558, 0.0 ], [ 14.876995723359732, 55.144845698582273, 0.0 ], [ 14.880423184915891, 55.146040765116886, 0.0 ], [ 14.881365229475783, 55.146776797995699, 0.0 ], [ 14.880894097897844, 55.147338132142387, 0.0 ], [ 14.878521167740223, 55.14675631480398, 0.0 ], [ 14.878045359653726, 55.147140365427006, 0.0 ], [ 14.87972260313173, 55.147844884600673, 0.0 ], [ 14.880022607726714, 55.147638914209764, 0.0 ], [ 14.880587084015776, 55.147862805369989, 0.0 ], [ 14.880297622905758, 55.148083118645502, 0.0 ], [ 14.882944139380166, 55.148948324651627, 0.0 ], [ 14.883580324277204, 55.148529574841994, 0.0 ], [ 14.8841901081913, 55.148768627386723, 0.0 ], [ 14.884874802669467, 55.148437080173622, 0.0 ], [ 14.885050693252623, 55.14899957773612, 0.0 ], [ 14.884409191174511, 55.149352437135249, 0.0 ], [ 14.885709462908718, 55.14984039338708, 0.0 ], [ 14.886357073639585, 55.149442046993151, 0.0 ], [ 14.888327722474923, 55.150297853834466, 0.0 ], [ 14.888778371899544, 55.150186900085444, 0.0 ], [ 14.889544382856737, 55.150547607944873, 0.0 ], [ 14.889133053218831, 55.150769350799912, 0.0 ], [ 14.890292435357155, 55.151371562034271, 0.0 ], [ 14.889949041353782, 55.151625836608837, 0.0 ], [ 14.891896164346779, 55.152251135291067, 0.0 ], [ 14.89445713905002, 55.152540588869435, 0.0 ], [ 14.89722837220453, 55.152373422267338, 0.0 ], [ 14.897075038943683, 55.15190417259037, 0.0 ] ] ] } }
]
}
