{
"type": "FeatureCollection",
"name": "nature_area_forest",
"crs": { "type": "name", "properties": { "name": "urn:ogc:def:crs:OGC:1.3:CRS84" } },
"features": [
{ "type": "Feature", "properties": { "layer_id": "nature_area_forest", "label": "Nature-area forest", "tooltip_title": "Source layer: Nature-area forest", "tooltip_body": "Danish nature-area label source filtered to naturareal = skovPlantage.<br>Clipped to Bornholm DAGI Landsdel landmass." }, "geometry": { "type": "Polygon", "coordinates": [ [ [ 14.704823680571375, 55.126605688621702, 0.0 ], [ 14.70721442937519, 55.128505820593283, 0.0 ], [ 14.707460901169251, 55.130681491033826, 0.0 ], [ 14.708184783966237, 55.131735792847849, 0.0 ], [ 14.707791019385057, 55.132163605563896, 0.0 ], [ 14.708405553172195, 55.133797178023592, 0.0 ], [ 14.708455672674001, 55.137699884200899, 0.0 ], [ 14.707705922442191, 55.138571015686232, 0.0 ], [ 14.707351366042666, 55.140245708942672, 0.0 ], [ 14.707765610510874, 55.143055505807681, 0.0 ], [ 14.709660045324165, 55.143478334070586, 0.0 ], [ 14.711033441030148, 55.14254583175741, 0.0 ], [ 14.7120624972288, 55.142854016548597, 0.0 ], [ 14.712176788410416, 55.143269927307827, 0.0 ], [ 14.713267736627955, 55.143857309202282, 0.0 ], [ 14.716238725916678, 55.143576866545722, 0.0 ], [ 14.71600684780565, 55.141967538412388, 0.0 ], [ 14.718627869452757, 55.141541465001374, 0.0 ], [ 14.722175697918713, 55.139600062009642, 0.0 ], [ 14.722595860531587, 55.137797814022122, 0.0 ], [ 14.724954646875574, 55.135989918233726, 0.0 ], [ 14.723597372849335, 55.13428797773215, 0.0 ], [ 14.721994777108945, 55.135142494234557, 0.0 ], [ 14.722666524675057, 55.133608892297296, 0.0 ], [ 14.718438118518689, 55.130767100762185, 0.0 ], [ 14.711039024300996, 55.124251136998161, 0.0 ], [ 14.70934824764867, 55.122164161922818, 0.0 ], [ 14.708280263895992, 55.122339572135381, 0.0 ], [ 14.708500555849387, 55.122919645803897, 0.0 ], [ 14.708358963923942, 55.123376929133975, 0.0 ], [ 14.70733905322629, 55.123521895369585, 0.0 ], [ 14.70708941919515, 55.123197768649597, 0.0 ], [ 14.708355126029973, 55.122948354828907, 0.0 ], [ 14.708237375936044, 55.122282446003283, 0.0 ], [ 14.709297358296508, 55.122114793698309, 0.0 ], [ 14.708080809736995, 55.120570194488181, 0.0 ], [ 14.706538753056515, 55.121388540254991, 0.0 ], [ 14.704747748585584, 55.121140866856443, 0.0 ], [ 14.704359154063985, 55.121627478767472, 0.0 ], [ 14.70368991797884, 55.121565198440798, 0.0 ], [ 14.704147701942178, 55.121205414943852, 0.0 ], [ 14.703170710969335, 55.121245981552171, 0.0 ], [ 14.703008448904216, 55.120889929669083, 0.0 ], [ 14.703812425576526, 55.120773052527269, 0.0 ], [ 14.703646329485336, 55.120307810166196, 0.0 ], [ 14.704744180382926, 55.120187748284948, 0.0 ], [ 14.704918535035805, 55.120983056111022, 0.0 ], [ 14.706364597081587, 55.121328398892153, 0.0 ], [ 14.70803672934758, 55.120506913151054, 0.0 ], [ 14.706399674587828, 55.118532962527965, 0.0 ], [ 14.705919354495387, 55.118653557400719, 0.0 ], [ 14.705445181767395, 55.118036257168399, 0.0 ], [ 14.705002414990515, 55.118131679840651, 0.0 ], [ 14.705743083651146, 55.119145232888961, 0.0 ], [ 14.704749148038477, 55.119345940616405, 0.0 ], [ 14.704837135861762, 55.119821781706179, 0.0 ], [ 14.702593630035524, 55.119957021171835, 0.0 ], [ 14.7012240327167, 55.119717507349215, 0.0 ], [ 14.701991882645387, 55.118591891962303, 0.0 ], [ 14.701366547425735, 55.118488021510856, 0.0 ], [ 14.699645869017349, 55.120337709119994, 0.0 ], [ 14.699347617675242, 55.121402115980899, 0.0 ], [ 14.699865016995435, 55.122227780771034, 0.0 ], [ 14.702985775922647, 55.124205527930819, 0.0 ], [ 14.704823680571375, 55.126605688621702, 0.0 ] ] ] } },
{ "type": "Feature", "properties": { "layer_id": "nature_area_forest", "label": "Nature-area forest", "tooltip_title": "Source layer: Nature-area forest", "tooltip_body": "Danish nature-area label source filtered to naturareal = skovPlantage.<br>Clipped to Bornholm DAGI Landsdel landmass." }, "geometry": { "type": "Polygon", "coordinates": [ [ [ 15.06074608577585, 55.132556189800951, 0.0 ], [ 15.060854894534176, 55.133779234284802, 0.0 ], [ 15.061454662613922, 55.13410206519238, 0.0 ], [ 15.060269532793038, 55.135053941645651, 0.0 ], [ 15.061690608901738, 55.135318673308483, 0.0 ], [ 15.0610131062591, 55.136397739752361, 0.0 ], [ 15.062652223850321, 55.136589092189702, 0.0 ], [ 15.062755393992198, 55.135191685439011, 0.0 ], [ 15.065790134576309, 55.135264686395402, 0.0 ], [ 15.06597146457915, 55.134854508793246, 0.0 ], [ 15.066632017145327, 55.134792607532674, 0.0 ], [ 15.06725208937026, 55.135589078079661, 0.0 ], [ 15.068023317199517, 55.135602674018699, 0.0 ], [ 15.068071178647861, 55.13605947718051, 0.0 ], [ 15.068907435385972, 55.136189388974678, 0.0 ], [ 15.06913114572966, 55.135922499624286, 0.0 ], [ 15.067746984991812, 55.134735278467261, 0.0 ], [ 15.066080520865238, 55.133920948390823, 0.0 ], [ 15.06472077319845, 55.132646220826956, 0.0 ], [ 15.063937509826586, 55.133141920834881, 0.0 ], [ 15.064388907296896, 55.133371574404677, 0.0 ], [ 15.063808685259454, 55.133890086651675, 0.0 ], [ 15.062599326408751, 55.133087008615597, 0.0 ], [ 15.062658246911939, 55.132598222468829, 0.0 ], [ 15.064451315465043, 55.132286110994393, 0.0 ], [ 15.06364159353075, 55.13143328184357, 0.0 ], [ 15.064181579965004, 55.131141153602535, 0.0 ], [ 15.064784463476553, 55.131639476212243, 0.0 ], [ 15.066087368156779, 55.130770984251356, 0.0 ], [ 15.065641869682457, 55.129678388301237, 0.0 ], [ 15.064286506383404, 55.129705029931223, 0.0 ], [ 15.063736608812146, 55.129438068319885, 0.0 ], [ 15.064078248630967, 55.129130364183808, 0.0 ], [ 15.063025968440225, 55.128775400987813, 0.0 ], [ 15.063139457142764, 55.128202225160841, 0.0 ], [ 15.064704376295047, 55.128579393214487, 0.0 ], [ 15.066777413944079, 55.128578025510159, 0.0 ], [ 15.068062227028269, 55.129036855164763, 0.0 ], [ 15.069023066198044, 55.128842431122976, 0.0 ], [ 15.069851452599343, 55.125924569568269, 0.0 ], [ 15.06731503259499, 55.126064308824269, 0.0 ], [ 15.067903946866545, 55.126960471315236, 0.0 ], [ 15.065979462068317, 55.12731801272809, 0.0 ], [ 15.063358588805379, 55.127036366369481, 0.0 ], [ 15.062340419506478, 55.128200074582303, 0.0 ], [ 15.06161113301969, 55.128432406561494, 0.0 ], [ 15.060422381395302, 55.128238919479429, 0.0 ], [ 15.059634995388773, 55.128678344585026, 0.0 ], [ 15.062167566482966, 55.129100079348085, 0.0 ], [ 15.0630316974209, 55.129747074007859, 0.0 ], [ 15.062119962386395, 55.130088010259094, 0.0 ], [ 15.061564625775667, 55.130161383372332, 0.0 ], [ 15.059962241473514, 55.129519351933013, 0.0 ], [ 15.058294625382072, 55.130246876193084, 0.0 ], [ 15.058080368115524, 55.129542217199258, 0.0 ], [ 15.058555417370327, 55.12847840039376, 0.0 ], [ 15.057391804292205, 55.129193819300802, 0.0 ], [ 15.057061743221665, 55.129899701917246, 0.0 ], [ 15.056401463489747, 55.129840888769344, 0.0 ], [ 15.056871325109976, 55.131529876125995, 0.0 ], [ 15.056084729243889, 55.131700023938457, 0.0 ], [ 15.056135053987946, 55.132180205055917, 0.0 ], [ 15.06074608577585, 55.132556189800951, 0.0 ] ] ] } },
{ "type": "Feature", "properties": { "layer_id": "nature_area_forest", "label": "Nature-area forest", "tooltip_title": "Source layer: Nature-area forest", "tooltip_body": "Danish nature-area label source filtered to naturareal = skovPlantage.<br>Clipped to Bornholm DAGI Landsdel landmass." }, "geometry": { "type": "Polygon", "coordinates": [ [ [ 14.893445266545099, 55.13535859119753, 0.0 ], [ 14.894261023509735, 55.136356670452052, 0.0 ], [ 14.893672108262779, 55.136475186438517, 0.0 ], [ 14.902887214523695, 55.144361814668258, 0.0 ], [ 14.921406395869889, 55.14038403832847, 0.0 ], [ 14.921341451758295, 55.139970186771116, 0.0 ], [ 14.922284523937495, 55.139749639620426, 0.0 ], [ 14.921732244221303, 55.138874829082027, 0.0 ], [ 14.921931275489776, 55.138380224928461, 0.0 ], [ 14.923079026199234, 55.139247514417868, 0.0 ], [ 14.923701805179272, 55.139109646796705, 0.0 ], [ 14.92421420278002, 55.139892403581257, 0.0 ], [ 14.963771034182447, 55.131543161641275, 0.0 ], [ 14.964426562286517, 55.129555649184631, 0.0 ], [ 14.968169505350128, 55.130305932463749, 0.0 ], [ 14.968374408356048, 55.13055785651958, 0.0 ], [ 14.977261779079456, 55.128656894342122, 0.0 ], [ 14.983484996860604, 55.122194929316592, 0.0 ], [ 14.974490680814545, 55.107474138298777, 0.0 ], [ 14.972442756472429, 55.107949890223786, 0.0 ], [ 14.971769236473863, 55.10690821346283, 0.0 ], [ 14.972962896449621, 55.106630171498487, 0.0 ], [ 14.972501073082743, 55.105948387305652, 0.0 ], [ 14.973414762932553, 55.105741014095337, 0.0 ], [ 14.964331414210511, 55.091001533711768, 0.0 ], [ 14.926551316287808, 55.104347893020623, 0.0 ], [ 14.929496829417129, 55.108720158850488, 0.0 ], [ 14.930511407962852, 55.112900583653662, 0.0 ], [ 14.930079251261903, 55.115994871843526, 0.0 ], [ 14.925845421011603, 55.115838661169043, 0.0 ], [ 14.923949438019237, 55.117464475394208, 0.0 ], [ 14.915782647423496, 55.114338520200619, 0.0 ], [ 14.915088687794796, 55.11494410502327, 0.0 ], [ 14.914579066458794, 55.114856573569064, 0.0 ], [ 14.913806013223716, 55.116005278307682, 0.0 ], [ 14.912649749128828, 55.115492962647537, 0.0 ], [ 14.912323192318508, 55.114896215125988, 0.0 ], [ 14.911374266207121, 55.114750384450026, 0.0 ], [ 14.910047207780385, 55.113903169827267, 0.0 ], [ 14.908607906553939, 55.113763269971059, 0.0 ], [ 14.90835099615445, 55.113967173023056, 0.0 ], [ 14.906997550375475, 55.112459499013497, 0.0 ], [ 14.905646511266099, 55.112001881330471, 0.0 ], [ 14.90421519860381, 55.110840257036166, 0.0 ], [ 14.892576168327979, 55.104213777912904, 0.0 ], [ 14.89113166438408, 55.103830407390916, 0.0 ], [ 14.890446974891676, 55.102878723281691, 0.0 ], [ 14.888928637539209, 55.102395648511731, 0.0 ], [ 14.884106351477339, 55.101845591059423, 0.0 ], [ 14.880647423147284, 55.100441214612211, 0.0 ], [ 14.880019601527318, 55.101060762570157, 0.0 ], [ 14.877294707673967, 55.101649233888153, 0.0 ], [ 14.877554017336536, 55.102031539751422, 0.0 ], [ 14.874203499067146, 55.10193198909306, 0.0 ], [ 14.873742527773544, 55.101430604910711, 0.0 ], [ 14.872604734653986, 55.101616635746872, 0.0 ], [ 14.871940422534777, 55.101946396219219, 0.0 ], [ 14.872064776689701, 55.102254845653441, 0.0 ], [ 14.868187330085748, 55.103029924188171, 0.0 ], [ 14.868351013923114, 55.103367895172454, 0.0 ], [ 14.867602305873479, 55.103734929249249, 0.0 ], [ 14.864807040098052, 55.104360811195285, 0.0 ], [ 14.865003714441015, 55.104891379683536, 0.0 ], [ 14.864508058606699, 55.105070257306167, 0.0 ], [ 14.863960401374246, 55.104523330467053, 0.0 ], [ 14.858258645001108, 55.105707209141293, 0.0 ], [ 14.870538124046277, 55.1167473676608, 0.0 ], [ 14.890646209586288, 55.13386766088847, 0.0 ], [ 14.892774470217303, 55.135639615632634, 0.0 ], [ 14.893445266545099, 55.13535859119753, 0.0 ] ] ] } },
{ "type": "Feature", "properties": { "layer_id": "nature_area_forest", "label": "Nature-area forest", "tooltip_title": "Source layer: Nature-area forest", "tooltip_body": "Danish nature-area label source filtered to naturareal = skovPlantage.<br>Clipped to Bornholm DAGI Landsdel landmass." }, "geometry": { "type": "Polygon", "coordinates": [ [ [ 14.893445266545099, 55.13535859119753, 0.0 ], [ 14.894261023509735, 55.136356670452052, 0.0 ], [ 14.893672108262779, 55.136475186438517, 0.0 ], [ 14.902887214523695, 55.144361814668258, 0.0 ], [ 14.921406395869889, 55.14038403832847, 0.0 ], [ 14.921341451758295, 55.139970186771116, 0.0 ], [ 14.922284523937495, 55.139749639620426, 0.0 ], [ 14.921732244221303, 55.138874829082027, 0.0 ], [ 14.921931275489776, 55.138380224928461, 0.0 ], [ 14.923079026199234, 55.139247514417868, 0.0 ], [ 14.923701805179272, 55.139109646796705, 0.0 ], [ 14.92421420278002, 55.139892403581257, 0.0 ], [ 14.963771034182447, 55.131543161641275, 0.0 ], [ 14.964426562286517, 55.129555649184631, 0.0 ], [ 14.968169505350128, 55.130305932463749, 0.0 ], [ 14.968374408356048, 55.13055785651958, 0.0 ], [ 14.97713850441723, 55.12870347691242, 0.0 ], [ 14.983484996860604, 55.122194929316592, 0.0 ], [ 14.974490680814545, 55.107474138298777, 0.0 ], [ 14.973966787692456, 55.107740576673102, 0.0 ], [ 14.973387654176493, 55.107607644722407, 0.0 ], [ 14.93446879335356, 55.121587376014347, 0.0 ], [ 14.930636706484632, 55.131664596338588, 0.0 ], [ 14.903591009399754, 55.137577079196497, 0.0 ], [ 14.89480565145997, 55.13267509419272, 0.0 ], [ 14.890424322649109, 55.128803006654664, 0.0 ], [ 14.884885755859466, 55.128905317893611, 0.0 ], [ 14.892774470217303, 55.135639615632634, 0.0 ], [ 14.893445266545099, 55.13535859119753, 0.0 ] ] ] } },
{ "type": "Feature", "properties": { "layer_id": "nature_area_forest", "label": "Nature-area forest", "tooltip_title": "Source layer: Nature-area forest", "tooltip_body": "Danish nature-area label source filtered to naturareal = skovPlantage.<br>Clipped to Bornholm DAGI Landsdel landmass." }, "geometry": { "type": "Polygon", "coordinates": [ [ [ 14.895834766888957, 55.148350737857633, 0.0 ], [ 14.902887214523695, 55.144361814668258, 0.0 ], [ 14.879815581591487, 55.124502778058165, 0.0 ], [ 14.876159962451094, 55.126033542551738, 0.0 ], [ 14.875042463139916, 55.125918356838895, 0.0 ], [ 14.874461555301201, 55.125098672780801, 0.0 ], [ 14.873955659070361, 55.125107027922112, 0.0 ], [ 14.87440126727925, 55.125527686958229, 0.0 ], [ 14.874080378076853, 55.125725512937954, 0.0 ], [ 14.87115310164789, 55.126918937846696, 0.0 ], [ 14.870630066529801, 55.126573041245784, 0.0 ], [ 14.869890164860376, 55.126880956008463, 0.0 ], [ 14.871635650493271, 55.128305429932801, 0.0 ], [ 14.874061138673641, 55.127347289931613, 0.0 ], [ 14.874675423739614, 55.127897441527431, 0.0 ], [ 14.874200164399562, 55.128067083704181, 0.0 ], [ 14.874504719808449, 55.128364026320334, 0.0 ], [ 14.875142699368482, 55.128382770497083, 0.0 ], [ 14.874515444978696, 55.129084174035569, 0.0 ], [ 14.873190888991651, 55.129497719680813, 0.0 ], [ 14.87380354011157, 55.129988627457621, 0.0 ], [ 14.876950073938479, 55.12874465038184, 0.0 ], [ 14.876594360071641, 55.129929065015716, 0.0 ], [ 14.874052262407982, 55.13093889702224, 0.0 ], [ 14.874815513282456, 55.130836080466899, 0.0 ], [ 14.875341958869122, 55.131688558830547, 0.0 ], [ 14.874346893891426, 55.132011903451946, 0.0 ], [ 14.873443131355558, 55.130989332143997, 0.0 ], [ 14.872914147141072, 55.131132667657411, 0.0 ], [ 14.873489645969853, 55.131573878619776, 0.0 ], [ 14.872765518871274, 55.131869883007134, 0.0 ], [ 14.872982606866071, 55.132199057600708, 0.0 ], [ 14.873600045465773, 55.132780843215862, 0.0 ], [ 14.87659232942308, 55.13220198904736, 0.0 ], [ 14.877621351400043, 55.13301717711159, 0.0 ], [ 14.880689898028448, 55.131779490663355, 0.0 ], [ 14.881306696185957, 55.131859817840798, 0.0 ], [ 14.882756710183916, 55.133262443499007, 0.0 ], [ 14.883345289178081, 55.135383161723936, 0.0 ], [ 14.882712832900177, 55.135832873594467, 0.0 ], [ 14.883260805937498, 55.136229011512107, 0.0 ], [ 14.881735725445287, 55.136757511774547, 0.0 ], [ 14.88073681799168, 55.135891020898633, 0.0 ], [ 14.879884362246507, 55.135969202360691, 0.0 ], [ 14.880221346015308, 55.136838937980443, 0.0 ], [ 14.880759182860936, 55.136760593078186, 0.0 ], [ 14.881073591953431, 55.13762412773049, 0.0 ], [ 14.883562354407529, 55.137143489291084, 0.0 ], [ 14.884980936110704, 55.13831849736647, 0.0 ], [ 14.886321879398103, 55.138102003767834, 0.0 ], [ 14.882938424499535, 55.142371359944924, 0.0 ], [ 14.878887140314003, 55.14280373136102, 0.0 ], [ 14.878864646368394, 55.144351759116972, 0.0 ], [ 14.881209629793307, 55.145655550196992, 0.0 ], [ 14.879260326628431, 55.145073443952398, 0.0 ], [ 14.878909524775612, 55.14539966564989, 0.0 ], [ 14.88141407755384, 55.146769194296198, 0.0 ], [ 14.880359065642919, 55.148076420925314, 0.0 ], [ 14.881361639272585, 55.148490627137193, 0.0 ], [ 14.884171574801986, 55.145008047535754, 0.0 ], [ 14.885387736024931, 55.147498714675983, 0.0 ], [ 14.884554863193815, 55.147237470389967, 0.0 ], [ 14.884263074778749, 55.147423467386375, 0.0 ], [ 14.885519180234834, 55.14792781027176, 0.0 ], [ 14.885851600405708, 55.148528754259615, 0.0 ], [ 14.885166365688054, 55.148713829518236, 0.0 ], [ 14.885692490941411, 55.149100036576812, 0.0 ], [ 14.884774946392101, 55.149471648249445, 0.0 ], [ 14.885730941553668, 55.14982217637494, 0.0 ], [ 14.88659836330511, 55.149362418332942, 0.0 ], [ 14.888272494257098, 55.150264117214903, 0.0 ], [ 14.888273863455366, 55.14989151564717, 0.0 ], [ 14.887421818863722, 55.149569099435539, 0.0 ], [ 14.88777617558916, 55.149232056658541, 0.0 ], [ 14.889648111525959, 55.149937162018439, 0.0 ], [ 14.890008746657612, 55.149701179382362, 0.0 ], [ 14.887707095193685, 55.148730528806531, 0.0 ], [ 14.888409730013368, 55.148330329177426, 0.0 ], [ 14.890387701036346, 55.149243558738746, 0.0 ], [ 14.892247598502754, 55.148289451392543, 0.0 ], [ 14.89161225073204, 55.147053302513349, 0.0 ], [ 14.892179307220443, 55.14677525082444, 0.0 ], [ 14.891887690962639, 55.146479518767777, 0.0 ], [ 14.893564744383355, 55.145634636837933, 0.0 ], [ 14.895834766888957, 55.148350737857633, 0.0 ] ] ] } },
{ "type": "Feature", "properties": { "layer_id": "nature_area_forest", "label": "Nature-area forest", "tooltip_title": "Source layer: Nature-area forest", "tooltip_body": "Danish nature-area label source filtered to naturareal = skovPlantage.<br>Clipped to Bornholm DAGI Landsdel landmass." }, "geometry": { "type": "Polygon", "coordinates": [ [ [ 15.15083696476351, 55.129070347312265, 0.0 ], [ 15.151808844702732, 55.129509770053694, 0.0 ], [ 15.151897412924102, 55.129118366937632, 0.0 ], [ 15.15152131019555, 55.127299373756173, 0.0 ], [ 15.148838562867647, 55.127358018642596, 0.0 ], [ 15.149547267231513, 55.128116932612159, 0.0 ], [ 15.149382513178884, 55.129010850357005, 0.0 ], [ 15.15083696476351, 55.129070347312265, 0.0 ] ] ] } },
{ "type": "Feature", "properties": { "layer_id": "nature_area_forest", "label": "Nature-area forest", "tooltip_title": "Source layer: Nature-area forest", "tooltip_body": "Danish nature-area label source filtered to naturareal = skovPlantage.<br>Clipped to Bornholm DAGI Landsdel landmass." }, "geometry": null },
{ "type": "Feature", "properties": { "layer_id": "nature_area_forest", "label": "Nature-area forest", "tooltip_title": "Source layer: Nature-area forest", "tooltip_body": "Danish nature-area label source filtered to naturareal = skovPlantage.<br>Clipped to Bornholm DAGI Landsdel landmass." }, "geometry": null },
{ "type": "Feature", "properties": { "layer_id": "nature_area_forest", "label": "Nature-area forest", "tooltip_title": "Source layer: Nature-area forest", "tooltip_body": "Danish nature-area label source filtered to naturareal = skovPlantage.<br>Clipped to Bornholm DAGI Landsdel landmass." }, "geometry": { "type": "Polygon", "coordinates": [ [ [ 15.150957373395967, 55.127485972057748, 0.0 ], [ 15.151920677546835, 55.127024945845761, 0.0 ], [ 15.151591510167133, 55.12679301604701, 0.0 ], [ 15.152465129437397, 55.126126728614956, 0.0 ], [ 15.152050104067051, 55.125683587958541, 0.0 ], [ 15.15255309572836, 55.125111446094486, 0.0 ], [ 15.152063125348034, 55.124673364474397, 0.0 ], [ 15.151120904188657, 55.124494649562656, 0.0 ], [ 15.150980633147388, 55.124195520165642, 0.0 ], [ 15.151799043304729, 55.124261292826311, 0.0 ], [ 15.151824845558213, 55.12406396147076, 0.0 ], [ 15.150967147941742, 55.123990995258858, 0.0 ], [ 15.15208975433667, 55.123952930564876, 0.0 ], [ 15.152585490626645, 55.123634267006963, 0.0 ], [ 15.152538795385784, 55.12269226085801, 0.0 ], [ 15.150804694573699, 55.121944983792837, 0.0 ], [ 15.146129295672838, 55.123427700385342, 0.0 ], [ 15.147075014476515, 55.125480067292457, 0.0 ], [ 15.147178502421879, 55.127106043567856, 0.0 ], [ 15.149496244360575, 55.127349199237628, 0.0 ], [ 15.149222968050436, 55.126388505846926, 0.0 ], [ 15.150159457406998, 55.126345480764812, 0.0 ], [ 15.150794746166705, 55.126467630323809, 0.0 ], [ 15.150957373395967, 55.127485972057748, 0.0 ] ] ] } },
{ "type": "Feature", "properties": { "layer_id": "nature_area_forest", "label": "Nature-area forest", "tooltip_title": "Source layer: Nature-area forest", "tooltip_body": "Danish nature-area label source filtered to naturareal = skovPlantage.<br>Clipped to Bornholm DAGI Landsdel landmass." }, "geometry": null },
{ "type": "Feature", "properties": { "layer_id": "nature_area_forest", "label": "Nature-area forest", "tooltip_title": "Source layer: Nature-area forest", "tooltip_body": "Danish nature-area label source filtered to naturareal = skovPlantage.<br>Clipped to Bornholm DAGI Landsdel landmass." }, "geometry": { "type": "Polygon", "coordinates": [ [ [ 15.096555265575969, 55.025157425224712, 0.0 ], [ 15.095995960370891, 55.025898659137525, 0.0 ], [ 15.097225601347256, 55.026360955215573, 0.0 ], [ 15.098182411493118, 55.02734379472831, 0.0 ], [ 15.095611397035185, 55.026676935925273, 0.0 ], [ 15.093646354796906, 55.02923747288439, 0.0 ], [ 15.095656685556477, 55.029056747505656, 0.0 ], [ 15.096198150403492, 55.029745432709575, 0.0 ], [ 15.100274564828657, 55.027775557746715, 0.0 ], [ 15.099267132114388, 55.027498580667157, 0.0 ], [ 15.100319416647592, 55.027476529835269, 0.0 ], [ 15.101816066864592, 55.025860281696382, 0.0 ], [ 15.10049886832919, 55.025664902869877, 0.0 ], [ 15.098744191317966, 55.026125304783662, 0.0 ], [ 15.097660815919891, 55.025714734674352, 0.0 ], [ 15.098080927884872, 55.026416626710798, 0.0 ], [ 15.096937926068341, 55.025894518259321, 0.0 ], [ 15.097569129655456, 55.025646863356485, 0.0 ], [ 15.096555265575969, 55.025157425224712, 0.0 ] ] ] } },
{ "type": "Feature", "properties": { "layer_id": "nature_area_forest", "label": "Nature-area forest", "tooltip_title": "Source layer: Nature-area forest", "tooltip_body": "Danish nature-area label source filtered to naturareal = skovPlantage.<br>Clipped to Bornholm DAGI Landsdel landmass." }, "geometry": null },
{ "type": "Feature", "properties": { "layer_id": "nature_area_forest", "label": "Nature-area forest", "tooltip_title": "Source layer: Nature-area forest", "tooltip_body": "Danish nature-area label source filtered to naturareal = skovPlantage.<br>Clipped to Bornholm DAGI Landsdel landmass." }, "geometry": { "type": "Polygon", "coordinates": [ [ [ 15.101052451570524, 55.082184682356434, 0.0 ], [ 15.100229481354415, 55.082279901865007, 0.0 ], [ 15.100311786098304, 55.082837163552348, 0.0 ], [ 15.100870105464637, 55.084033098161541, 0.0 ], [ 15.102606073180061, 55.08521285174394, 0.0 ], [ 15.105930716197175, 55.092568478636053, 0.0 ], [ 15.109230646263402, 55.093275256491872, 0.0 ], [ 15.109518332140718, 55.092607889949512, 0.0 ], [ 15.110878642463197, 55.092241275762618, 0.0 ], [ 15.110863203063568, 55.091547659836678, 0.0 ], [ 15.112306266464328, 55.090987685726567, 0.0 ], [ 15.1158427314239, 55.090911258436975, 0.0 ], [ 15.116091286161424, 55.089785375693623, 0.0 ], [ 15.117505288880922, 55.089921737218901, 0.0 ], [ 15.116714380206474, 55.08886229482539, 0.0 ], [ 15.117060525629832, 55.088790552124799, 0.0 ], [ 15.115804023338475, 55.087754483696926, 0.0 ], [ 15.115194243469144, 55.086578486111001, 0.0 ], [ 15.114685719789215, 55.086638417104169, 0.0 ], [ 15.113883819546288, 55.086134615314421, 0.0 ], [ 15.114237693076664, 55.08546768118957, 0.0 ], [ 15.111222108359337, 55.08254866263141, 0.0 ], [ 15.109201027221134, 55.081149729180517, 0.0 ], [ 15.108628513117408, 55.080152721386021, 0.0 ], [ 15.107794644548095, 55.079765835858993, 0.0 ], [ 15.105789493369143, 55.079800752689167, 0.0 ], [ 15.104697500836123, 55.079477618051847, 0.0 ], [ 15.103506522744931, 55.079656835138884, 0.0 ], [ 15.103398552764643, 55.080312086055365, 0.0 ], [ 15.102146433850173, 55.080466271799182, 0.0 ], [ 15.102049799533905, 55.081067467007003, 0.0 ], [ 15.100991059450781, 55.080494566257762, 0.0 ], [ 15.101052451570524, 55.082184682356434, 0.0 ] ] ] } },
{ "type": "Feature", "properties": { "layer_id": "nature_area_forest", "label": "Nature-area forest", "tooltip_title": "Source layer: Nature-area forest", "tooltip_body": "Danish nature-area label source filtered to naturareal = skovPlantage.<br>Clipped to Bornholm DAGI Landsdel landmass." }, "geometry": null },
{ "type": "Feature", "properties": { "layer_id": "nature_area_forest", "label": "Nature-area forest", "tooltip_title": "Source layer: Nature-area forest", "tooltip_body": "Danish nature-area label source filtered to naturareal = skovPlantage.<br>Clipped to Bornholm DAGI Landsdel landmass." }, "geometry": null },
{ "type": "Feature", "properties": { "layer_id": "nature_area_forest", "label": "Nature-area forest", "tooltip_title": "Source layer: Nature-area forest", "tooltip_body": "Danish nature-area label source filtered to naturareal = skovPlantage.<br>Clipped to Bornholm DAGI Landsdel landmass." }, "geometry": null },
{ "type": "Feature", "properties": { "layer_id": "nature_area_forest", "label": "Nature-area forest", "tooltip_title": "Source layer: Nature-area forest", "tooltip_body": "Danish nature-area label source filtered to naturareal = skovPlantage.<br>Clipped to Bornholm DAGI Landsdel landmass." }, "geometry": null },
{ "type": "Feature", "properties": { "layer_id": "nature_area_forest", "label": "Nature-area forest", "tooltip_title": "Source layer: Nature-area forest", "tooltip_body": "Danish nature-area label source filtered to naturareal = skovPlantage.<br>Clipped to Bornholm DAGI Landsdel landmass." }, "geometry": { "type": "Polygon", "coordinates": [ [ [ 15.101052451570524, 55.082184682356434, 0.0 ], [ 15.099996827681824, 55.082150144908724, 0.0 ], [ 15.099299934993661, 55.08143280240742, 0.0 ], [ 15.097571483137212, 55.08128727829051, 0.0 ], [ 15.097172762928738, 55.079965900659253, 0.0 ], [ 15.097948804527304, 55.079694150135765, 0.0 ], [ 15.09695718125537, 55.079308367745682, 0.0 ], [ 15.096699061945825, 55.079520505237582, 0.0 ], [ 15.094510720025923, 55.079574613806102, 0.0 ], [ 15.093195080081749, 55.079215790141781, 0.0 ], [ 15.093514426072179, 55.079732967891637, 0.0 ], [ 15.093079276277125, 55.07983828629034, 0.0 ], [ 15.092212379223644, 55.079260541449905, 0.0 ], [ 15.090953030258728, 55.079046262487495, 0.0 ], [ 15.090354577383213, 55.079459779689564, 0.0 ], [ 15.090605319992887, 55.07974243334624, 0.0 ], [ 15.089561446936472, 55.07984515717682, 0.0 ], [ 15.089715050038009, 55.08014025084109, 0.0 ], [ 15.088578215002011, 55.080583477858504, 0.0 ], [ 15.089724077077205, 55.080902431291143, 0.0 ], [ 15.090532037423273, 55.082320428765165, 0.0 ], [ 15.088607083815017, 55.082229478544875, 0.0 ], [ 15.08757039884726, 55.080927030343233, 0.0 ], [ 15.086312834844394, 55.081646319012108, 0.0 ], [ 15.084774795397106, 55.081672671042455, 0.0 ], [ 15.08426545727805, 55.08201964991116, 0.0 ], [ 15.084034583762708, 55.081688987304688, 0.0 ], [ 15.082802529386163, 55.081604620931948, 0.0 ], [ 15.082614589920745, 55.080914799301482, 0.0 ], [ 15.081762399789056, 55.08103359695847, 0.0 ], [ 15.081423624884117, 55.081550471765382, 0.0 ], [ 15.081793483789154, 55.082186878097765, 0.0 ], [ 15.083196451917653, 55.083037652829162, 0.0 ], [ 15.082621366037953, 55.083208742376321, 0.0 ], [ 15.083398646531803, 55.084045497559778, 0.0 ], [ 15.084046377886434, 55.083977188483772, 0.0 ], [ 15.083100930159453, 55.084319824513848, 0.0 ], [ 15.081426986751298, 55.082684613220529, 0.0 ], [ 15.080843134735156, 55.082551802229091, 0.0 ], [ 15.08077477470999, 55.082853256424833, 0.0 ], [ 15.080368549015455, 55.08239748660052, 0.0 ], [ 15.079298706887474, 55.08232917642696, 0.0 ], [ 15.078962553871515, 55.081950026356324, 0.0 ], [ 15.078871604359209, 55.083160021213104, 0.0 ], [ 15.077414239124096, 55.083352769833091, 0.0 ], [ 15.077937693913183, 55.083839503270084, 0.0 ], [ 15.077835165408297, 55.084302305136319, 0.0 ], [ 15.077200619794857, 55.0844779665643, 0.0 ], [ 15.077262311029379, 55.0848760892939, 0.0 ], [ 15.078062186992646, 55.084766698979479, 0.0 ], [ 15.079059357949996, 55.086257402931885, 0.0 ], [ 15.077154705143299, 55.08676697747056, 0.0 ], [ 15.075875488659063, 55.085243020889664, 0.0 ], [ 15.074234857031541, 55.085205672292247, 0.0 ], [ 15.074017186894997, 55.084058492815117, 0.0 ], [ 15.076478971538421, 55.083273642556655, 0.0 ], [ 15.078190905755063, 55.08117617119531, 0.0 ], [ 15.077479527097942, 55.081134368927692, 0.0 ], [ 15.077143564602103, 55.081602018369992, 0.0 ], [ 15.076425276737801, 55.081523099696028, 0.0 ], [ 15.076010283463765, 55.08180048982414, 0.0 ], [ 15.074050535620524, 55.081753729790428, 0.0 ], [ 15.073330989613776, 55.08145597240744, 0.0 ], [ 15.072393639023772, 55.08194803247752, 0.0 ], [ 15.071362972017594, 55.081718054451791, 0.0 ], [ 15.072098474184596, 55.083263496575029, 0.0 ], [ 15.069991490266109, 55.08213286311652, 0.0 ], [ 15.069025626744315, 55.082930290707097, 0.0 ], [ 15.070681481964565, 55.083038526274827, 0.0 ], [ 15.071039875969927, 55.083398217067142, 0.0 ], [ 15.070000708446111, 55.083517279941638, 0.0 ], [ 15.070067382396012, 55.084391637517882, 0.0 ], [ 15.067913133648535, 55.084878435533348, 0.0 ], [ 15.066893340959108, 55.084855682174378, 0.0 ], [ 15.065470127619438, 55.083904804941582, 0.0 ], [ 15.0649722137375, 55.084028552688629, 0.0 ], [ 15.064192747160339, 55.083700872513887, 0.0 ], [ 15.064314069887406, 55.085626302622863, 0.0 ], [ 15.065779878204825, 55.085613279577558, 0.0 ], [ 15.06623257605013, 55.085341605820069, 0.0 ], [ 15.066591120411752, 55.085775763247746, 0.0 ], [ 15.064553469141751, 55.086659949382728, 0.0 ], [ 15.065538318348375, 55.088762816692331, 0.0 ], [ 15.069527405786538, 55.103072943880733, 0.0 ], [ 15.076769489257336, 55.103806632214429, 0.0 ], [ 15.076991503690635, 55.104368343158761, 0.0 ], [ 15.077959814944544, 55.10479616542947, 0.0 ], [ 15.07847139651502, 55.107677989541408, 0.0 ], [ 15.080030045406462, 55.107546356445894, 0.0 ], [ 15.080607934278122, 55.107088374256477, 0.0 ], [ 15.08192033942813, 55.107193968331408, 0.0 ], [ 15.081732091998621, 55.106925449937592, 0.0 ], [ 15.079188745086697, 55.106727181646669, 0.0 ], [ 15.079009422921807, 55.106300644670036, 0.0 ], [ 15.080118659786354, 55.106758219643474, 0.0 ], [ 15.080919115395666, 55.106222188191026, 0.0 ], [ 15.080597512787659, 55.105894710572031, 0.0 ], [ 15.079728603330775, 55.105934092907091, 0.0 ], [ 15.0791174022114, 55.10483858929036, 0.0 ], [ 15.079233204650052, 55.104058725977886, 0.0 ], [ 15.080544330983543, 55.104196810341961, 0.0 ], [ 15.081443242977116, 55.105453919191106, 0.0 ], [ 15.083942491992458, 55.106737338597348, 0.0 ], [ 15.085445686921341, 55.106692420258391, 0.0 ], [ 15.083721387931618, 55.104882540846788, 0.0 ], [ 15.084004399977466, 55.104638576008895, 0.0 ], [ 15.084549420037575, 55.104727677178715, 0.0 ], [ 15.085782223573215, 55.10552160567093, 0.0 ], [ 15.085454873289761, 55.104878660899004, 0.0 ], [ 15.086091892859802, 55.104797650792975, 0.0 ], [ 15.085938367225946, 55.104142209873864, 0.0 ], [ 15.085284637269972, 55.104316437369278, 0.0 ], [ 15.084508900006222, 55.103946007931619, 0.0 ], [ 15.085232967068398, 55.103400988603042, 0.0 ], [ 15.084398145298076, 55.102795367667952, 0.0 ], [ 15.086017432242214, 55.10364230965704, 0.0 ], [ 15.085591773177441, 55.103800331161807, 0.0 ], [ 15.085881025315107, 55.104046311969284, 0.0 ], [ 15.086557047733802, 55.103901936711871, 0.0 ], [ 15.087918604516329, 55.104938526236332, 0.0 ], [ 15.089136490292761, 55.105068229804985, 0.0 ], [ 15.089062811460956, 55.104729506166272, 0.0 ], [ 15.092055900766633, 55.10421826142359, 0.0 ], [ 15.092822137932101, 55.103589051478814, 0.0 ], [ 15.092595546116607, 55.10322198915302, 0.0 ], [ 15.094484600635084, 55.103297327328853, 0.0 ], [ 15.095105875624647, 55.102912004564246, 0.0 ], [ 15.094763622209305, 55.102653489259374, 0.0 ], [ 15.09566772749284, 55.10243485075879, 0.0 ], [ 15.095544383055914, 55.102111589777465, 0.0 ], [ 15.099186841524117, 55.101315705738166, 0.0 ], [ 15.098974447310265, 55.100929842710059, 0.0 ], [ 15.100135101279232, 55.100685671732727, 0.0 ], [ 15.100154984092919, 55.10095236141072, 0.0 ], [ 15.102148891815338, 55.100173589159496, 0.0 ], [ 15.103567000387061, 55.10019205297472, 0.0 ], [ 15.103422743553296, 55.09989875312305, 0.0 ], [ 15.104853860009753, 55.099534236378616, 0.0 ], [ 15.106357916485724, 55.099760478868632, 0.0 ], [ 15.107851705751818, 55.099430139388886, 0.0 ], [ 15.107314823976809, 55.098820570638715, 0.0 ], [ 15.108439905204577, 55.098181568701108, 0.0 ], [ 15.1084813564963, 55.097031556044705, 0.0 ], [ 15.106719978400312, 55.09722869438847, 0.0 ], [ 15.107307682956641, 55.096269274075375, 0.0 ], [ 15.106684155663865, 55.095568171058346, 0.0 ], [ 15.105259054968956, 55.095920705706703, 0.0 ], [ 15.104766386090715, 55.095718677103299, 0.0 ], [ 15.106367003869581, 55.094873440210407, 0.0 ], [ 15.106402019575018, 55.094234102475198, 0.0 ], [ 15.108355489463014, 55.094594372118983, 0.0 ], [ 15.108315043598607, 55.094288019156174, 0.0 ], [ 15.110112638089285, 55.09449655435786, 0.0 ], [ 15.11006353450818, 55.095143987307722, 0.0 ], [ 15.108578379668154, 55.095046411817286, 0.0 ], [ 15.109979935387772, 55.095967115294023, 0.0 ], [ 15.110061710822233, 55.096442824651483, 0.0 ], [ 15.110893791298693, 55.096426862475269, 0.0 ], [ 15.110908851403705, 55.096694425294046, 0.0 ], [ 15.111845190091618, 55.096842483583423, 0.0 ], [ 15.111182171439445, 55.096071717848396, 0.0 ], [ 15.113166931914355, 55.094840397598233, 0.0 ], [ 15.112346062677794, 55.094285493690698, 0.0 ], [ 15.111027532676045, 55.094116258173457, 0.0 ], [ 15.111753543582779, 55.094101037761341, 0.0 ], [ 15.111465157958666, 55.092929184750261, 0.0 ], [ 15.111972177819831, 55.092830177540812, 0.0 ], [ 15.111846041182522, 55.092209396682613, 0.0 ], [ 15.110883984605611, 55.092290529111658, 0.0 ], [ 15.110863203063568, 55.091547659836678, 0.0 ], [ 15.112306266464328, 55.090987685726567, 0.0 ], [ 15.116077527508573, 55.090849362546493, 0.0 ], [ 15.115599541144208, 55.090606840247162, 0.0 ], [ 15.116091286161424, 55.089785375693623, 0.0 ], [ 15.117505288880922, 55.089921737218901, 0.0 ], [ 15.116714380206474, 55.08886229482539, 0.0 ], [ 15.117060525629832, 55.088790552124799, 0.0 ], [ 15.115804023338475, 55.087754483696926, 0.0 ], [ 15.115194243469144, 55.086578486111001, 0.0 ], [ 15.114685719789215, 55.086638417104169, 0.0 ], [ 15.113883819546288, 55.086134615314421, 0.0 ], [ 15.114270533147103, 55.085532476608137, 0.0 ], [ 15.112965112540666, 55.084210537718846, 0.0 ], [ 15.109201027221134, 55.081149729180517, 0.0 ], [ 15.108628513117408, 55.080152721386021, 0.0 ], [ 15.107794644548095, 55.079765835858993, 0.0 ], [ 15.105789493369143, 55.079800752689167, 0.0 ], [ 15.104697500836123, 55.079477618051847, 0.0 ], [ 15.103506522744931, 55.079656835138884, 0.0 ], [ 15.103398552764643, 55.080312086055365, 0.0 ], [ 15.102146433850173, 55.080466271799182, 0.0 ], [ 15.102049799533905, 55.081067467007003, 0.0 ], [ 15.100991059450781, 55.080494566257762, 0.0 ], [ 15.101052451570524, 55.082184682356434, 0.0 ] ] ] } },
{ "type": "Feature", "properties": { "layer_id": "nature_area_forest", "label": "Nature-area forest", "tooltip_title": "Source layer: Nature-area forest", "tooltip_body": "Danish nature-area label source filtered to naturareal = skovPlantage.<br>Clipped to Bornholm DAGI Landsdel landmass." }, "geometry": null },
{ "type": "Feature", "properties": { "layer_id": "nature_area_forest", "label": "Nature-area forest", "tooltip_title": "Source layer: Nature-area forest", "tooltip_body": "Danish nature-area label source filtered to naturareal = skovPlantage.<br>Clipped to Bornholm DAGI Landsdel landmass." }, "geometry": null },
{ "type": "Feature", "properties": { "layer_id": "nature_area_forest", "label": "Nature-area forest", "tooltip_title": "Source layer: Nature-area forest", "tooltip_body": "Danish nature-area label source filtered to naturareal = skovPlantage.<br>Clipped to Bornholm DAGI Landsdel landmass." }, "geometry": null },
{ "type": "Feature", "properties": { "layer_id": "nature_area_forest", "label": "Nature-area forest", "tooltip_title": "Source layer: Nature-area forest", "tooltip_body": "Danish nature-area label source filtered to naturareal = skovPlantage.<br>Clipped to Bornholm DAGI Landsdel landmass." }, "geometry": { "type": "Polygon", "coordinates": [ [ [ 14.980075532053773, 55.082100204390365, 0.0 ], [ 14.964283119975764, 55.08657666727278, 0.0 ], [ 14.968745269737541, 55.092472488374284, 0.0 ], [ 14.971247680934562, 55.091799308932103, 0.0 ], [ 14.972406511493949, 55.093189747926161, 0.0 ], [ 14.970210746600875, 55.094298299844525, 0.0 ], [ 14.974281174910782, 55.099271484348982, 0.0 ], [ 14.970047231014716, 55.100253976785559, 0.0 ], [ 14.972246232892326, 55.103805994196257, 0.0 ], [ 14.9740607072108, 55.103492443683493, 0.0 ], [ 14.975044624306873, 55.103832150815698, 0.0 ], [ 14.977539514218549, 55.103242057006611, 0.0 ], [ 14.97927231834659, 55.105370721804896, 0.0 ], [ 14.995096739307437, 55.099711062221331, 0.0 ], [ 14.980075532053773, 55.082100204390365, 0.0 ] ] ] } },
{ "type": "Feature", "properties": { "layer_id": "nature_area_forest", "label": "Nature-area forest", "tooltip_title": "Source layer: Nature-area forest", "tooltip_body": "Danish nature-area label source filtered to naturareal = skovPlantage.<br>Clipped to Bornholm DAGI Landsdel landmass." }, "geometry": { "type": "Polygon", "coordinates": [ [ [ 14.9460167062847, 55.087779015690082, 0.0 ], [ 14.946018860957155, 55.087384483993581, 0.0 ], [ 14.942634224126909, 55.085077098159154, 0.0 ], [ 14.940654245050997, 55.086676369844433, 0.0 ], [ 14.946332831255791, 55.095310025319918, 0.0 ], [ 14.945552017295169, 55.095429570278029, 0.0 ], [ 14.945825552495529, 55.095869478640587, 0.0 ], [ 14.946678625554846, 55.09577124080711, 0.0 ], [ 14.947438862483976, 55.096959319154521, 0.0 ], [ 14.959549548253097, 55.092718607720613, 0.0 ], [ 14.947976766902986, 55.088510815460381, 0.0 ], [ 14.94660245672965, 55.087736634325957, 0.0 ], [ 14.9460167062847, 55.087779015690082, 0.0 ] ] ] } },
{ "type": "Feature", "properties": { "layer_id": "nature_area_forest", "label": "Nature-area forest", "tooltip_title": "Source layer: Nature-area forest", "tooltip_body": "Danish nature-area label source filtered to naturareal = skovPlantage.<br>Clipped to Bornholm DAGI Landsdel landmass." }, "geometry": null },
{ "type": "Feature", "properties": { "layer_id": "nature_area_forest", "label": "Nature-area forest", "tooltip_title": "Source layer: Nature-area forest", "tooltip_body": "Danish nature-area label source filtered to naturareal = skovPlantage.<br>Clipped to Bornholm DAGI Landsdel landmass." }, "geometry": null },
{ "type": "Feature", "properties": { "layer_id": "nature_area_forest", "label": "Nature-area forest", "tooltip_title": "Source layer: Nature-area forest", "tooltip_body": "Danish nature-area label source filtered to naturareal = skovPlantage.<br>Clipped to Bornholm DAGI Landsdel landmass." }, "geometry": null },
{ "type": "Feature", "properties": { "layer_id": "nature_area_forest", "label": "Nature-area forest", "tooltip_title": "Source layer: Nature-area forest", "tooltip_body": "Danish nature-area label source filtered to naturareal = skovPlantage.<br>Clipped to Bornholm DAGI Landsdel landmass." }, "geometry": null },
{ "type": "Feature", "properties": { "layer_id": "nature_area_forest", "label": "Nature-area forest", "tooltip_title": "Source layer: Nature-area forest", "tooltip_body": "Danish nature-area label source filtered to naturareal = skovPlantage.<br>Clipped to Bornholm DAGI Landsdel landmass." }, "geometry": null },
{ "type": "Feature", "properties": { "layer_id": "nature_area_forest", "label": "Nature-area forest", "tooltip_title": "Source layer: Nature-area forest", "tooltip_body": "Danish nature-area label source filtered to naturareal = skovPlantage.<br>Clipped to Bornholm DAGI Landsdel landmass." }, "geometry": null },
{ "type": "Feature", "properties": { "layer_id": "nature_area_forest", "label": "Nature-area forest", "tooltip_title": "Source layer: Nature-area forest", "tooltip_body": "Danish nature-area label source filtered to naturareal = skovPlantage.<br>Clipped to Bornholm DAGI Landsdel landmass." }, "geometry": null },
{ "type": "Feature", "properties": { "layer_id": "nature_area_forest", "label": "Nature-area forest", "tooltip_title": "Source layer: Nature-area forest", "tooltip_body": "Danish nature-area label source filtered to naturareal = skovPlantage.<br>Clipped to Bornholm DAGI Landsdel landmass." }, "geometry": null },
{ "type": "Feature", "properties": { "layer_id": "nature_area_forest", "label": "Nature-area forest", "tooltip_title": "Source layer: Nature-area forest", "tooltip_body": "Danish nature-area label source filtered to naturareal = skovPlantage.<br>Clipped to Bornholm DAGI Landsdel landmass." }, "geometry": { "type": "Polygon", "coordinates": [ [ [ 14.989525180845927, 55.092710580161871, 0.0 ], [ 14.995344804945022, 55.099622101477635, 0.0 ], [ 15.005020426549603, 55.096143247744259, 0.0 ], [ 15.007957263903931, 55.096855497260599, 0.0 ], [ 15.007992963855379, 55.097392047367826, 0.0 ], [ 15.010461866603331, 55.098216624552236, 0.0 ], [ 15.013359257925575, 55.098347456083665, 0.0 ], [ 15.015439365073252, 55.099240445715097, 0.0 ], [ 15.015875910825374, 55.099096993256438, 0.0 ], [ 15.014674316502047, 55.097757305374046, 0.0 ], [ 15.013479901944496, 55.097381796511769, 0.0 ], [ 15.015826763349278, 55.0975479441882, 0.0 ], [ 15.02015819204726, 55.082210136112479, 0.0 ], [ 15.01028413938948, 55.081185804655242, 0.0 ], [ 15.012013975009873, 55.07663168985146, 0.0 ], [ 15.011559480064081, 55.076402018798085, 0.0 ], [ 15.01121897448234, 55.076616963549462, 0.0 ], [ 15.010629557521403, 55.076089205009815, 0.0 ], [ 15.00825514756324, 55.077040602799492, 0.0 ], [ 15.008919804287174, 55.077583554105239, 0.0 ], [ 15.005862280964502, 55.077926329043805, 0.0 ], [ 15.005106662075301, 55.07720500324654, 0.0 ], [ 15.002396084040525, 55.07707035583671, 0.0 ], [ 15.004645724426764, 55.076628453131157, 0.0 ], [ 15.004328211754954, 55.076306535007475, 0.0 ], [ 14.999359314010038, 55.077861659835989, 0.0 ], [ 14.999993199186324, 55.078462720188249, 0.0 ], [ 14.999386391917787, 55.078661534839057, 0.0 ], [ 14.999838399166793, 55.079391063060541, 0.0 ], [ 14.999085742391605, 55.07954675757, 0.0 ], [ 14.999889158611134, 55.080116569646144, 0.0 ], [ 14.995518573785912, 55.08139074374872, 0.0 ], [ 14.99505582013993, 55.081056620266921, 0.0 ], [ 14.994179585988315, 55.081164097220558, 0.0 ], [ 14.994913188980894, 55.080961657796003, 0.0 ], [ 14.993121266363957, 55.079838489075669, 0.0 ], [ 14.98969768392522, 55.081197666926997, 0.0 ], [ 14.980622843598242, 55.082507193636879, 0.0 ], [ 14.988144621973952, 55.09103790064681, 0.0 ], [ 14.992372851844092, 55.091954012295552, 0.0 ], [ 14.991481085362125, 55.092412551346527, 0.0 ], [ 14.99014759631997, 55.092289748742736, 0.0 ], [ 14.989525180845927, 55.092710580161871, 0.0 ] ] ] } },
{ "type": "Feature", "properties": { "layer_id": "nature_area_forest", "label": "Nature-area forest", "tooltip_title": "Source layer: Nature-area forest", "tooltip_body": "Danish nature-area label source filtered to naturareal = skovPlantage.<br>Clipped to Bornholm DAGI Landsdel landmass." }, "geometry": { "type": "Polygon", "coordinates": [ [ [ 15.02101973996229, 55.079343524036538, 0.0 ], [ 15.015970332529607, 55.097574411634078, 0.0 ], [ 15.05393480352652, 55.101454831083274, 0.0 ], [ 15.054598445606906, 55.099400661104738, 0.0 ], [ 15.050948778669612, 55.098985894062345, 0.0 ], [ 15.051551724971352, 55.09714572680042, 0.0 ], [ 15.055044393412475, 55.097686883030391, 0.0 ], [ 15.0548868683607, 55.098032291528526, 0.0 ], [ 15.055770856937805, 55.098173036610469, 0.0 ], [ 15.055866520069022, 55.097803882183065, 0.0 ], [ 15.059908518348715, 55.098397534987818, 0.0 ], [ 15.059929040077805, 55.099266904492382, 0.0 ], [ 15.061328846664946, 55.099320540160136, 0.0 ], [ 15.061449041003158, 55.100718766605162, 0.0 ], [ 15.058535690437289, 55.100252864520456, 0.0 ], [ 15.057801331672337, 55.101859592233751, 0.0 ], [ 15.064833959957609, 55.10258120731875, 0.0 ], [ 15.063693182756703, 55.100159278192244, 0.0 ], [ 15.065513351983485, 55.100239585482996, 0.0 ], [ 15.065619411873927, 55.099996224880982, 0.0 ], [ 15.066239656274899, 55.10004067928724, 0.0 ], [ 15.065999928649852, 55.100655644960895, 0.0 ], [ 15.0671047711971, 55.10061131847349, 0.0 ], [ 15.066910964122192, 55.10134338134965, 0.0 ], [ 15.068931896224504, 55.101396946696681, 0.0 ], [ 15.068042582376926, 55.098222005578002, 0.0 ], [ 15.063391253403601, 55.098562683638235, 0.0 ], [ 15.062582183207933, 55.096843940000461, 0.0 ], [ 15.062119751885785, 55.096910886168416, 0.0 ], [ 15.062206220085271, 55.097852324341311, 0.0 ], [ 15.062775194762104, 55.098006051121565, 0.0 ], [ 15.063409060988242, 55.099099500182966, 0.0 ], [ 15.063241017901865, 55.099897166670189, 0.0 ], [ 15.062980272848407, 55.098788590221673, 0.0 ], [ 15.062211378651467, 55.098595418734234, 0.0 ], [ 15.061529496824871, 55.096797836170389, 0.0 ], [ 15.060163094700215, 55.095184975505504, 0.0 ], [ 15.060341408474095, 55.093929320136866, 0.0 ], [ 15.061533010099266, 55.092619278805685, 0.0 ], [ 15.061484524750746, 55.091787140523245, 0.0 ], [ 15.063082889381009, 55.092621634406591, 0.0 ], [ 15.06333964713704, 55.092031934677003, 0.0 ], [ 15.058687216475635, 55.09056815132994, 0.0 ], [ 15.059155809942348, 55.092541611257573, 0.0 ], [ 15.058487794315749, 55.091810180828361, 0.0 ], [ 15.058361018601417, 55.092760283094954, 0.0 ], [ 15.05715364788985, 55.092501003559562, 0.0 ], [ 15.056966211937125, 55.090973868410209, 0.0 ], [ 15.055455579348758, 55.091060055482359, 0.0 ], [ 15.055473755985124, 55.09157731374961, 0.0 ], [ 15.054917324835776, 55.09180252744089, 0.0 ], [ 15.055955554585555, 55.09201507544536, 0.0 ], [ 15.055861774488452, 55.092245478703745, 0.0 ], [ 15.055079629195685, 55.092098396114757, 0.0 ], [ 15.053503200324752, 55.091381376328094, 0.0 ], [ 15.053649807659239, 55.090978529870192, 0.0 ], [ 15.056196583920144, 55.089829814647047, 0.0 ], [ 15.02101973996229, 55.079343524036538, 0.0 ] ] ] } },
{ "type": "Feature", "properties": { "layer_id": "nature_area_forest", "label": "Nature-area forest", "tooltip_title": "Source layer: Nature-area forest", "tooltip_body": "Danish nature-area label source filtered to naturareal = skovPlantage.<br>Clipped to Bornholm DAGI Landsdel landmass." }, "geometry": null },
{ "type": "Feature", "properties": { "layer_id": "nature_area_forest", "label": "Nature-area forest", "tooltip_title": "Source layer: Nature-area forest", "tooltip_body": "Danish nature-area label source filtered to naturareal = skovPlantage.<br>Clipped to Bornholm DAGI Landsdel landmass." }, "geometry": null },
{ "type": "Feature", "properties": { "layer_id": "nature_area_forest", "label": "Nature-area forest", "tooltip_title": "Source layer: Nature-area forest", "tooltip_body": "Danish nature-area label source filtered to naturareal = skovPlantage.<br>Clipped to Bornholm DAGI Landsdel landmass." }, "geometry": null },
{ "type": "Feature", "properties": { "layer_id": "nature_area_forest", "label": "Nature-area forest", "tooltip_title": "Source layer: Nature-area forest", "tooltip_body": "Danish nature-area label source filtered to naturareal = skovPlantage.<br>Clipped to Bornholm DAGI Landsdel landmass." }, "geometry": null },
{ "type": "Feature", "properties": { "layer_id": "nature_area_forest", "label": "Nature-area forest", "tooltip_title": "Source layer: Nature-area forest", "tooltip_body": "Danish nature-area label source filtered to naturareal = skovPlantage.<br>Clipped to Bornholm DAGI Landsdel landmass." }, "geometry": null },
{ "type": "Feature", "properties": { "layer_id": "nature_area_forest", "label": "Nature-area forest", "tooltip_title": "Source layer: Nature-area forest", "tooltip_body": "Danish nature-area label source filtered to naturareal = skovPlantage.<br>Clipped to Bornholm DAGI Landsdel landmass." }, "geometry": null },
{ "type": "Feature", "properties": { "layer_id": "nature_area_forest", "label": "Nature-area forest", "tooltip_title": "Source layer: Nature-area forest", "tooltip_body": "Danish nature-area label source filtered to naturareal = skovPlantage.<br>Clipped to Bornholm DAGI Landsdel landmass." }, "geometry": { "type": "Polygon", "coordinates": [ [ [ 14.992106383799966, 55.113324520796034, 0.0 ], [ 14.98588374016218, 55.119836489559567, 0.0 ], [ 14.988462770261926, 55.120162096546849, 0.0 ], [ 14.988031450305082, 55.121262150328938, 0.0 ], [ 14.991863809703304, 55.121769863431929, 0.0 ], [ 14.991971703258223, 55.119661710766742, 0.0 ], [ 14.993399821208355, 55.119086675352747, 0.0 ], [ 14.996664853352629, 55.11461103224277, 0.0 ], [ 14.992106383799966, 55.113324520796034, 0.0 ] ] ] } },
{ "type": "Feature", "properties": { "layer_id": "nature_area_forest", "label": "Nature-area forest", "tooltip_title": "Source layer: Nature-area forest", "tooltip_body": "Danish nature-area label source filtered to naturareal = skovPlantage.<br>Clipped to Bornholm DAGI Landsdel landmass." }, "geometry": { "type": "Polygon", "coordinates": [ [ [ 15.017654802343465, 55.100387795110777, 0.0 ], [ 15.016583353851566, 55.100558943752546, 0.0 ], [ 15.016020101273861, 55.103405590199024, 0.0 ], [ 15.01670290266283, 55.103680749451556, 0.0 ], [ 15.015975660364896, 55.104175342053111, 0.0 ], [ 15.015953938154757, 55.105137453429812, 0.0 ], [ 15.023778502608495, 55.105394262630121, 0.0 ], [ 15.023586747691891, 55.106431353776486, 0.0 ], [ 15.024962227448325, 55.106739802878586, 0.0 ], [ 15.025416324752831, 55.106694575351668, 0.0 ], [ 15.025364635528897, 55.105821904261198, 0.0 ], [ 15.025776736314963, 55.105530891374201, 0.0 ], [ 15.027935166576876, 55.104858754131747, 0.0 ], [ 15.02628976846481, 55.103357531630436, 0.0 ], [ 15.028600348581893, 55.103248472850211, 0.0 ], [ 15.027737771821075, 55.101604848466614, 0.0 ], [ 15.042699165771761, 55.101728103696949, 0.0 ], [ 15.044054740962373, 55.102296001749352, 0.0 ], [ 15.053050679832159, 55.103074576318853, 0.0 ], [ 15.059202717216689, 55.107722584062728, 0.0 ], [ 15.061829836376292, 55.108441648545643, 0.0 ], [ 15.062060679263851, 55.107976330257138, 0.0 ], [ 15.062851705011676, 55.107920167673463, 0.0 ], [ 15.062851586169517, 55.107692017698056, 0.0 ], [ 15.063903316355534, 55.107809475294232, 0.0 ], [ 15.063854712345199, 55.107460755423901, 0.0 ], [ 15.063218208802546, 55.107478503820474, 0.0 ], [ 15.063086633843328, 55.107127355338775, 0.0 ], [ 15.062287403881198, 55.106981614631309, 0.0 ], [ 15.062426835320849, 55.106592800734056, 0.0 ], [ 15.063821215160356, 55.10658005727386, 0.0 ], [ 15.06382359343837, 55.107044173905216, 0.0 ], [ 15.06444144309898, 55.10695334288549, 0.0 ], [ 15.064455750611744, 55.107231385559508, 0.0 ], [ 15.065093235366625, 55.107183959013248, 0.0 ], [ 15.064691117892782, 55.106539839983306, 0.0 ], [ 15.06565924145767, 55.106499030185134, 0.0 ], [ 15.06466479437503, 55.103664802764868, 0.0 ], [ 15.064894952344327, 55.10324804222013, 0.0 ], [ 15.064249939187963, 55.102568699191771, 0.0 ], [ 15.015970332529607, 55.097574411634078, 0.0 ], [ 15.017654802343465, 55.100387795110777, 0.0 ] ] ] } },
{ "type": "Feature", "properties": { "layer_id": "nature_area_forest", "label": "Nature-area forest", "tooltip_title": "Source layer: Nature-area forest", "tooltip_body": "Danish nature-area label source filtered to naturareal = skovPlantage.<br>Clipped to Bornholm DAGI Landsdel landmass." }, "geometry": { "type": "Polygon", "coordinates": [ [ [ 15.062488106185739, 55.085971712633295, 0.0 ], [ 15.061802607805983, 55.08543286562626, 0.0 ], [ 15.061394746618722, 55.084028211061586, 0.0 ], [ 15.058631534698188, 55.084543726100769, 0.0 ], [ 15.051872179031266, 55.080683647914753, 0.0 ], [ 15.053556112197612, 55.079760507728047, 0.0 ], [ 15.054518409999961, 55.080769446228402, 0.0 ], [ 15.055363799794252, 55.080898334460329, 0.0 ], [ 15.055409036046228, 55.080375841195099, 0.0 ], [ 15.057192896854872, 55.07890869696066, 0.0 ], [ 15.058174914183621, 55.078773507371181, 0.0 ], [ 15.056713510657296, 55.076663321972312, 0.0 ], [ 15.056285975001289, 55.076580128114919, 0.0 ], [ 15.057217326073912, 55.076431987278674, 0.0 ], [ 15.057133862113224, 55.076158928343062, 0.0 ], [ 15.055814169572983, 55.076131429498702, 0.0 ], [ 15.054272354174705, 55.074806127109895, 0.0 ], [ 15.055090277830843, 55.074649075240302, 0.0 ], [ 15.055808282743071, 55.075378380484963, 0.0 ], [ 15.056515005894822, 55.075177168228961, 0.0 ], [ 15.05640258375778, 55.073931619650494, 0.0 ], [ 15.057852096296275, 55.07380055554632, 0.0 ], [ 15.057795398623448, 55.072985845743091, 0.0 ], [ 15.055257544121623, 55.073024737723586, 0.0 ], [ 15.054553054861133, 55.072247576614863, 0.0 ], [ 15.052055127547158, 55.072544527507397, 0.0 ], [ 15.052510042520645, 55.073111219501747, 0.0 ], [ 15.052122269228038, 55.073519072224073, 0.0 ], [ 15.05239665827656, 55.074099721205556, 0.0 ], [ 15.051629389197361, 55.073716886871814, 0.0 ], [ 15.049776463441088, 55.074625291858077, 0.0 ], [ 15.049681651447221, 55.075046800409424, 0.0 ], [ 15.048415140187004, 55.074613655017814, 0.0 ], [ 15.048025618217801, 55.074744986867685, 0.0 ], [ 15.04717560967557, 55.074040315556488, 0.0 ], [ 15.043465398270989, 55.076628963968162, 0.0 ], [ 15.026539908057476, 55.071051916556328, 0.0 ], [ 15.023054064784148, 55.070406217604337, 0.0 ], [ 15.023012591017544, 55.070711875956476, 0.0 ], [ 15.022567271729486, 55.070714802685814, 0.0 ], [ 15.022571727433823, 55.070321756850184, 0.0 ], [ 15.015075628207722, 55.068863632619752, 0.0 ], [ 15.013688640685666, 55.072316976646995, 0.0 ], [ 15.012092348770919, 55.072870202321326, 0.0 ], [ 15.011695995378766, 55.072022444162869, 0.0 ], [ 15.010890139523854, 55.072112246036923, 0.0 ], [ 15.011703205280352, 55.073778396340046, 0.0 ], [ 15.008371867847398, 55.073972025306922, 0.0 ], [ 15.012013975009873, 55.07663168985146, 0.0 ], [ 15.056196583920144, 55.089829814647047, 0.0 ], [ 15.061957218342297, 55.0875906407325, 0.0 ], [ 15.062488106185739, 55.085971712633295, 0.0 ] ] ] } },
{ "type": "Feature", "properties": { "layer_id": "nature_area_forest", "label": "Nature-area forest", "tooltip_title": "Source layer: Nature-area forest", "tooltip_body": "Danish nature-area label source filtered to naturareal = skovPlantage.<br>Clipped to Bornholm DAGI Landsdel landmass." }, "geometry": { "type": "Polygon", "coordinates": [ [ [ 15.025988418675775, 55.048243478866979, 0.0 ], [ 15.025482421994056, 55.048866090804694, 0.0 ], [ 15.028983066771209, 55.049901061767493, 0.0 ], [ 15.029510465560573, 55.048026052450126, 0.0 ], [ 15.029184092429723, 55.046125593031491, 0.0 ], [ 15.02306050610856, 55.045065777377701, 0.0 ], [ 15.022354866729797, 55.046959595158356, 0.0 ], [ 15.023865658101464, 55.046943550323562, 0.0 ], [ 15.023639622374576, 55.047656151676691, 0.0 ], [ 15.025381244391696, 55.047644111681024, 0.0 ], [ 15.025258063816777, 55.048174327469752, 0.0 ], [ 15.025988418675775, 55.048243478866979, 0.0 ] ] ] } },
{ "type": "Feature", "properties": { "layer_id": "nature_area_forest", "label": "Nature-area forest", "tooltip_title": "Source layer: Nature-area forest", "tooltip_body": "Danish nature-area label source filtered to naturareal = skovPlantage.<br>Clipped to Bornholm DAGI Landsdel landmass." }, "geometry": { "type": "Polygon", "coordinates": [ [ [ 15.070139621712851, 55.072136792892621, 0.0 ], [ 15.068756620562676, 55.070660920972394, 0.0 ], [ 15.067748947484708, 55.07050378142484, 0.0 ], [ 15.067892428972961, 55.071287320206089, 0.0 ], [ 15.066311679140766, 55.071168191156303, 0.0 ], [ 15.06977294346661, 55.073149068565392, 0.0 ], [ 15.071874983429455, 55.071761388823383, 0.0 ], [ 15.071624621413385, 55.071339572877193, 0.0 ], [ 15.070139621712851, 55.072136792892621, 0.0 ] ] ] } },
{ "type": "Feature", "properties": { "layer_id": "nature_area_forest", "label": "Nature-area forest", "tooltip_title": "Source layer: Nature-area forest", "tooltip_body": "Danish nature-area label source filtered to naturareal = skovPlantage.<br>Clipped to Bornholm DAGI Landsdel landmass." }, "geometry": { "type": "Polygon", "coordinates": [ [ [ 15.037762207730294, 55.05920957190888, 0.0 ], [ 15.038634341264432, 55.058619823191357, 0.0 ], [ 15.036515177542956, 55.058423306956932, 0.0 ], [ 15.036672124001573, 55.057973149299727, 0.0 ], [ 15.034470256972519, 55.057902802650652, 0.0 ], [ 15.034834629360503, 55.056605173837674, 0.0 ], [ 15.030444410047338, 55.056078802506569, 0.0 ], [ 15.029331679921333, 55.055479370529518, 0.0 ], [ 15.02860996736165, 55.055418539779367, 0.0 ], [ 15.023978681895576, 55.056844273994585, 0.0 ], [ 15.023936757671279, 55.057422673070349, 0.0 ], [ 15.026088627965189, 55.057445814174471, 0.0 ], [ 15.026096866960229, 55.058047743329979, 0.0 ], [ 15.027497560607603, 55.057706521426987, 0.0 ], [ 15.027590744953608, 55.058903868500018, 0.0 ], [ 15.029353402945492, 55.05897393174159, 0.0 ], [ 15.02931536109036, 55.059404933117179, 0.0 ], [ 15.03030745178874, 55.059281974378365, 0.0 ], [ 15.030260423706038, 55.058983772213786, 0.0 ], [ 15.031560446127607, 55.058995135973873, 0.0 ], [ 15.031376335835182, 55.059524516978506, 0.0 ], [ 15.030474936561941, 55.059974128392746, 0.0 ], [ 15.03095654221009, 55.06157326551785, 0.0 ], [ 15.031916013312173, 55.060672564938997, 0.0 ], [ 15.03419255991181, 55.060393959050408, 0.0 ], [ 15.03442127683943, 55.059997138220822, 0.0 ], [ 15.034476036289364, 55.05944969590216, 0.0 ], [ 15.033013444397987, 55.059436993846745, 0.0 ], [ 15.032806659215362, 55.058914983910462, 0.0 ], [ 15.032044976863222, 55.058891183533568, 0.0 ], [ 15.032482954813341, 55.057703439589559, 0.0 ], [ 15.034148483122213, 55.057805722592974, 0.0 ], [ 15.034143188070532, 55.058079245535858, 0.0 ], [ 15.036161705542606, 55.05860665145304, 0.0 ], [ 15.036285249219635, 55.0589240945841, 0.0 ], [ 15.037762207730294, 55.05920957190888, 0.0 ] ] ] } },
{ "type": "Feature", "properties": { "layer_id": "nature_area_forest", "label": "Nature-area forest", "tooltip_title": "Source layer: Nature-area forest", "tooltip_body": "Danish nature-area label source filtered to naturareal = skovPlantage.<br>Clipped to Bornholm DAGI Landsdel landmass." }, "geometry": { "type": "Polygon", "coordinates": [ [ [ 15.016551482791556, 55.061879725539178, 0.0 ], [ 15.013327563049179, 55.062678446651006, 0.0 ], [ 15.012790741484592, 55.065152650367587, 0.0 ], [ 15.01304327517124, 55.064680056863352, 0.0 ], [ 15.013784109370022, 55.06458139489331, 0.0 ], [ 15.014002773679829, 55.064971121848373, 0.0 ], [ 15.019283533487245, 55.064664143114094, 0.0 ], [ 15.018817976080015, 55.064291624517871, 0.0 ], [ 15.019086017077587, 55.063477733860204, 0.0 ], [ 15.018325283204518, 55.063663850078768, 0.0 ], [ 15.016464218833832, 55.062942325415754, 0.0 ], [ 15.016551482791556, 55.061879725539178, 0.0 ] ] ] } },
{ "type": "Feature", "properties": { "layer_id": "nature_area_forest", "label": "Nature-area forest", "tooltip_title": "Source layer: Nature-area forest", "tooltip_body": "Danish nature-area label source filtered to naturareal = skovPlantage.<br>Clipped to Bornholm DAGI Landsdel landmass." }, "geometry": { "type": "Polygon", "coordinates": [ [ [ 15.022302011717116, 55.04226858395473, 0.0 ], [ 15.021875079789368, 55.043263153229347, 0.0 ], [ 15.02339564494434, 55.043485759642181, 0.0 ], [ 15.023729850886378, 55.041869502373046, 0.0 ], [ 15.023110691811674, 55.041851811130108, 0.0 ], [ 15.023067490417583, 55.042307284855859, 0.0 ], [ 15.022302011717116, 55.04226858395473, 0.0 ] ] ] } },
{ "type": "Feature", "properties": { "layer_id": "nature_area_forest", "label": "Nature-area forest", "tooltip_title": "Source layer: Nature-area forest", "tooltip_body": "Danish nature-area label source filtered to naturareal = skovPlantage.<br>Clipped to Bornholm DAGI Landsdel landmass." }, "geometry": null },
{ "type": "Feature", "properties": { "layer_id": "nature_area_forest", "label": "Nature-area forest", "tooltip_title": "Source layer: Nature-area forest", "tooltip_body": "Danish nature-area label source filtered to naturareal = skovPlantage.<br>Clipped to Bornholm DAGI Landsdel landmass." }, "geometry": null },
{ "type": "Feature", "properties": { "layer_id": "nature_area_forest", "label": "Nature-area forest", "tooltip_title": "Source layer: Nature-area forest", "tooltip_body": "Danish nature-area label source filtered to naturareal = skovPlantage.<br>Clipped to Bornholm DAGI Landsdel landmass." }, "geometry": { "type": "Polygon", "coordinates": [ [ [ 15.083946845552557, 55.045109008254492, 0.0 ], [ 15.081893070179914, 55.045244694844747, 0.0 ], [ 15.081985987620092, 55.045613336645722, 0.0 ], [ 15.080139459657325, 55.045419862909938, 0.0 ], [ 15.077971521356716, 55.045716611632329, 0.0 ], [ 15.077585110834939, 55.045418228311554, 0.0 ], [ 15.075912164146967, 55.04549385159897, 0.0 ], [ 15.076233110895288, 55.04650286215503, 0.0 ], [ 15.077811521286398, 55.046276476011208, 0.0 ], [ 15.081241227112166, 55.047043040378, 0.0 ], [ 15.082033681875334, 55.046026924561367, 0.0 ], [ 15.083344281918414, 55.045873139501587, 0.0 ], [ 15.084477098223616, 55.045369273172561, 0.0 ], [ 15.083946845552557, 55.045109008254492, 0.0 ] ] ] } },
{ "type": "Feature", "properties": { "layer_id": "nature_area_forest", "label": "Nature-area forest", "tooltip_title": "Source layer: Nature-area forest", "tooltip_body": "Danish nature-area label source filtered to naturareal = skovPlantage.<br>Clipped to Bornholm DAGI Landsdel landmass." }, "geometry": null },
{ "type": "Feature", "properties": { "layer_id": "nature_area_forest", "label": "Nature-area forest", "tooltip_title": "Source layer: Nature-area forest", "tooltip_body": "Danish nature-area label source filtered to naturareal = skovPlantage.<br>Clipped to Bornholm DAGI Landsdel landmass." }, "geometry": { "type": "Polygon", "coordinates": [ [ [ 15.081801115635757, 55.050933368469494, 0.0 ], [ 15.081456693576722, 55.051082724177242, 0.0 ], [ 15.081807421918054, 55.051222257084284, 0.0 ], [ 15.082678134636907, 55.050993296667592, 0.0 ], [ 15.086478759252238, 55.051040529992363, 0.0 ], [ 15.086306116812269, 55.049870400668752, 0.0 ], [ 15.084847122758053, 55.049722825252061, 0.0 ], [ 15.084399834496901, 55.049398072590563, 0.0 ], [ 15.085943364709204, 55.047801496024817, 0.0 ], [ 15.082536179230031, 55.049927241582353, 0.0 ], [ 15.082058026576284, 55.050001550032142, 0.0 ], [ 15.081673306513181, 55.049552908337368, 0.0 ], [ 15.079839248940306, 55.049401388396248, 0.0 ], [ 15.079695179992958, 55.049677105180365, 0.0 ], [ 15.081951781812924, 55.050290769898339, 0.0 ], [ 15.081444127140989, 55.050873293612376, 0.0 ], [ 15.081801115635757, 55.050933368469494, 0.0 ] ] ] } },
{ "type": "Feature", "properties": { "layer_id": "nature_area_forest", "label": "Nature-area forest", "tooltip_title": "Source layer: Nature-area forest", "tooltip_body": "Danish nature-area label source filtered to naturareal = skovPlantage.<br>Clipped to Bornholm DAGI Landsdel landmass." }, "geometry": null },
{ "type": "Feature", "properties": { "layer_id": "nature_area_forest", "label": "Nature-area forest", "tooltip_title": "Source layer: Nature-area forest", "tooltip_body": "Danish nature-area label source filtered to naturareal = skovPlantage.<br>Clipped to Bornholm DAGI Landsdel landmass." }, "geometry": { "type": "Polygon", "coordinates": [ [ [ 15.123434360330162, 55.105206163013889, 0.0 ], [ 15.127267652456794, 55.105320923953073, 0.0 ], [ 15.126864483809168, 55.104556833574335, 0.0 ], [ 15.124151129815083, 55.10441013999273, 0.0 ], [ 15.123434360330162, 55.105206163013889, 0.0 ] ] ] } },
{ "type": "Feature", "properties": { "layer_id": "nature_area_forest", "label": "Nature-area forest", "tooltip_title": "Source layer: Nature-area forest", "tooltip_body": "Danish nature-area label source filtered to naturareal = skovPlantage.<br>Clipped to Bornholm DAGI Landsdel landmass." }, "geometry": { "type": "Polygon", "coordinates": [ [ [ 14.938544645962214, 55.081433045706241, 0.0 ], [ 14.939511081567067, 55.08185427310017, 0.0 ], [ 14.942231066900975, 55.081043647965586, 0.0 ], [ 14.942007694853304, 55.08056751757772, 0.0 ], [ 14.939348303554585, 55.08099812456166, 0.0 ], [ 14.938544645962214, 55.081433045706241, 0.0 ] ] ] } },
{ "type": "Feature", "properties": { "layer_id": "nature_area_forest", "label": "Nature-area forest", "tooltip_title": "Source layer: Nature-area forest", "tooltip_body": "Danish nature-area label source filtered to naturareal = skovPlantage.<br>Clipped to Bornholm DAGI Landsdel landmass." }, "geometry": null },
{ "type": "Feature", "properties": { "layer_id": "nature_area_forest", "label": "Nature-area forest", "tooltip_title": "Source layer: Nature-area forest", "tooltip_body": "Danish nature-area label source filtered to naturareal = skovPlantage.<br>Clipped to Bornholm DAGI Landsdel landmass." }, "geometry": null },
{ "type": "Feature", "properties": { "layer_id": "nature_area_forest", "label": "Nature-area forest", "tooltip_title": "Source layer: Nature-area forest", "tooltip_body": "Danish nature-area label source filtered to naturareal = skovPlantage.<br>Clipped to Bornholm DAGI Landsdel landmass." }, "geometry": { "type": "Polygon", "coordinates": [ [ [ 15.100384046427358, 55.019347178339324, 0.0 ], [ 15.099698486213001, 55.017789495521868, 0.0 ], [ 15.098218816328776, 55.017854744295938, 0.0 ], [ 15.098480238807261, 55.019244594800966, 0.0 ], [ 15.096641711601757, 55.01909313892795, 0.0 ], [ 15.096769765521529, 55.020019240728104, 0.0 ], [ 15.099337225797393, 55.020583237444832, 0.0 ], [ 15.100052084502817, 55.020236276626854, 0.0 ], [ 15.100065013954911, 55.01961264030777, 0.0 ], [ 15.100482691773538, 55.019610894029562, 0.0 ], [ 15.102013346924451, 55.020451196355793, 0.0 ], [ 15.102216560046125, 55.019819783110364, 0.0 ], [ 15.10129508142759, 55.019324116677375, 0.0 ], [ 15.100384046427358, 55.019347178339324, 0.0 ] ] ] } },
{ "type": "Feature", "properties": { "layer_id": "nature_area_forest", "label": "Nature-area forest", "tooltip_title": "Source layer: Nature-area forest", "tooltip_body": "Danish nature-area label source filtered to naturareal = skovPlantage.<br>Clipped to Bornholm DAGI Landsdel landmass." }, "geometry": null },
{ "type": "Feature", "properties": { "layer_id": "nature_area_forest", "label": "Nature-area forest", "tooltip_title": "Source layer: Nature-area forest", "tooltip_body": "Danish nature-area label source filtered to naturareal = skovPlantage.<br>Clipped to Bornholm DAGI Landsdel landmass." }, "geometry": null },
{ "type": "Feature", "properties": { "layer_id": "nature_area_forest", "label": "Nature-area forest", "tooltip_title": "Source layer: Nature-area forest", "tooltip_body": "Danish nature-area label source filtered to naturareal = skovPlantage.<br>Clipped to Bornholm DAGI Landsdel landmass." }, "geometry": null },
{ "type": "Feature", "properties": { "layer_id": "nature_area_forest", "label": "Nature-area forest", "tooltip_title": "Source layer: Nature-area forest", "tooltip_body": "Danish nature-area label source filtered to naturareal = skovPlantage.<br>Clipped to Bornholm DAGI Landsdel landmass." }, "geometry": null },
{ "type": "Feature", "properties": { "layer_id": "nature_area_forest", "label": "Nature-area forest", "tooltip_title": "Source layer: Nature-area forest", "tooltip_body": "Danish nature-area label source filtered to naturareal = skovPlantage.<br>Clipped to Bornholm DAGI Landsdel landmass." }, "geometry": null },
{ "type": "Feature", "properties": { "layer_id": "nature_area_forest", "label": "Nature-area forest", "tooltip_title": "Source layer: Nature-area forest", "tooltip_body": "Danish nature-area label source filtered to naturareal = skovPlantage.<br>Clipped to Bornholm DAGI Landsdel landmass." }, "geometry": { "type": "Polygon", "coordinates": [ [ [ 15.076978202853901, 55.006290610161997, 0.0 ], [ 15.075261699667056, 55.006079696839031, 0.0 ], [ 15.074954828458072, 55.006831589036217, 0.0 ], [ 15.076527042842308, 55.00726835337138, 0.0 ], [ 15.076978202853901, 55.006290610161997, 0.0 ] ] ] } },
{ "type": "Feature", "properties": { "layer_id": "nature_area_forest", "label": "Nature-area forest", "tooltip_title": "Source layer: Nature-area forest", "tooltip_body": "Danish nature-area label source filtered to naturareal = skovPlantage.<br>Clipped to Bornholm DAGI Landsdel landmass." }, "geometry": { "type": "Polygon", "coordinates": [ [ [ 14.718632830546072, 55.090980628964758, 0.0 ], [ 14.71532381071065, 55.092090632997518, 0.0 ], [ 14.716533438111618, 55.093539961722023, 0.0 ], [ 14.718237890315104, 55.09316174047779, 0.0 ], [ 14.718632830546072, 55.090980628964758, 0.0 ] ] ] } },
{ "type": "Feature", "properties": { "layer_id": "nature_area_forest", "label": "Nature-area forest", "tooltip_title": "Source layer: Nature-area forest", "tooltip_body": "Danish nature-area label source filtered to naturareal = skovPlantage.<br>Clipped to Bornholm DAGI Landsdel landmass." }, "geometry": { "type": "Polygon", "coordinates": [ [ [ 14.742499555831641, 55.096068357650708, 0.0 ], [ 14.742466302216698, 55.097355411089573, 0.0 ], [ 14.741971306122466, 55.097328949730681, 0.0 ], [ 14.741802803678731, 55.096874397334354, 0.0 ], [ 14.741774794265023, 55.097710113718428, 0.0 ], [ 14.747833363018533, 55.098425562906144, 0.0 ], [ 14.747587394933175, 55.099423554822046, 0.0 ], [ 14.749483177099048, 55.100298816797732, 0.0 ], [ 14.749656917991937, 55.098997991961042, 0.0 ], [ 14.74806973681307, 55.098543011688214, 0.0 ], [ 14.748590699709716, 55.098206698893577, 0.0 ], [ 14.748008738252571, 55.097943755822577, 0.0 ], [ 14.748120651260658, 55.097319930606396, 0.0 ], [ 14.749641078531319, 55.097686699739349, 0.0 ], [ 14.748784157505883, 55.096577089432508, 0.0 ], [ 14.745715438466597, 55.096401694992309, 0.0 ], [ 14.743746349828887, 55.095074888713441, 0.0 ], [ 14.742499555831641, 55.096068357650708, 0.0 ] ] ] } },
{ "type": "Feature", "properties": { "layer_id": "nature_area_forest", "label": "Nature-area forest", "tooltip_title": "Source layer: Nature-area forest", "tooltip_body": "Danish nature-area label source filtered to naturareal = skovPlantage.<br>Clipped to Bornholm DAGI Landsdel landmass." }, "geometry": { "type": "Polygon", "coordinates": [ [ [ 14.762073855278009, 55.093301144448709, 0.0 ], [ 14.760177428585285, 55.093584317144021, 0.0 ], [ 14.760286520773549, 55.094173007539446, 0.0 ], [ 14.758844443743317, 55.094784691016535, 0.0 ], [ 14.75907101905625, 55.095009347735676, 0.0 ], [ 14.759851058742921, 55.094808327623909, 0.0 ], [ 14.760707736637521, 55.096241862081818, 0.0 ], [ 14.761392016676497, 55.095886219243951, 0.0 ], [ 14.765403654347036, 55.095594517661077, 0.0 ], [ 14.770385184156265, 55.096285801716924, 0.0 ], [ 14.770810072492978, 55.094984245401072, 0.0 ], [ 14.772565981281272, 55.095152562341731, 0.0 ], [ 14.772878210922087, 55.09452179088413, 0.0 ], [ 14.773694843723597, 55.094735018480236, 0.0 ], [ 14.772821844583024, 55.097060191952082, 0.0 ], [ 14.775202207858809, 55.096983449675903, 0.0 ], [ 14.775500243113543, 55.095946538872383, 0.0 ], [ 14.777383561946646, 55.096039139901187, 0.0 ], [ 14.777610588307841, 55.095661858764522, 0.0 ], [ 14.781674769058627, 55.096693135449982, 0.0 ], [ 14.783736193019999, 55.093481724189751, 0.0 ], [ 14.761618886241308, 55.087828231865615, 0.0 ], [ 14.76367649993254, 55.092148514037333, 0.0 ], [ 14.761847039432153, 55.093077044714697, 0.0 ], [ 14.762073855278009, 55.093301144448709, 0.0 ] ] ] } },
{ "type": "Feature", "properties": { "layer_id": "nature_area_forest", "label": "Nature-area forest", "tooltip_title": "Source layer: Nature-area forest", "tooltip_body": "Danish nature-area label source filtered to naturareal = skovPlantage.<br>Clipped to Bornholm DAGI Landsdel landmass." }, "geometry": { "type": "Polygon", "coordinates": [ [ [ 14.734859057075729, 55.091718858898879, 0.0 ], [ 14.73123337149376, 55.092692402273926, 0.0 ], [ 14.731855854441546, 55.093690674649594, 0.0 ], [ 14.732277826736821, 55.09365932074153, 0.0 ], [ 14.731873532280563, 55.093020998384219, 0.0 ], [ 14.732768049193343, 55.0926743209492, 0.0 ], [ 14.733003620017652, 55.093240490528018, 0.0 ], [ 14.734308650833153, 55.093220000699596, 0.0 ], [ 14.734089289968798, 55.092286959584044, 0.0 ], [ 14.735055462467336, 55.092042742817526, 0.0 ], [ 14.734859057075729, 55.091718858898879, 0.0 ] ] ] } },
{ "type": "Feature", "properties": { "layer_id": "nature_area_forest", "label": "Nature-area forest", "tooltip_title": "Source layer: Nature-area forest", "tooltip_body": "Danish nature-area label source filtered to naturareal = skovPlantage.<br>Clipped to Bornholm DAGI Landsdel landmass." }, "geometry": null },
{ "type": "Feature", "properties": { "layer_id": "nature_area_forest", "label": "Nature-area forest", "tooltip_title": "Source layer: Nature-area forest", "tooltip_body": "Danish nature-area label source filtered to naturareal = skovPlantage.<br>Clipped to Bornholm DAGI Landsdel landmass." }, "geometry": { "type": "Polygon", "coordinates": [ [ [ 14.79647576791578, 55.120458439123247, 0.0 ], [ 14.797596580657233, 55.12051080652671, 0.0 ], [ 14.799011638486839, 55.12018956305495, 0.0 ], [ 14.799902973656184, 55.11958840750949, 0.0 ], [ 14.801138309997441, 55.119487634699844, 0.0 ], [ 14.80113175831014, 55.118803143346383, 0.0 ], [ 14.799704950461811, 55.118433779045006, 0.0 ], [ 14.798869536736861, 55.118584220117356, 0.0 ], [ 14.798727021684195, 55.118171068708904, 0.0 ], [ 14.797505220874585, 55.118134517135381, 0.0 ], [ 14.797948805747241, 55.118712891923558, 0.0 ], [ 14.796570195817511, 55.11949222016068, 0.0 ], [ 14.79647576791578, 55.120458439123247, 0.0 ] ] ] } },
{ "type": "Feature", "properties": { "layer_id": "nature_area_forest", "label": "Nature-area forest", "tooltip_title": "Source layer: Nature-area forest", "tooltip_body": "Danish nature-area label source filtered to naturareal = skovPlantage.<br>Clipped to Bornholm DAGI Landsdel landmass." }, "geometry": null },
{ "type": "Feature", "properties": { "layer_id": "nature_area_forest", "label": "Nature-area forest", "tooltip_title": "Source layer: Nature-area forest", "tooltip_body": "Danish nature-area label source filtered to naturareal = skovPlantage.<br>Clipped to Bornholm DAGI Landsdel landmass." }, "geometry": null },
{ "type": "Feature", "properties": { "layer_id": "nature_area_forest", "label": "Nature-area forest", "tooltip_title": "Source layer: Nature-area forest", "tooltip_body": "Danish nature-area label source filtered to naturareal = skovPlantage.<br>Clipped to Bornholm DAGI Landsdel landmass." }, "geometry": null },
{ "type": "Feature", "properties": { "layer_id": "nature_area_forest", "label": "Nature-area forest", "tooltip_title": "Source layer: Nature-area forest", "tooltip_body": "Danish nature-area label source filtered to naturareal = skovPlantage.<br>Clipped to Bornholm DAGI Landsdel landmass." }, "geometry": null },
{ "type": "Feature", "properties": { "layer_id": "nature_area_forest", "label": "Nature-area forest", "tooltip_title": "Source layer: Nature-area forest", "tooltip_body": "Danish nature-area label source filtered to naturareal = skovPlantage.<br>Clipped to Bornholm DAGI Landsdel landmass." }, "geometry": null },
{ "type": "Feature", "properties": { "layer_id": "nature_area_forest", "label": "Nature-area forest", "tooltip_title": "Source layer: Nature-area forest", "tooltip_body": "Danish nature-area label source filtered to naturareal = skovPlantage.<br>Clipped to Bornholm DAGI Landsdel landmass." }, "geometry": null },
{ "type": "Feature", "properties": { "layer_id": "nature_area_forest", "label": "Nature-area forest", "tooltip_title": "Source layer: Nature-area forest", "tooltip_body": "Danish nature-area label source filtered to naturareal = skovPlantage.<br>Clipped to Bornholm DAGI Landsdel landmass." }, "geometry": null },
{ "type": "Feature", "properties": { "layer_id": "nature_area_forest", "label": "Nature-area forest", "tooltip_title": "Source layer: Nature-area forest", "tooltip_body": "Danish nature-area label source filtered to naturareal = skovPlantage.<br>Clipped to Bornholm DAGI Landsdel landmass." }, "geometry": null },
{ "type": "Feature", "properties": { "layer_id": "nature_area_forest", "label": "Nature-area forest", "tooltip_title": "Source layer: Nature-area forest", "tooltip_body": "Danish nature-area label source filtered to naturareal = skovPlantage.<br>Clipped to Bornholm DAGI Landsdel landmass." }, "geometry": null },
{ "type": "Feature", "properties": { "layer_id": "nature_area_forest", "label": "Nature-area forest", "tooltip_title": "Source layer: Nature-area forest", "tooltip_body": "Danish nature-area label source filtered to naturareal = skovPlantage.<br>Clipped to Bornholm DAGI Landsdel landmass." }, "geometry": null },
{ "type": "Feature", "properties": { "layer_id": "nature_area_forest", "label": "Nature-area forest", "tooltip_title": "Source layer: Nature-area forest", "tooltip_body": "Danish nature-area label source filtered to naturareal = skovPlantage.<br>Clipped to Bornholm DAGI Landsdel landmass." }, "geometry": null },
{ "type": "Feature", "properties": { "layer_id": "nature_area_forest", "label": "Nature-area forest", "tooltip_title": "Source layer: Nature-area forest", "tooltip_body": "Danish nature-area label source filtered to naturareal = skovPlantage.<br>Clipped to Bornholm DAGI Landsdel landmass." }, "geometry": { "type": "Polygon", "coordinates": [ [ [ 14.8827466453642, 55.116141049364224, 0.0 ], [ 14.88022072135049, 55.116285180342324, 0.0 ], [ 14.879952299249597, 55.117357260050689, 0.0 ], [ 14.88016352133203, 55.117575431460779, 0.0 ], [ 14.882382043788246, 55.117656499515995, 0.0 ], [ 14.8827466453642, 55.116141049364224, 0.0 ] ] ] } },
{ "type": "Feature", "properties": { "layer_id": "nature_area_forest", "label": "Nature-area forest", "tooltip_title": "Source layer: Nature-area forest", "tooltip_body": "Danish nature-area label source filtered to naturareal = skovPlantage.<br>Clipped to Bornholm DAGI Landsdel landmass." }, "geometry": null }
]
}
