{
"type": "FeatureCollection",
"name": "natura_habitat_areas",
"crs": { "type": "name", "properties": { "name": "urn:ogc:def:crs:OGC:1.3:CRS84" } },
"features": [
{ "type": "Feature", "properties": { "layer_id": "natura_habitat_areas", "label": "Natura habitat areas", "tooltip_title": "Source layer: Natura habitat areas", "tooltip_body": "Habitat-area polygons.<br>Clipped to Bornholm DAGI Landsdel landmass." }, "geometry": null },
{ "type": "Feature", "properties": { "layer_id": "natura_habitat_areas", "label": "Natura habitat areas", "tooltip_title": "Source layer: Natura habitat areas", "tooltip_body": "Habitat-area polygons.<br>Clipped to Bornholm DAGI Landsdel landmass." }, "geometry": { "type": "MultiPolygon", "coordinates": [ [ [ [ 15.000411809577049, 55.002187964837916, 0.0 ], [ 15.003340134233678, 55.001737120793074, 0.0 ], [ 15.003653477261485, 54.998744325530652, 0.0 ], [ 15.006268100260828, 54.998615709280827, 0.0 ], [ 15.00622176900462, 54.999059537136723, 0.0 ], [ 15.008202694593797, 54.99912556452346, 0.0 ], [ 15.011286654631217, 54.998873028938725, 0.0 ], [ 15.011203656263223, 54.998196800995125, 0.0 ], [ 15.011964834291003, 54.998046265748009, 0.0 ], [ 15.014327866905218, 54.998290376008313, 0.0 ], [ 15.025478450487155, 54.998411416063504, 0.0 ], [ 15.033022165634462, 54.998070509536625, 0.0 ], [ 15.044368445396618, 54.996490152817408, 0.0 ], [ 15.045185899739097, 54.995764348545784, 0.0 ], [ 15.045190693067161, 54.9965253044967, 0.0 ], [ 15.04570567479157, 54.996525095975109, 0.0 ], [ 15.045932666364834, 54.995994277329451, 0.0 ], [ 15.047659082279479, 54.996834087563201, 0.0 ], [ 15.04849897314863, 54.996520686511786, 0.0 ], [ 15.048563043614626, 54.995901491672583, 0.0 ], [ 15.051869076219234, 54.995371902489218, 0.0 ], [ 15.060852857100578, 54.995676044135983, 0.0 ], [ 15.060764907900024, 54.996503217336489, 0.0 ], [ 15.071058296147937, 54.996790994467318, 0.0 ], [ 15.071860249318279, 54.994212355807029, 0.0 ], [ 15.072238980865505, 54.993625987627688, 0.0 ], [ 15.073168406615222, 54.993679977147195, 0.0 ], [ 15.073760654280871, 54.992523430599526, 0.0 ], [ 15.077958679973666, 54.993326166567613, 0.0 ], [ 15.078224246207069, 54.992808197830627, 0.0 ], [ 15.08481106907467, 54.994057743584563, 0.0 ], [ 15.08448988108394, 54.994669805987975, 0.0 ], [ 15.086672289677445, 54.995840957147493, 0.0 ], [ 15.08840985137831, 54.994571088740884, 0.0 ], [ 15.090238795491336, 54.993793514848292, 0.0 ], [ 15.08844612936057, 54.992400664764915, 0.0 ], [ 15.087671222223127, 54.991281853572019, 0.0 ], [ 15.082585087643503, 54.988514874512781, 0.0 ], [ 15.078465733552976, 54.987358095361962, 0.0 ], [ 15.073983570992384, 54.987372376078419, 0.0 ], [ 15.045470724501483, 54.994013117804471, 0.0 ], [ 15.040447073193368, 54.994792361336906, 0.0 ], [ 15.03475684035512, 54.995537932537033, 0.0 ], [ 15.032536051317763, 54.995540601494234, 0.0 ], [ 15.029483972040216, 54.995232676641962, 0.0 ], [ 15.028672040761446, 54.995025244844008, 0.0 ], [ 15.027974432624205, 54.994688450669194, 0.0 ], [ 15.023073287524689, 54.995059927668642, 0.0 ], [ 15.021535388859444, 54.994589728109922, 0.0 ], [ 15.019195648203175, 54.995539837732977, 0.0 ], [ 15.012868614543029, 54.996775526223132, 0.0 ], [ 15.00986111669614, 54.996724897629598, 0.0 ], [ 15.007572876679012, 54.997543540512517, 0.0 ], [ 14.996686297503762, 54.998715105819748, 0.0 ], [ 14.996930478171581, 55.000607800664767, 0.0 ], [ 14.997545012484643, 55.000716743714577, 0.0 ], [ 14.997604932447805, 55.001115247801138, 0.0 ], [ 14.999169656702463, 55.001123343471832, 0.0 ], [ 15.000411809577049, 55.002187964837916, 0.0 ] ] ], [ [ [ 15.028356849436927, 54.9948711426361, 0.0 ], [ 15.028356967641544, 54.994871212286348, 0.0 ], [ 15.028356889918495, 54.994871157751142, 0.0 ], [ 15.028356849436927, 54.9948711426361, 0.0 ] ] ] ] } },
{ "type": "Feature", "properties": { "layer_id": "natura_habitat_areas", "label": "Natura habitat areas", "tooltip_title": "Source layer: Natura habitat areas", "tooltip_body": "Habitat-area polygons.<br>Clipped to Bornholm DAGI Landsdel landmass." }, "geometry": { "type": "MultiPolygon", "coordinates": [ [ [ [ 15.030223520908574, 55.174531905003292, 0.0 ], [ 15.030774242675554, 55.174122266478975, 0.0 ], [ 15.030813908763887, 55.174380876097999, 0.0 ], [ 15.031487974046218, 55.174344535901056, 0.0 ], [ 15.032121034948482, 55.173773881071334, 0.0 ], [ 15.032671961172504, 55.173884924796972, 0.0 ], [ 15.032602657447782, 55.173395676153049, 0.0 ], [ 15.033289038795655, 55.173536881441287, 0.0 ], [ 15.033765558022194, 55.17330065498868, 0.0 ], [ 15.034346381664713, 55.173595994361243, 0.0 ], [ 15.034756303799975, 55.173218765438577, 0.0 ], [ 15.038923579846116, 55.172896067350806, 0.0 ], [ 15.039511189732135, 55.172517276457995, 0.0 ], [ 15.041031087896336, 55.172281881819536, 0.0 ], [ 15.040817065598363, 55.171777709515993, 0.0 ], [ 15.041512330894555, 55.171682915140892, 0.0 ], [ 15.041605150040578, 55.171975588988118, 0.0 ], [ 15.042338082106026, 55.171750500998719, 0.0 ], [ 15.042852565317462, 55.17123260318467, 0.0 ], [ 15.042465461610263, 55.170522918933436, 0.0 ], [ 15.044149230878492, 55.170250542592036, 0.0 ], [ 15.044677347607641, 55.169521672000464, 0.0 ], [ 15.045707516359489, 55.169207355294652, 0.0 ], [ 15.045329510486697, 55.168877812752015, 0.0 ], [ 15.047014222832871, 55.168478366320443, 0.0 ], [ 15.048069219137641, 55.167488215815581, 0.0 ], [ 15.048062567373519, 55.167778226875221, 0.0 ], [ 15.048836999936077, 55.167522183539944, 0.0 ], [ 15.048865525770449, 55.167151686620706, 0.0 ], [ 15.050357442135399, 55.166366499903276, 0.0 ], [ 15.050148450846761, 55.167020933008374, 0.0 ], [ 15.050792570163154, 55.166850297087329, 0.0 ], [ 15.050588768245994, 55.166415933028453, 0.0 ], [ 15.05095184034966, 55.166443229042187, 0.0 ], [ 15.051257563463544, 55.165889398008517, 0.0 ], [ 15.051620125156676, 55.166273444165611, 0.0 ], [ 15.05228788541957, 55.165864362369419, 0.0 ], [ 15.052300770856391, 55.166110512728721, 0.0 ], [ 15.052886490162061, 55.166089656380102, 0.0 ], [ 15.05349540249671, 55.165444036152095, 0.0 ], [ 15.055375094265406, 55.164918727211237, 0.0 ], [ 15.056207763745636, 55.164044281240123, 0.0 ], [ 15.056454147862279, 55.164290945804687, 0.0 ], [ 15.056757607864181, 55.16321198156848, 0.0 ], [ 15.057991662540489, 55.162479712669686, 0.0 ], [ 15.058950773348093, 55.162488142745318, 0.0 ], [ 15.058696259476974, 55.161937944783148, 0.0 ], [ 15.059221343353006, 55.161982327926893, 0.0 ], [ 15.059227976286534, 55.161075772755296, 0.0 ], [ 15.059868844357249, 55.160998253823792, 0.0 ], [ 15.060646798549385, 55.160284139552687, 0.0 ], [ 15.060948415005168, 55.160572483783454, 0.0 ], [ 15.062307917421958, 55.159999043224325, 0.0 ], [ 15.065686707541831, 55.160527875987199, 0.0 ], [ 15.066724126343653, 55.160259256211617, 0.0 ], [ 15.066693876369763, 55.159978137210167, 0.0 ], [ 15.067131789571519, 55.160140843734858, 0.0 ], [ 15.068318749120358, 55.159544114289396, 0.0 ], [ 15.068161793713964, 55.159360353873893, 0.0 ], [ 15.068837415773805, 55.159374050653568, 0.0 ], [ 15.068711512948008, 55.159117519178139, 0.0 ], [ 15.069937578863541, 55.158338201719189, 0.0 ], [ 15.071822071410343, 55.158164691988453, 0.0 ], [ 15.072136294317296, 55.157667818787679, 0.0 ], [ 15.071753588514083, 55.157208125231833, 0.0 ], [ 15.073071492856734, 55.155838751609288, 0.0 ], [ 15.074261788113635, 55.155678803747278, 0.0 ], [ 15.074848706227193, 55.156209076249368, 0.0 ], [ 15.07680840870113, 55.154635133120067, 0.0 ], [ 15.077442017360562, 55.155006966310992, 0.0 ], [ 15.078899137441056, 55.154746263948304, 0.0 ], [ 15.079089923791857, 55.155138631735234, 0.0 ], [ 15.079630377136461, 55.154861633031601, 0.0 ], [ 15.079506015700375, 55.154440443097997, 0.0 ], [ 15.080288845573225, 55.154086751125114, 0.0 ], [ 15.08103438449985, 55.154134603864037, 0.0 ], [ 15.081123269196294, 55.153711652426409, 0.0 ], [ 15.083383371998098, 55.153707421086224, 0.0 ], [ 15.084293194346445, 55.15298520368259, 0.0 ], [ 15.085836876358339, 55.153090914171777, 0.0 ], [ 15.086501170935687, 55.152534138029147, 0.0 ], [ 15.087310317132751, 55.152622793238024, 0.0 ], [ 15.087792508533754, 55.1521349222634, 0.0 ], [ 15.088614801454371, 55.152077467003693, 0.0 ], [ 15.087808131322831, 55.151459620809156, 0.0 ], [ 15.088107639072629, 55.15092241257851, 0.0 ], [ 15.090101055728592, 55.150396113910602, 0.0 ], [ 15.089964574681119, 55.150185195176753, 0.0 ], [ 15.089353227050319, 55.150077846733701, 0.0 ], [ 15.087468672435982, 55.150579665085694, 0.0 ], [ 15.083440952795922, 55.152386635160219, 0.0 ], [ 15.07909087423894, 55.153778578378351, 0.0 ], [ 15.078754496404621, 55.154310871848736, 0.0 ], [ 15.075393881727887, 55.154586769306661, 0.0 ], [ 15.074095461897469, 55.154967408811785, 0.0 ], [ 15.074191811337943, 55.155405310274503, 0.0 ], [ 15.072267628944775, 55.155736744595011, 0.0 ], [ 15.071759968610664, 55.156330960516655, 0.0 ], [ 15.070840806526746, 55.155920231111516, 0.0 ], [ 15.069019772137445, 55.15692457681314, 0.0 ], [ 15.066447422583972, 55.157359054828746, 0.0 ], [ 15.067550800129723, 55.158201080596832, 0.0 ], [ 15.06635479962153, 55.158809217800815, 0.0 ], [ 15.064406561468635, 55.159052240983705, 0.0 ], [ 15.064461280895729, 55.15952904443656, 0.0 ], [ 15.065157256878019, 55.159919098780776, 0.0 ], [ 15.06205138339203, 55.15971342786785, 0.0 ], [ 15.059446935357768, 55.160445607116415, 0.0 ], [ 15.058479424716115, 55.161219421790079, 0.0 ], [ 15.057500450825273, 55.161237908315137, 0.0 ], [ 15.05740730428351, 55.16068785301109, 0.0 ], [ 15.058083944945889, 55.160150003223059, 0.0 ], [ 15.057345644680982, 55.159670470211871, 0.0 ], [ 15.055848469214865, 55.159992940516027, 0.0 ], [ 15.055960433974695, 55.160790511419002, 0.0 ], [ 15.056588643838586, 55.160971638221554, 0.0 ], [ 15.056371237085305, 55.161299433355225, 0.0 ], [ 15.057029926524336, 55.161298097143721, 0.0 ], [ 15.056276266696008, 55.161771457770286, 0.0 ], [ 15.056783151174262, 55.16239441644408, 0.0 ], [ 15.056008251104728, 55.162532158250599, 0.0 ], [ 15.05442942599328, 55.161612275625359, 0.0 ], [ 15.054148048543357, 55.162058482641015, 0.0 ], [ 15.055696788341631, 55.162501688728973, 0.0 ], [ 15.054896471872667, 55.162988256550499, 0.0 ], [ 15.05453262920204, 55.162766848453792, 0.0 ], [ 15.054343999835712, 55.163573999521716, 0.0 ], [ 15.051655929773084, 55.165031487843223, 0.0 ], [ 15.050910445778069, 55.164718991427584, 0.0 ], [ 15.050366473379789, 55.16557110704079, 0.0 ], [ 15.048782311246484, 55.165717150158926, 0.0 ], [ 15.045542876847875, 55.167749708190556, 0.0 ], [ 15.044353114644828, 55.16810732137445, 0.0 ], [ 15.043190269335653, 55.169152402714211, 0.0 ], [ 15.040855460789182, 55.170051228251531, 0.0 ], [ 15.041286691656749, 55.170349260872442, 0.0 ], [ 15.04024500695134, 55.170761128010049, 0.0 ], [ 15.039305250393925, 55.169979589187207, 0.0 ], [ 15.039856408756904, 55.171227028984255, 0.0 ], [ 15.039123805348236, 55.171437271780988, 0.0 ], [ 15.039319879193503, 55.17181739446189, 0.0 ], [ 15.03887880334266, 55.172040959499398, 0.0 ], [ 15.037268782678719, 55.172139878973645, 0.0 ], [ 15.035691668161574, 55.171876708527627, 0.0 ], [ 15.033937488328631, 55.172101029452485, 0.0 ], [ 15.034149038726891, 55.172541604553707, 0.0 ], [ 15.033595523640733, 55.172652631330273, 0.0 ], [ 15.032625573219123, 55.172366198121495, 0.0 ], [ 15.031290452690007, 55.16886507827234, 0.0 ], [ 15.030439824915366, 55.168871566899057, 0.0 ], [ 15.030485885505795, 55.169609677682466, 0.0 ], [ 15.031914466980894, 55.171556326295274, 0.0 ], [ 15.030532847813635, 55.171939255399103, 0.0 ], [ 15.029904366223235, 55.171600834934196, 0.0 ], [ 15.030251459311135, 55.173310508279421, 0.0 ], [ 15.027839881097727, 55.173598780304914, 0.0 ], [ 15.027993863083664, 55.174557211770846, 0.0 ], [ 15.030223520908574, 55.174531905003292, 0.0 ] ] ], [ [ [ 14.987367081963125, 55.198423471373211, 0.0 ], [ 14.988135096897565, 55.198072879682471, 0.0 ], [ 14.988089452415844, 55.196998326299109, 0.0 ], [ 14.988856737699789, 55.197143379708088, 0.0 ], [ 14.988254612972808, 55.196722699144779, 0.0 ], [ 14.989041868420291, 55.196088675147358, 0.0 ], [ 14.988449673134946, 55.194945007765412, 0.0 ], [ 14.989207121757826, 55.193997623710956, 0.0 ], [ 14.993538621056398, 55.191858987692726, 0.0 ], [ 14.995053914411407, 55.191492809241929, 0.0 ], [ 14.995849304271193, 55.19170476574719, 0.0 ], [ 14.995995118869773, 55.191313112787036, 0.0 ], [ 14.998327716647303, 55.19043480006718, 0.0 ], [ 15.000140653882925, 55.188861449707126, 0.0 ], [ 15.002228076752381, 55.187736748443776, 0.0 ], [ 15.005159320267319, 55.187360636578383, 0.0 ], [ 15.004918460529154, 55.186906519519219, 0.0 ], [ 15.005657663825414, 55.186810117300297, 0.0 ], [ 15.006021647646506, 55.186259843757902, 0.0 ], [ 15.007083992793223, 55.185928586810768, 0.0 ], [ 15.006787054694746, 55.185409539137986, 0.0 ], [ 15.007139741151496, 55.184982627306269, 0.0 ], [ 15.009662483562826, 55.184185062167806, 0.0 ], [ 15.009802612635445, 55.18390334557688, 0.0 ], [ 15.010329321328486, 55.183958957003128, 0.0 ], [ 15.010523502244881, 55.183134420422341, 0.0 ], [ 15.01145978529979, 55.183115862475638, 0.0 ], [ 15.012428834335358, 55.18186472442892, 0.0 ], [ 15.013227273169626, 55.181997351681865, 0.0 ], [ 15.013649441996286, 55.180408295864659, 0.0 ], [ 15.014340978953173, 55.18020354284392, 0.0 ], [ 15.015223085129126, 55.18044141859383, 0.0 ], [ 15.016103953453399, 55.180130944866768, 0.0 ], [ 15.016768242658223, 55.179555680926981, 0.0 ], [ 15.019148393034866, 55.178682132530142, 0.0 ], [ 15.020565745139889, 55.176690555177444, 0.0 ], [ 15.021767919879908, 55.176317837464111, 0.0 ], [ 15.02281799695081, 55.176625302833727, 0.0 ], [ 15.023481823034865, 55.175961696057847, 0.0 ], [ 15.025440165485657, 55.175665796536222, 0.0 ], [ 15.025500780428013, 55.175242493644824, 0.0 ], [ 15.026441138846769, 55.175101245987165, 0.0 ], [ 15.026317702008189, 55.17472209429998, 0.0 ], [ 15.023708429201758, 55.175257910194198, 0.0 ], [ 15.023140927254579, 55.174817503963205, 0.0 ], [ 15.016674284442766, 55.179109176595439, 0.0 ], [ 15.012884502102498, 55.180579603315444, 0.0 ], [ 15.009851785905783, 55.183051793841742, 0.0 ], [ 15.006994234952925, 55.184409206975346, 0.0 ], [ 15.005279117825539, 55.185697943843316, 0.0 ], [ 15.005641938480597, 55.185864908665863, 0.0 ], [ 15.005348486390641, 55.186125695162907, 0.0 ], [ 15.004734441436458, 55.186099597568138, 0.0 ], [ 15.00322124263471, 55.186987835607511, 0.0 ], [ 14.999244846556799, 55.188260436437076, 0.0 ], [ 14.997984015609346, 55.188945849037225, 0.0 ], [ 14.998528521678153, 55.189313424386448, 0.0 ], [ 14.997902155407306, 55.189861660028598, 0.0 ], [ 14.997214660015983, 55.189995958656773, 0.0 ], [ 14.996319433483814, 55.189733626327374, 0.0 ], [ 14.994794166330385, 55.19049992514703, 0.0 ], [ 14.995129287272118, 55.190690609063196, 0.0 ], [ 14.994533414527181, 55.191236694647991, 0.0 ], [ 14.993643763673031, 55.191486799740296, 0.0 ], [ 14.993112139660559, 55.191327764947872, 0.0 ], [ 14.990349130297313, 55.192620683757568, 0.0 ], [ 14.987982587811622, 55.194416359101886, 0.0 ], [ 14.987749051314442, 55.196018438158539, 0.0 ], [ 14.988213246347771, 55.196181900172242, 0.0 ], [ 14.98785086461208, 55.197117007397765, 0.0 ], [ 14.986240259940647, 55.197064920663159, 0.0 ], [ 14.985151936516017, 55.197944229631183, 0.0 ], [ 14.984480167140815, 55.197702941614793, 0.0 ], [ 14.983890009245354, 55.198539611926797, 0.0 ], [ 14.984684095081125, 55.198918277114217, 0.0 ], [ 14.983958225397085, 55.199111089653613, 0.0 ], [ 14.985384207027051, 55.200017723815499, 0.0 ], [ 14.985897885187963, 55.199961062425501, 0.0 ], [ 14.986684049425348, 55.199341446538504, 0.0 ], [ 14.987138658621557, 55.199464908414136, 0.0 ], [ 14.98676673009907, 55.19919953272867, 0.0 ], [ 14.987438552665594, 55.198925690070361, 0.0 ], [ 14.987367081963125, 55.198423471373211, 0.0 ] ] ], [ [ [ 15.006991195921104, 55.186065657330005, 0.0 ], [ 15.007357577834828, 55.186280423455941, 0.0 ], [ 15.007580960984422, 55.186289368123369, 0.0 ], [ 15.007326136583536, 55.186028439934091, 0.0 ], [ 15.006991195921104, 55.186065657330005, 0.0 ] ] ], [ [ [ 15.050187703212432, 55.163630110805109, 0.0 ], [ 15.050160917274543, 55.16401195466684, 0.0 ], [ 15.051251601873547, 55.164492522793289, 0.0 ], [ 15.051475270557534, 55.164298551373975, 0.0 ], [ 15.050187703212432, 55.163630110805109, 0.0 ] ] ], [ [ [ 15.056033177917966, 55.161474272806203, 0.0 ], [ 15.055568730685206, 55.161638396489067, 0.0 ], [ 15.055696298311471, 55.161876888777378, 0.0 ], [ 15.056234475274575, 55.161713228762977, 0.0 ], [ 15.056033177917966, 55.161474272806203, 0.0 ] ] ], [ [ [ 15.055690429301864, 55.161064938485829, 0.0 ], [ 15.055455261325177, 55.161219700745406, 0.0 ], [ 15.055578720757694, 55.161411589192333, 0.0 ], [ 15.055939138608524, 55.161319805277522, 0.0 ], [ 15.055690429301864, 55.161064938485829, 0.0 ] ] ] ] } },
{ "type": "Feature", "properties": { "layer_id": "natura_habitat_areas", "label": "Natura habitat areas", "tooltip_title": "Source layer: Natura habitat areas", "tooltip_body": "Habitat-area polygons.<br>Clipped to Bornholm DAGI Landsdel landmass." }, "geometry": null },
{ "type": "Feature", "properties": { "layer_id": "natura_habitat_areas", "label": "Natura habitat areas", "tooltip_title": "Source layer: Natura habitat areas", "tooltip_body": "Habitat-area polygons.<br>Clipped to Bornholm DAGI Landsdel landmass." }, "geometry": null },
{ "type": "Feature", "properties": { "layer_id": "natura_habitat_areas", "label": "Natura habitat areas", "tooltip_title": "Source layer: Natura habitat areas", "tooltip_body": "Habitat-area polygons.<br>Clipped to Bornholm DAGI Landsdel landmass." }, "geometry": { "type": "MultiPolygon", "coordinates": [ [ [ [ 15.196705880084574, 55.318569852355289, 0.0 ], [ 15.197310240394213, 55.318353403779739, 0.0 ], [ 15.197369171490509, 55.318228570281896, 0.0 ], [ 15.196756543919607, 55.318317574454525, 0.0 ], [ 15.196705880084574, 55.318569852355289, 0.0 ] ] ], [ [ [ 15.191807990037251, 55.318577990330724, 0.0 ], [ 15.191590555142168, 55.318495224341447, 0.0 ], [ 15.191619810327119, 55.318608544608722, 0.0 ], [ 15.191807990037251, 55.318577990330724, 0.0 ] ] ], [ [ [ 15.197058383574349, 55.318694266956797, 0.0 ], [ 15.196731734133163, 55.318642193812231, 0.0 ], [ 15.196862906985622, 55.318789133866069, 0.0 ], [ 15.197058383574349, 55.318694266956797, 0.0 ] ] ], [ [ [ 15.197364462138239, 55.31863311798449, 0.0 ], [ 15.197142623805147, 55.318755261075054, 0.0 ], [ 15.197344054782077, 55.318791197902598, 0.0 ], [ 15.197364462138239, 55.31863311798449, 0.0 ] ] ], [ [ [ 15.192966959879305, 55.319582735506032, 0.0 ], [ 15.19324323096083, 55.319586326348691, 0.0 ], [ 15.193097111907635, 55.319514341151468, 0.0 ], [ 15.192966959879305, 55.319582735506032, 0.0 ] ] ], [ [ [ 15.18780283248733, 55.323616152633129, 0.0 ], [ 15.189650764191599, 55.32338631255638, 0.0 ], [ 15.189176246092066, 55.323225038571053, 0.0 ], [ 15.189165375001146, 55.323079807198241, 0.0 ], [ 15.191442715714805, 55.323167215476531, 0.0 ], [ 15.191758155985529, 55.322780089396048, 0.0 ], [ 15.191174866332837, 55.322305143765, 0.0 ], [ 15.191856296670249, 55.32174100874623, 0.0 ], [ 15.190976710195283, 55.32100523528689, 0.0 ], [ 15.192066859309644, 55.321119694635271, 0.0 ], [ 15.19257348665802, 55.320443786248703, 0.0 ], [ 15.19233544952561, 55.320098234745672, 0.0 ], [ 15.192749636972888, 55.320404928226324, 0.0 ], [ 15.193276200588835, 55.320113849303532, 0.0 ], [ 15.192968767669081, 55.319729508604134, 0.0 ], [ 15.191858385782536, 55.319462289153762, 0.0 ], [ 15.192346745302554, 55.318931114116367, 0.0 ], [ 15.191905581443923, 55.318720340495759, 0.0 ], [ 15.191956147349712, 55.319082904310982, 0.0 ], [ 15.191580006852782, 55.318991013697449, 0.0 ], [ 15.190770151836551, 55.317564912975975, 0.0 ], [ 15.190054793235984, 55.317445339924966, 0.0 ], [ 15.189806322679479, 55.317796099418139, 0.0 ], [ 15.189230858068575, 55.317257446910098, 0.0 ], [ 15.187811357610785, 55.317395900806488, 0.0 ], [ 15.187336162787483, 55.318566071747711, 0.0 ], [ 15.186189512136401, 55.318966443461221, 0.0 ], [ 15.186529513478515, 55.319072703806896, 0.0 ], [ 15.18600184284967, 55.320801567055824, 0.0 ], [ 15.186568842407528, 55.322704226745742, 0.0 ], [ 15.18780283248733, 55.323616152633129, 0.0 ] ] ], [ [ [ 15.181750664025529, 55.320775249525894, 0.0 ], [ 15.182299182239603, 55.320540284286871, 0.0 ], [ 15.182171163269713, 55.320472859726841, 0.0 ], [ 15.181750664025529, 55.320775249525894, 0.0 ] ] ], [ [ [ 15.18390795942299, 55.322659266926863, 0.0 ], [ 15.185380358955495, 55.322483148088573, 0.0 ], [ 15.184493072099377, 55.321700447797539, 0.0 ], [ 15.185617676763552, 55.320508813886242, 0.0 ], [ 15.185011303956676, 55.319501494756018, 0.0 ], [ 15.185617309408565, 55.318794994846982, 0.0 ], [ 15.184391438213364, 55.319434303919529, 0.0 ], [ 15.184308123662911, 55.319124458650627, 0.0 ], [ 15.183629641633061, 55.319309668508531, 0.0 ], [ 15.183495424795939, 55.31964119154329, 0.0 ], [ 15.183982579109447, 55.319702883938405, 0.0 ], [ 15.183132643231081, 55.320615094583943, 0.0 ], [ 15.183583460083677, 55.321036385553263, 0.0 ], [ 15.183224986225087, 55.322122806671892, 0.0 ], [ 15.184022596582281, 55.322365116786145, 0.0 ], [ 15.18390795942299, 55.322659266926863, 0.0 ] ] ], [ [ [ 15.181744796737126, 55.32158181366384, 0.0 ], [ 15.182194901133851, 55.32089774873338, 0.0 ], [ 15.182006886606432, 55.320874882306072, 0.0 ], [ 15.181463442241856, 55.321457793697967, 0.0 ], [ 15.181744796737126, 55.32158181366384, 0.0 ] ] ], [ [ [ 15.182491909253931, 55.321306956006026, 0.0 ], [ 15.182375562059232, 55.321200039088794, 0.0 ], [ 15.182317887710202, 55.321280677847952, 0.0 ], [ 15.182491909253931, 55.321306956006026, 0.0 ] ] ], [ [ [ 15.191901496232108, 55.32232760996397, 0.0 ], [ 15.191440335859562, 55.322414192200839, 0.0 ], [ 15.191992695321266, 55.322536019097612, 0.0 ], [ 15.191901496232108, 55.32232760996397, 0.0 ] ] ], [ [ [ 15.18371385122397, 55.322415560796827, 0.0 ], [ 15.183687787115323, 55.322547901173628, 0.0 ], [ 15.183820739028771, 55.322466948932323, 0.0 ], [ 15.18371385122397, 55.322415560796827, 0.0 ] ] ], [ [ [ 15.190779093668395, 55.323560705042539, 0.0 ], [ 15.190619627124798, 55.323562962982919, 0.0 ], [ 15.190664871368648, 55.323654309495033, 0.0 ], [ 15.190779093668395, 55.323560705042539, 0.0 ] ] ], [ [ [ 15.19014998584103, 55.323488428913251, 0.0 ], [ 15.190263353234528, 55.323778013672097, 0.0 ], [ 15.190443277078439, 55.323443166778596, 0.0 ], [ 15.19014998584103, 55.323488428913251, 0.0 ] ] ], [ [ [ 15.178624604553219, 55.325575271861013, 0.0 ], [ 15.17940251873044, 55.325160292648818, 0.0 ], [ 15.179263842545282, 55.325244141484667, 0.0 ], [ 15.179344557458549, 55.325514231500847, 0.0 ], [ 15.18010239328585, 55.324623927438459, 0.0 ], [ 15.180289033267055, 55.325373982683189, 0.0 ], [ 15.180871475328553, 55.324970539377915, 0.0 ], [ 15.180898487888872, 55.323739148675614, 0.0 ], [ 15.180325843103411, 55.323861423985356, 0.0 ], [ 15.179861612997936, 55.322854697457082, 0.0 ], [ 15.178328709358521, 55.323063264283498, 0.0 ], [ 15.177464737474262, 55.32276089363554, 0.0 ], [ 15.177300477852212, 55.323063227550698, 0.0 ], [ 15.177134356112717, 55.32280431463974, 0.0 ], [ 15.175378898070596, 55.323124988841478, 0.0 ], [ 15.17567234662627, 55.323765717593766, 0.0 ], [ 15.174229813490753, 55.324489024854252, 0.0 ], [ 15.174562122255397, 55.324990196227006, 0.0 ], [ 15.175228730331414, 55.325177348858347, 0.0 ], [ 15.175427230105072, 55.324974851943118, 0.0 ], [ 15.175525155612242, 55.3252734252669, 0.0 ], [ 15.176564515394922, 55.32497207336457, 0.0 ], [ 15.17676996484737, 55.32534731069601, 0.0 ], [ 15.178617696077664, 55.325039493559025, 0.0 ], [ 15.178624604553219, 55.325575271861013, 0.0 ] ] ], [ [ [ 15.175994316656542, 55.330055864140405, 0.0 ], [ 15.175640967450665, 55.329723876505767, 0.0 ], [ 15.175811370978119, 55.330076851918484, 0.0 ], [ 15.175994316656542, 55.330055864140405, 0.0 ] ] ], [ [ [ 15.173833817333676, 55.329921799908455, 0.0 ], [ 15.174058970492641, 55.32992532762573, 0.0 ], [ 15.173837661632364, 55.329842185330016, 0.0 ], [ 15.173833817333676, 55.329921799908455, 0.0 ] ] ], [ [ [ 15.174710825915163, 55.330772362593706, 0.0 ], [ 15.174708048816408, 55.3300127942072, 0.0 ], [ 15.174009659006671, 55.330047588461184, 0.0 ], [ 15.174710825915163, 55.330772362593706, 0.0 ] ] ] ] } },
{ "type": "Feature", "properties": { "layer_id": "natura_habitat_areas", "label": "Natura habitat areas", "tooltip_title": "Source layer: Natura habitat areas", "tooltip_body": "Habitat-area polygons.<br>Clipped to Bornholm DAGI Landsdel landmass." }, "geometry": null },
{ "type": "Feature", "properties": { "layer_id": "natura_habitat_areas", "label": "Natura habitat areas", "tooltip_title": "Source layer: Natura habitat areas", "tooltip_body": "Habitat-area polygons.<br>Clipped to Bornholm DAGI Landsdel landmass." }, "geometry": { "type": "MultiPolygon", "coordinates": [ [ [ [ 14.776043632097959, 55.284535696150186, 0.0 ], [ 14.776865734092343, 55.284477688328643, 0.0 ], [ 14.777760479046604, 55.283492883552846, 0.0 ], [ 14.77920942049793, 55.280602753384159, 0.0 ], [ 14.779130697921277, 55.27974849095412, 0.0 ], [ 14.781445146305151, 55.279022041701218, 0.0 ], [ 14.782235068811213, 55.277562459972991, 0.0 ], [ 14.781633131437246, 55.277155708466829, 0.0 ], [ 14.78069855210366, 55.274772709547356, 0.0 ], [ 14.778142371317486, 55.273230483799018, 0.0 ], [ 14.776025868787986, 55.274134865427641, 0.0 ], [ 14.774650198806013, 55.273759675776333, 0.0 ], [ 14.77382994434566, 55.272110317650402, 0.0 ], [ 14.774733710673797, 55.271432552431868, 0.0 ], [ 14.774791152251105, 55.270812585398282, 0.0 ], [ 14.770906706498156, 55.268241957526179, 0.0 ], [ 14.769965096239703, 55.268616560025997, 0.0 ], [ 14.766963260164232, 55.267885830619242, 0.0 ], [ 14.766671168909806, 55.267488001506976, 0.0 ], [ 14.767444310010521, 55.266293385152281, 0.0 ], [ 14.765144168925614, 55.265184289469126, 0.0 ], [ 14.764151103406009, 55.265756677224218, 0.0 ], [ 14.763986139586526, 55.264535236786678, 0.0 ], [ 14.762603199550352, 55.263354925664608, 0.0 ], [ 14.760763936003025, 55.262751876511764, 0.0 ], [ 14.759775007117552, 55.261495459844184, 0.0 ], [ 14.758351462583359, 55.260950913108886, 0.0 ], [ 14.752988116273405, 55.2576656456988, 0.0 ], [ 14.75132818890504, 55.257099885216348, 0.0 ], [ 14.749676472684602, 55.255811725509631, 0.0 ], [ 14.75077640681296, 55.255564617695036, 0.0 ], [ 14.751264959009839, 55.255789028212639, 0.0 ], [ 14.752073909854229, 55.255269367876991, 0.0 ], [ 14.751172913986984, 55.253723157142367, 0.0 ], [ 14.746922832068666, 55.251685283796547, 0.0 ], [ 14.746640315125989, 55.25140063382316, 0.0 ], [ 14.747517346873924, 55.25110099002525, 0.0 ], [ 14.747323598615292, 55.250083134292353, 0.0 ], [ 14.7458664578702, 55.250201913348562, 0.0 ], [ 14.744826284387072, 55.248992455209859, 0.0 ], [ 14.744152334093689, 55.248818533780735, 0.0 ], [ 14.743243844013845, 55.249242758863133, 0.0 ], [ 14.744229611046974, 55.250644972258812, 0.0 ], [ 14.743307366849029, 55.250918737326877, 0.0 ], [ 14.742096079289963, 55.249881494749012, 0.0 ], [ 14.739587500330176, 55.250850918076829, 0.0 ], [ 14.740675409757294, 55.251746941445539, 0.0 ], [ 14.740877121910458, 55.252949670244149, 0.0 ], [ 14.742237066557438, 55.254435313692127, 0.0 ], [ 14.744511918278421, 55.258868316849778, 0.0 ], [ 14.745971641273933, 55.260280698091734, 0.0 ], [ 14.746145312342922, 55.261366843830409, 0.0 ], [ 14.747663027350141, 55.263059577486956, 0.0 ], [ 14.748632132764548, 55.263485564693895, 0.0 ], [ 14.748658504978366, 55.26394747730432, 0.0 ], [ 14.75250670887781, 55.268227400147204, 0.0 ], [ 14.752622125996735, 55.268637387418181, 0.0 ], [ 14.751641882470619, 55.269270677929917, 0.0 ], [ 14.75240618495285, 55.270286143170559, 0.0 ], [ 14.752106466327621, 55.271043807919163, 0.0 ], [ 14.753192531717024, 55.271649865293405, 0.0 ], [ 14.753154354422652, 55.272083497280903, 0.0 ], [ 14.752583614722173, 55.272012984799105, 0.0 ], [ 14.752201975460007, 55.272398229358572, 0.0 ], [ 14.75283657786909, 55.272993050774403, 0.0 ], [ 14.752373333984947, 55.273175270544662, 0.0 ], [ 14.753223472710143, 55.273510201446094, 0.0 ], [ 14.753509167452224, 55.274035106244554, 0.0 ], [ 14.754145298101811, 55.274060392941706, 0.0 ], [ 14.753921459474759, 55.274467001622341, 0.0 ], [ 14.754754601791484, 55.275785829465114, 0.0 ], [ 14.760189189106752, 55.278840992522134, 0.0 ], [ 14.759660996014638, 55.279669348542221, 0.0 ], [ 14.760587482206455, 55.28077987099217, 0.0 ], [ 14.761830533837141, 55.281296867199664, 0.0 ], [ 14.763166453659355, 55.280666598402938, 0.0 ], [ 14.765822508824506, 55.282309710536936, 0.0 ], [ 14.767577200335099, 55.281981045150552, 0.0 ], [ 14.767954453964649, 55.282185654358855, 0.0 ], [ 14.767023437332373, 55.282757097797251, 0.0 ], [ 14.767697079412732, 55.283169070642856, 0.0 ], [ 14.768662397367853, 55.282813712359534, 0.0 ], [ 14.769051890751708, 55.283078218177117, 0.0 ], [ 14.769805786639919, 55.282607949215723, 0.0 ], [ 14.771703686478986, 55.28382876595078, 0.0 ], [ 14.773075656489857, 55.283946765388222, 0.0 ], [ 14.775789092423032, 55.284830205371463, 0.0 ], [ 14.776043632097959, 55.284535696150186, 0.0 ] ] ], [ [ [ 14.773301203371098, 55.299167389665968, 0.0 ], [ 14.77462552651525, 55.29853304203494, 0.0 ], [ 14.774779788446505, 55.298800594131329, 0.0 ], [ 14.775220747113403, 55.298370255072228, 0.0 ], [ 14.775353705659187, 55.298549889429445, 0.0 ], [ 14.775868480898042, 55.298216824850108, 0.0 ], [ 14.775475654740806, 55.298025532252254, 0.0 ], [ 14.775895578538458, 55.297548275245873, 0.0 ], [ 14.776359253824817, 55.297882057521122, 0.0 ], [ 14.777461975663089, 55.296925106556216, 0.0 ], [ 14.777749028876874, 55.297135456380587, 0.0 ], [ 14.778222237037227, 55.296855443741435, 0.0 ], [ 14.777625298060926, 55.296759578681296, 0.0 ], [ 14.777867531829582, 55.296456108962801, 0.0 ], [ 14.777332361816233, 55.296556588054891, 0.0 ], [ 14.778403848590457, 55.29610493015884, 0.0 ], [ 14.77857617110705, 55.295430906510305, 0.0 ], [ 14.779173513451257, 55.295434123955182, 0.0 ], [ 14.778762314686224, 55.295025695494225, 0.0 ], [ 14.77926829895164, 55.295024264205011, 0.0 ], [ 14.778696280540402, 55.294534440145945, 0.0 ], [ 14.779053426658267, 55.294135958706804, 0.0 ], [ 14.778582451740654, 55.293420832619546, 0.0 ], [ 14.777818671319858, 55.292862076076155, 0.0 ], [ 14.775032085726291, 55.292163760919053, 0.0 ], [ 14.773061532231408, 55.288747115640994, 0.0 ], [ 14.773434090697531, 55.288385633420482, 0.0 ], [ 14.772938801021718, 55.287580109460031, 0.0 ], [ 14.773528428729167, 55.287185559293818, 0.0 ], [ 14.770082109600025, 55.28491161360914, 0.0 ], [ 14.769013454446316, 55.285500939043985, 0.0 ], [ 14.768044211227098, 55.285227183165397, 0.0 ], [ 14.75808270923406, 55.280248043180009, 0.0 ], [ 14.756575642589604, 55.280073358493674, 0.0 ], [ 14.754025766436014, 55.280825210677762, 0.0 ], [ 14.752754801399123, 55.280850371212232, 0.0 ], [ 14.75201259914444, 55.281863519287526, 0.0 ], [ 14.752058566819795, 55.283748170047033, 0.0 ], [ 14.751416137126203, 55.284841766574523, 0.0 ], [ 14.751256394841539, 55.286530727163615, 0.0 ], [ 14.751897313568746, 55.286997417234758, 0.0 ], [ 14.751643501214867, 55.287300221969218, 0.0 ], [ 14.752557273613471, 55.287575755773595, 0.0 ], [ 14.752064586255447, 55.28790754661199, 0.0 ], [ 14.752259752776812, 55.288199436655439, 0.0 ], [ 14.75440223300353, 55.289245474920605, 0.0 ], [ 14.754323431458488, 55.289635831159814, 0.0 ], [ 14.754834975281787, 55.289501198881183, 0.0 ], [ 14.756046826288339, 55.290367155908996, 0.0 ], [ 14.756717708039728, 55.290542347710726, 0.0 ], [ 14.75749126837955, 55.290308467928561, 0.0 ], [ 14.758681610727681, 55.290794880031463, 0.0 ], [ 14.759862977479367, 55.290845909727345, 0.0 ], [ 14.76082565048214, 55.292036983787867, 0.0 ], [ 14.761943523158285, 55.292390975243741, 0.0 ], [ 14.761540137600152, 55.292346258504111, 0.0 ], [ 14.76144088681462, 55.292631726280931, 0.0 ], [ 14.762901748704301, 55.292822914082556, 0.0 ], [ 14.762594236331024, 55.293508397013206, 0.0 ], [ 14.763347537922883, 55.293684805616529, 0.0 ], [ 14.762646214836968, 55.293981706186102, 0.0 ], [ 14.76426206601994, 55.294586531509616, 0.0 ], [ 14.764174302823351, 55.295150119060018, 0.0 ], [ 14.76440182775757, 55.294860539034026, 0.0 ], [ 14.764793392255608, 55.295120735301083, 0.0 ], [ 14.764251914855963, 55.295417467381533, 0.0 ], [ 14.764441913135297, 55.295701428983563, 0.0 ], [ 14.765406436950785, 55.295532947660767, 0.0 ], [ 14.766045975903831, 55.296305878450553, 0.0 ], [ 14.766523706060461, 55.296576839720082, 0.0 ], [ 14.766894507792886, 55.296450171747388, 0.0 ], [ 14.767585735755294, 55.297056369203119, 0.0 ], [ 14.769144940591826, 55.296873674796863, 0.0 ], [ 14.769594453157566, 55.297194541300357, 0.0 ], [ 14.769437380628684, 55.2980403528287, 0.0 ], [ 14.770726220426942, 55.297978183223996, 0.0 ], [ 14.770310299712492, 55.298253147563457, 0.0 ], [ 14.771090747980294, 55.298183345124556, 0.0 ], [ 14.77120583881511, 55.29849800459661, 0.0 ], [ 14.771816795495686, 55.298277203595802, 0.0 ], [ 14.771523068806449, 55.298686739918914, 0.0 ], [ 14.772485976500516, 55.298511396969985, 0.0 ], [ 14.772369683603838, 55.298961971575963, 0.0 ], [ 14.773301203371098, 55.299167389665968, 0.0 ] ] ], [ [ [ 14.777304621905397, 55.297210471251461, 0.0 ], [ 14.777147302086492, 55.297507986625931, 0.0 ], [ 14.777450387859238, 55.297163442329719, 0.0 ], [ 14.777304621905397, 55.297210471251461, 0.0 ] ] ], [ [ [ 14.761634043162585, 55.292820989602809, 0.0 ], [ 14.761844044899954, 55.293088343184813, 0.0 ], [ 14.762053483273066, 55.293017581221505, 0.0 ], [ 14.761634043162585, 55.292820989602809, 0.0 ] ] ], [ [ [ 14.765671047287519, 55.296003827537454, 0.0 ], [ 14.76555006058282, 55.296092917228926, 0.0 ], [ 14.765797182961872, 55.296045564356007, 0.0 ], [ 14.765671047287519, 55.296003827537454, 0.0 ] ] ], [ [ [ 14.765814396593221, 55.296131349207442, 0.0 ], [ 14.765689351454224, 55.296203596406819, 0.0 ], [ 14.765861256983722, 55.296153529714779, 0.0 ], [ 14.765814396593221, 55.296131349207442, 0.0 ] ] ], [ [ [ 14.769212721477263, 55.297565785939518, 0.0 ], [ 14.769136691624833, 55.297775087440066, 0.0 ], [ 14.769247018891658, 55.297771029140108, 0.0 ], [ 14.769212721477263, 55.297565785939518, 0.0 ] ] ] ] } }
]
}
