{
"type": "FeatureCollection",
"name": "roads_large",
"crs": { "type": "name", "properties": { "name": "urn:ogc:def:crs:OGC:1.3:CRS84" } },
"features": [
{ "type": "Feature", "properties": { "layer_id": "roads_large", "label": "Large roads", "tooltip_title": "Source layer: Large roads", "tooltip_body": "Derived from vejkategor using the existing road-class mapping.<br>Clipped to Bornholm DAGI Landsdel landmass." }, "geometry": { "type": "MultiLineString", "coordinates": [ [ [ 14.695665505474262, 55.101558894865875, 8.42 ], [ 14.692342461554052, 55.100891687863218, 2.43 ] ], [ [ 14.692342461554052, 55.100891687863218, 2.43 ], [ 14.691233702549122, 55.100981284740307, 2.09 ], [ 14.691760526871645, 55.101898349200681, 2.15 ], [ 14.698962878275081, 55.106107952456142, 4.29 ], [ 14.699989202592366, 55.107270877364549, 5.32 ], [ 14.701161045658592, 55.109928093613853, 7.34 ], [ 14.70231838906394, 55.110714340307588, 8.08 ], [ 14.703759761692783, 55.111097822157937, 7.82 ] ], [ [ 14.703759761692783, 55.111097822157937, 7.82 ], [ 14.703892784821583, 55.110975992123002, 7.82 ] ], [ [ 14.703892784821583, 55.110975992123002, 7.82 ], [ 14.704097043359408, 55.111052635490886, 7.82 ] ], [ [ 14.704097043359408, 55.111052635490886, 7.82 ], [ 14.703964304757173, 55.111169861501445, 7.82 ] ], [ [ 14.703964304757173, 55.111169861501445, 7.82 ], [ 14.703759761692783, 55.111097822157937, 7.82 ] ], [ [ 14.69788723200487, 55.09931135713181, 11.19 ], [ 14.701045150770572, 55.099912979482163, 14.34 ] ], [ [ 14.701045150770572, 55.099912979482163, 14.34 ], [ 14.700326585283747, 55.101253045230962, 12.11 ], [ 14.69915858826424, 55.101326862082153, 11.33 ] ], [ [ 14.701529871628194, 55.105506857238595, 10.83 ], [ 14.700712976269779, 55.105587245841292, 10.29 ], [ 14.701391152248521, 55.106678105157179, 10.38 ] ], [ [ 14.702698159204205, 55.108779586200328, 9.1 ], [ 14.702674229811191, 55.106416311044448, 10.88 ] ], [ [ 14.702687376734803, 55.105529111621074, 10.92 ], [ 14.707110070867941, 55.107211984224499, 9.58 ] ], [ [ 14.707110070867941, 55.107211984224499, 9.58 ], [ 14.71182539618975, 55.10992857037639, 11.61 ], [ 14.718089495857891, 55.110887384764254, 17.83 ] ], [ [ 14.718089495857891, 55.110887384764254, 17.83 ], [ 14.718210688264604, 55.111027418136921, 17.97 ] ], [ [ 14.718210688264604, 55.111027418136921, 17.97 ], [ 14.718496851524366, 55.110954351675666, 18.52 ] ], [ [ 14.718496851524366, 55.110954351675666, 18.52 ], [ 14.718359752001358, 55.110800844683041, 17.83 ] ], [ [ 14.718359752001358, 55.110800844683041, 17.83 ], [ 14.718089495857891, 55.110887384764254, 17.83 ] ], [ [ 14.703364791483713, 55.10987016898634, 5.89 ], [ 14.702698159204205, 55.108779586200328, 9.1 ] ], [ [ 14.702698159204205, 55.108779586200328, 9.1 ], [ 14.701391152248521, 55.106678105157179, 10.38 ] ], [ [ 14.701391152248521, 55.106678105157179, 10.38 ], [ 14.702674229811191, 55.106416311044448, 10.88 ] ], [ [ 14.702674229811191, 55.106416311044448, 10.88 ], [ 14.702687376734803, 55.105529111621074, 10.92 ] ], [ [ 14.702687376734803, 55.105529111621074, 10.92 ], [ 14.702652008461669, 55.105463979535635, 10.93 ], [ 14.701529871628194, 55.105506857238595, 10.83 ] ], [ [ 14.701529871628194, 55.105506857238595, 10.83 ], [ 14.69915858826424, 55.101326862082153, 11.33 ] ], [ [ 14.69915858826424, 55.101326862082153, 11.33 ], [ 14.695670390341803, 55.101578829574152, 8.41 ] ], [ [ 14.70304209374464, 55.094861134189038, 13.25 ], [ 14.702864407470472, 55.094723741510762, 13.51 ] ], [ [ 14.702864407470472, 55.094723741510762, 13.51 ], [ 14.699174975916632, 55.094807671729235, 6.86 ], [ 14.699057439455059, 55.095845056488194, 3.76 ], [ 14.696878776160624, 55.098535736477842, 1.94 ], [ 14.692342461554052, 55.100891687863218, 2.43 ] ], [ [ 14.702864407470472, 55.094723741510762, 13.51 ], [ 14.703131833199894, 55.094644297851794, 13.06 ] ], [ [ 14.703131833199894, 55.094644297851794, 13.06 ], [ 14.703246976381722, 55.094776796343744, 12.9 ] ], [ [ 14.703246976381722, 55.094776796343744, 12.9 ], [ 14.703173651548862, 55.094839291926803, 13.04 ], [ 14.703109206128895, 55.094857351842712, 13.15 ], [ 14.703078770718518, 55.094860761763137, 13.2 ], [ 14.703058306809041, 55.094861452885588, 13.23 ], [ 14.70304209374464, 55.094861134189038, 13.25 ] ], [ [ 14.70304209374464, 55.094861134189038, 13.25 ], [ 14.701054463296089, 55.099899039656847, 14.37 ] ], [ [ 14.703131833199894, 55.094644297851794, 13.06 ], [ 14.706258102030048, 55.089126332364486, 16.48 ] ], [ [ 14.706258102030048, 55.089126332364486, 16.48 ], [ 14.710036452832973, 55.090334428672897, 18.44 ] ], [ [ 14.710036452832973, 55.090334428672897, 18.44 ], [ 14.711907604194936, 55.090914977762012, 19.96 ], [ 14.713389150892761, 55.091012072793205, 20.67 ] ], [ [ 14.713389150892761, 55.091012072793205, 20.67 ], [ 14.714055561373961, 55.09219568578029, 20.61 ] ], [ [ 14.714055561373961, 55.09219568578029, 20.61 ], [ 14.716574385059081, 55.094175803632083, 21.62 ] ], [ [ 14.716574385059081, 55.094175803632083, 21.62 ], [ 14.712934537015984, 55.095073384115835, 19.25 ], [ 14.711683694941728, 55.094900254606571, 18.29 ], [ 14.710507754074317, 55.094327691050239, 17.81 ] ], [ [ 14.710507754074317, 55.094327691050239, 17.81 ], [ 14.709234695728755, 55.09573359448364, 17.84 ] ], [ [ 14.709234695728755, 55.09573359448364, 17.84 ], [ 14.706273307617899, 55.095274544643686, 15.91 ] ], [ [ 14.706273307617899, 55.095274544643686, 15.91 ], [ 14.703246976381722, 55.094776796343744, 12.9 ] ], [ [ 14.703364791483713, 55.10987016898634, 5.89 ], [ 14.703892784821583, 55.110975992123002, 7.82 ] ], [ [ 14.703364791483713, 55.10987016898634, 5.89 ], [ 14.707110070867941, 55.107211984224499, 9.58 ] ], [ [ 14.707110070867941, 55.107211984224499, 9.58 ], [ 14.709150762247392, 55.105593592633646, 12.14 ], [ 14.712346601749216, 55.101509247003627, 17.65 ], [ 14.713140982626491, 55.09943134598587, 19.57 ], [ 14.712861369427822, 55.098007093578907, 20.42 ] ], [ [ 14.712861369427822, 55.098007093578907, 20.42 ], [ 14.712581955572547, 55.097944624138229, 20.42 ] ], [ [ 14.712581955572547, 55.097944624138229, 20.42 ], [ 14.708927245778137, 55.099508634508169, 20.3 ], [ 14.703635293343126, 55.100092274450915, 17.12 ], [ 14.701054463296089, 55.099899039656847, 14.37 ] ], [ [ 14.701054463296089, 55.099899039656847, 14.37 ], [ 14.701045150770572, 55.099912979482163, 14.34 ] ], [ [ 14.703964304757173, 55.111169861501445, 7.82 ], [ 14.705846447854555, 55.116691888065283, 14.17 ] ], [ [ 14.705846447854555, 55.116691888065283, 14.17 ], [ 14.706209359380379, 55.118064350893704, 13.58 ], [ 14.709811505651746, 55.122585894394916, 17.61 ] ], [ [ 14.709811505651746, 55.122585894394916, 17.61 ], [ 14.711248161623155, 55.124280092109032, 19.7 ] ], [ [ 14.711248161623155, 55.124280092109032, 19.7 ], [ 14.718922188157443, 55.131053155867377, 23.23 ], [ 14.723711197591371, 55.134240296528446, 24.73 ], [ 14.725136659155837, 55.136054876417475, 20.18 ] ], [ [ 14.725136659155837, 55.136054876417475, 20.18 ], [ 14.725265048957475, 55.136235524512223, 20.26 ] ], [ [ 14.725265048957475, 55.136235524512223, 20.26 ], [ 14.726171089989224, 55.137659046686593, 23.22 ] ], [ [ 14.726171089989224, 55.137659046686593, 23.22 ], [ 14.727631976106675, 55.139190174271441, 23.93 ] ], [ [ 14.727631976106675, 55.139190174271441, 23.93 ], [ 14.731482572392892, 55.142449101211497, 22.18 ], [ 14.733675456402471, 55.146885297058091, 20.98 ], [ 14.736695124448692, 55.151187552256481, 19.66 ] ], [ [ 14.736695124448692, 55.151187552256481, 19.66 ], [ 14.739999464723558, 55.155574242284558, 19.07 ] ], [ [ 14.739999464723558, 55.155574242284558, 19.07 ], [ 14.742207916635708, 55.158231071143376, 21.5 ], [ 14.742968512460084, 55.160059704573349, 22.91 ], [ 14.741975108871264, 55.166888367419993, 21.26 ], [ 14.735576842246752, 55.174742666864603, 26.6 ], [ 14.732641868332783, 55.176827705001841, 28.23 ] ], [ [ 14.732641868332783, 55.176827705001841, 28.23 ], [ 14.728575241293905, 55.178416168353323, 33.81 ] ], [ [ 14.728575241293905, 55.178416168353323, 33.81 ], [ 14.720922353706678, 55.180596595014912, 30.6 ], [ 14.715509510897489, 55.181194286755456, 24.53 ] ], [ [ 14.715509510897489, 55.181194286755456, 24.53 ], [ 14.715254719246282, 55.181363348348945, 24.05 ] ], [ [ 14.715254719246282, 55.181363348348945, 24.05 ], [ 14.714996323694825, 55.181242180299385, 23.68 ] ], [ [ 14.714996323694825, 55.181242180299385, 23.68 ], [ 14.710702924706537, 55.181611932579742, 19.11 ] ], [ [ 14.710702924706537, 55.181611932579742, 19.11 ], [ 14.710597696166204, 55.181624077551859, 19.06 ] ], [ [ 14.710597696166204, 55.181624077551859, 19.06 ], [ 14.708083231492417, 55.182092346477084, 18.35 ] ], [ [ 14.708083231492417, 55.182092346477084, 18.35 ], [ 14.706856966487933, 55.182889867956128, 17.19 ] ], [ [ 14.706856966487933, 55.182889867956128, 17.19 ], [ 14.706004023548562, 55.18296132410871, 14.58 ] ], [ [ 14.706004023548562, 55.18296132410871, 14.58 ], [ 14.706023286138414, 55.182630415273742, 14.06 ] ], [ [ 14.706023286138414, 55.182630415273742, 14.06 ], [ 14.70326736044848, 55.182679091611888, 5.81 ], [ 14.703136525336861, 55.183457849967432, 3.38 ], [ 14.703365928076986, 55.185054349406606, 2.65 ], [ 14.704836850557207, 55.186942851713972, 2.17 ], [ 14.704240737800045, 55.1887287768837, 3.63 ], [ 14.704466155422482, 55.189697590629414, 12.28 ], [ 14.704973625065136, 55.189624357953811, 14.77 ], [ 14.704875866186445, 55.189056613747042, 18.94 ], [ 14.705417438939163, 55.189009504062462, 20.74 ] ], [ [ 14.705417438939163, 55.189009504062462, 20.74 ], [ 14.705685379241483, 55.188905201049479, 20.99 ] ], [ [ 14.705685379241483, 55.188905201049479, 20.99 ], [ 14.705823520204904, 55.189039055005644, 21.13 ] ], [ [ 14.704097043359408, 55.111052635490886, 7.82 ], [ 14.704420012733804, 55.111045747465504, 8.04 ], [ 14.70461756479015, 55.11113368713962, 8.24 ], [ 14.708011297086811, 55.114656674657731, 10.54 ], [ 14.708703944250946, 55.116487127830815, 11.91 ] ], [ [ 14.708703944250946, 55.116487127830815, 11.91 ], [ 14.711609970498754, 55.116177216727813, 13.26 ] ], [ [ 14.711609970498754, 55.116177216727813, 13.26 ], [ 14.713511581174796, 55.115623551328277, 14.6 ], [ 14.715253694404709, 55.114671558652688, 16.46 ], [ 14.718210688264604, 55.111027418136921, 17.97 ] ], [ [ 14.705846447854555, 55.116691888065283, 14.17 ], [ 14.708703944250946, 55.116487127830815, 11.91 ] ], [ [ 14.705556069625754, 55.189128122351214, 20.99 ], [ 14.705417438939163, 55.189009504062462, 20.74 ] ], [ [ 14.714192341558952, 55.082763812995253, 13.89 ], [ 14.709319439152978, 55.085631318961354, 16.55 ], [ 14.706258102030048, 55.089126332364486, 16.48 ] ], [ [ 14.705556069625754, 55.189128122351214, 20.99 ], [ 14.705635885120843, 55.189133918267537, 21.07 ], [ 14.705710620588068, 55.189122939226202, 21.1 ], [ 14.705823520204904, 55.189039055005644, 21.13 ] ], [ [ 14.705556069625754, 55.189128122351214, 20.99 ], [ 14.705126059030761, 55.193433229983135, 29.29 ], [ 14.705973904200835, 55.195109807093999, 28.88 ], [ 14.707920221176554, 55.197071211137327, 28.09 ] ], [ [ 14.707920221176554, 55.197071211137327, 28.09 ], [ 14.713576623633553, 55.202964742146229, 45.59 ], [ 14.714481369730604, 55.207705966355903, 46.85 ], [ 14.715659106258148, 55.209745965929947, 58.07 ], [ 14.721816555366063, 55.21473435320403, 82.43 ], [ 14.727588679590376, 55.218515997308437, 80.96 ], [ 14.730737449653988, 55.223036675182961, 82.42 ], [ 14.745030527500747, 55.23765949249065, 90.88 ] ], [ [ 14.745030527500747, 55.23765949249065, 90.88 ], [ 14.746659547245217, 55.239669025232793, 93.04 ] ], [ [ 14.746659547245217, 55.239669025232793, 93.04 ], [ 14.745572793466804, 55.240152455214783, 92.31 ], [ 14.742750675633429, 55.244167364675043, 80.31 ], [ 14.741068652705151, 55.245713443779721, 68.95 ], [ 14.7407669090575, 55.246645252432764, 59.78 ], [ 14.738737194344354, 55.246887025565762, 47.98 ], [ 14.737624953738662, 55.247339982505856, 37.77 ], [ 14.738658094349155, 55.249189583209727, 17.32 ], [ 14.735550365012308, 55.247975041006399, 2.33 ] ], [ [ 14.706273307617899, 55.095274544643686, 15.91 ], [ 14.710773733878492, 55.096117340042454, 18.55 ] ], [ [ 14.710773733878492, 55.096117340042454, 18.55 ], [ 14.709234695728755, 55.09573359448364, 17.84 ] ], [ [ 14.706023286138414, 55.182630415273742, 14.06 ], [ 14.706026974031911, 55.182531042728861, 13.96 ] ], [ [ 14.706026974031911, 55.182531042728861, 13.96 ], [ 14.706938471604692, 55.180046073532431, 12.56 ] ], [ [ 14.706026974031911, 55.182531042728861, 13.96 ], [ 14.708083231492417, 55.182092346477084, 18.35 ] ], [ [ 14.706399364810762, 55.183211558946404, 16.64 ], [ 14.705627518444974, 55.184553314629234, 15.57 ], [ 14.706370904604567, 55.185969055485828, 19.83 ], [ 14.706488441732951, 55.187833294941619, 22.71 ] ], [ [ 14.706488441732951, 55.187833294941619, 22.71 ], [ 14.705685379241483, 55.188905201049479, 20.99 ] ], [ [ 14.706856966487933, 55.182889867956128, 17.19 ], [ 14.706399364810762, 55.183211558946404, 16.64 ] ], [ [ 14.706399364810762, 55.183211558946404, 16.64 ], [ 14.706004023548562, 55.18296132410871, 14.58 ] ], [ [ 14.706488441732951, 55.187833294941619, 22.71 ], [ 14.706591891840905, 55.187838250791067, 22.95 ], [ 14.70669302109569, 55.187827022301022, 23.38 ], [ 14.707062898702405, 55.187623952252736, 24.71 ], [ 14.709947527132345, 55.183123081081654, 22.31 ] ], [ [ 14.709947527132345, 55.183123081081654, 22.31 ], [ 14.710597696166204, 55.181624077551859, 19.06 ] ], [ [ 14.716442865476251, 55.155295095801819, 9.3 ], [ 14.714711124687355, 55.157363609972236, 14.12 ], [ 14.715607470168724, 55.160112376971881, 15.0 ], [ 14.715844409600242, 55.164960954235887, 15.61 ], [ 14.713336048280684, 55.167851547886166, 15.82 ], [ 14.708786424270395, 55.177306835067867, 15.83 ], [ 14.706938471604692, 55.180046073532431, 12.56 ] ], [ [ 14.711857930651119, 55.222121285852054, 2.71 ], [ 14.711062189738279, 55.218587914237681, 3.1 ], [ 14.708940964419844, 55.214496639571628, 3.17 ], [ 14.708803458807472, 55.21339434562767, 2.58 ], [ 14.706468645511309, 55.210070565745433, 2.93 ], [ 14.706492328557804, 55.206218679086668, 2.84 ], [ 14.704216690099397, 55.20102350969951, 6.58 ], [ 14.704769583068632, 55.199469611962094, 15.73 ], [ 14.707920221176554, 55.197071211137327, 28.09 ] ], [ [ 14.709811505651746, 55.122585894394916, 17.61 ], [ 14.713413030405375, 55.121320749214171, 19.26 ], [ 14.711609970498754, 55.116177216727813, 13.26 ] ], [ [ 14.710507754074317, 55.094327691050239, 17.81 ], [ 14.711729259830058, 55.093561704450664, 18.65 ] ], [ [ 14.711729259830058, 55.093561704450664, 18.65 ], [ 14.708191419911662, 55.092854006397395, 17.77 ], [ 14.710036452832973, 55.090334428672897, 18.44 ] ], [ [ 14.710773733878492, 55.096117340042454, 18.55 ], [ 14.712650760535865, 55.097661881158274, 20.42 ] ], [ [ 14.712650760535865, 55.097661881158274, 20.42 ], [ 14.713077775758217, 55.097698321940165, 20.42 ] ], [ [ 14.713077775758217, 55.097698321940165, 20.42 ], [ 14.713090559687382, 55.097932487500813, 20.42 ] ], [ [ 14.713090559687382, 55.097932487500813, 20.42 ], [ 14.712861369427822, 55.098007093578907, 20.42 ] ], [ [ 14.71017304480001, 55.188400047094163, 29.18 ], [ 14.714198106361865, 55.183779778422036, 25.85 ] ], [ [ 14.714198106361865, 55.183779778422036, 25.85 ], [ 14.709947527132345, 55.183123081081654, 22.31 ] ], [ [ 14.710702924706537, 55.181611932579742, 19.11 ], [ 14.710812494720106, 55.180563207464168, 20.58 ] ], [ [ 14.710812494720106, 55.180563207464168, 20.58 ], [ 14.706938471604692, 55.180046073532431, 12.56 ] ], [ [ 14.710812494720106, 55.180563207464168, 20.58 ], [ 14.711740689352739, 55.179480699117931, 21.06 ], [ 14.714884153836545, 55.180113585639958, 22.79 ], [ 14.71506274278795, 55.181112041978032, 23.84 ] ], [ [ 14.71506274278795, 55.181112041978032, 23.84 ], [ 14.715509510897489, 55.181194286755456, 24.53 ] ], [ [ 14.711729259830058, 55.093561704450664, 18.65 ], [ 14.714055561373961, 55.09219568578029, 20.61 ] ], [ [ 14.712581955572547, 55.097944624138229, 20.42 ], [ 14.712650760535865, 55.097661881158274, 20.42 ] ], [ [ 14.713077775758217, 55.097698321940165, 20.42 ], [ 14.718226154696845, 55.095853111475236, 23.1 ] ], [ [ 14.718226154696845, 55.095853111475236, 23.1 ], [ 14.716574385059081, 55.094175803632083, 21.62 ] ], [ [ 14.713090559687382, 55.097932487500813, 20.42 ], [ 14.715858476128163, 55.09922460127499, 20.51 ] ], [ [ 14.715858476128163, 55.09922460127499, 20.51 ], [ 14.721263681402109, 55.101692021496184, 20.53 ], [ 14.725700164096168, 55.10313439417871, 18.63 ] ], [ [ 14.725700164096168, 55.10313439417871, 18.63 ], [ 14.726059640211819, 55.103045338654198, 19.38 ] ], [ [ 14.714192341558952, 55.082763812995253, 13.89 ], [ 14.716647606719961, 55.084603507540372, 14.77 ] ], [ [ 14.716647606719961, 55.084603507540372, 14.77 ], [ 14.716411063166195, 55.085047273287458, 15.21 ] ], [ [ 14.716411063166195, 55.085047273287458, 15.21 ], [ 14.719275349847631, 55.086740825108478, 17.54 ], [ 14.714158361198193, 55.089617680350294, 20.3 ], [ 14.713389150892761, 55.091012072793205, 20.67 ] ], [ [ 14.714192341558952, 55.082763812995253, 13.89 ], [ 14.717287689412226, 55.08188181916352, 13.43 ], [ 14.725245020306714, 55.080974524044002, 20.25 ], [ 14.730060582771067, 55.08093968844193, 21.98 ], [ 14.73253944397265, 55.081656593798705, 22.76 ] ], [ [ 14.73253944397265, 55.081656593798705, 22.76 ], [ 14.735425856314359, 55.079730044665141, 20.71 ] ], [ [ 14.735425856314359, 55.079730044665141, 20.71 ], [ 14.741956441242079, 55.075204168417329, 19.98 ], [ 14.744298421716666, 55.073950380329244, 17.01 ], [ 14.753904600129932, 55.070017100481472, 16.26 ], [ 14.760943979856357, 55.067674824175825, 15.27 ], [ 14.772022730127302, 55.062476616616095, 19.59 ], [ 14.778721558657343, 55.06056102326913, 16.3 ] ], [ [ 14.778721558657343, 55.06056102326913, 16.3 ], [ 14.779422512551621, 55.062284236776513, 22.4 ], [ 14.784530305962861, 55.06754545660381, 29.98 ], [ 14.786054959791258, 55.068085559732204, 29.15 ], [ 14.790699350564156, 55.071728712089218, 45.28 ], [ 14.791281851524451, 55.074336593958684, 45.5 ] ], [ [ 14.791281851524451, 55.074336593958684, 45.5 ], [ 14.779652737415399, 55.074904938882909, 41.81 ], [ 14.767658083927124, 55.077963306021054, 36.59 ], [ 14.757409539380003, 55.080016276963356, 29.24 ], [ 14.753830632592663, 55.081330035202704, 29.84 ], [ 14.747102559358007, 55.085486566035179, 35.37 ] ], [ [ 14.747102559358007, 55.085486566035179, 35.37 ], [ 14.735425856314359, 55.079730044665141, 20.71 ] ], [ [ 14.714198106361865, 55.183779778422036, 25.85 ], [ 14.7150955087925, 55.182549801440089, 24.89 ], [ 14.715254719246282, 55.181363348348945, 24.05 ] ], [ [ 14.714996323694825, 55.181242180299385, 23.68 ], [ 14.71506274278795, 55.181112041978032, 23.84 ] ], [ [ 14.715858476128163, 55.09922460127499, 20.51 ], [ 14.716822708696739, 55.098433227220461, 20.88 ], [ 14.719705734335585, 55.097554714694873, 22.07 ], [ 14.718226154696845, 55.095853111475236, 23.1 ] ], [ [ 14.718226154696845, 55.095853111475236, 23.1 ], [ 14.728137375422834, 55.092790156399609, 25.69 ] ], [ [ 14.728137375422834, 55.092790156399609, 25.69 ], [ 14.728380533188069, 55.092548506083524, 25.69 ] ], [ [ 14.728380533188069, 55.092548506083524, 25.69 ], [ 14.72731341671183, 55.089196497042032, 25.39 ], [ 14.727614496665815, 55.086710286230002, 25.66 ], [ 14.729148694478294, 55.084306226240706, 21.71 ], [ 14.73253944397265, 55.081656593798705, 22.76 ] ], [ [ 14.716647606719961, 55.084603507540372, 14.77 ], [ 14.716834443018946, 55.084755482220864, 14.96 ], [ 14.716411063166195, 55.085047273287458, 15.21 ] ], [ [ 14.716442865476251, 55.155295095801819, 9.3 ], [ 14.721793226447685, 55.155866407899012, 13.7 ], [ 14.725500017119623, 55.156694166831826, 13.99 ], [ 14.739999464723558, 55.155574242284558, 19.07 ] ], [ [ 14.716442865476251, 55.155295095801819, 9.3 ], [ 14.717221300575039, 55.154376654330363, 12.4 ], [ 14.717584063776666, 55.15264203692815, 7.04 ], [ 14.717094737049905, 55.150855243893574, 10.34 ], [ 14.71713613511039, 55.147187392632851, 11.35 ], [ 14.71605631106298, 55.14201111114447, 6.67 ], [ 14.718779935877363, 55.141525745997328, 11.22 ], [ 14.722310963081833, 55.139571356816447, 14.39 ], [ 14.723588777584618, 55.138237579757458, 18.34 ], [ 14.723947121102702, 55.136984830826201, 17.6 ], [ 14.725136659155837, 55.136054876417475, 20.18 ] ], [ [ 14.718359752001358, 55.110800844683041, 17.83 ], [ 14.720254102271056, 55.108388976167731, 17.1 ], [ 14.72583494604287, 55.10335164543568, 18.43 ] ], [ [ 14.72583494604287, 55.10335164543568, 18.43 ], [ 14.725700164096168, 55.10313439417871, 18.63 ] ], [ [ 14.718496851524366, 55.110954351675666, 18.52 ], [ 14.722493965175484, 55.11165653523166, 24.74 ], [ 14.725165987994677, 55.112486778296777, 30.23 ], [ 14.725407904918328, 55.113700078304916, 29.61 ], [ 14.726908093792147, 55.115820403129099, 32.98 ], [ 14.730087224387246, 55.117471281572719, 49.53 ], [ 14.73401198285568, 55.118482314558456, 50.2 ] ], [ [ 14.73401198285568, 55.118482314558456, 50.2 ], [ 14.729205861605461, 55.12294460244749, 39.73 ], [ 14.726794882492918, 55.124078394197383, 36.58 ], [ 14.724484510273093, 55.124376250880303, 34.35 ], [ 14.719456297736603, 55.123930869955636, 25.2 ], [ 14.711248161623155, 55.124280092109032, 19.7 ] ], [ [ 14.72583494604287, 55.10335164543568, 18.43 ], [ 14.72606423301559, 55.10335865739809, 18.81 ], [ 14.726225137771406, 55.103272033395953, 19.43 ] ], [ [ 14.726225137771406, 55.103272033395953, 19.43 ], [ 14.726059640211819, 55.103045338654198, 19.38 ] ], [ [ 14.726225137771406, 55.103272033395953, 19.43 ], [ 14.733690622654125, 55.104876865071809, 40.18 ], [ 14.740871206318268, 55.107300935425869, 60.9 ] ], [ [ 14.740871206318268, 55.107300935425869, 60.9 ], [ 14.746675605517295, 55.109271667917291, 65.94 ], [ 14.752189903201501, 55.109903234125987, 68.57 ] ], [ [ 14.752189903201501, 55.109903234125987, 68.57 ], [ 14.752521718538047, 55.106836551443564, 69.4 ], [ 14.751053030763968, 55.106567821427497, 67.99 ], [ 14.751427897325479, 55.103655559237154, 58.35 ], [ 14.750614644799823, 55.101587245488837, 55.71 ], [ 14.751491983716472, 55.100207902552576, 53.97 ], [ 14.747653117322443, 55.093019655944843, 49.18 ], [ 14.747861470711259, 55.089738647199468, 44.7 ], [ 14.746596955238969, 55.088153934240204, 40.89 ], [ 14.744426200073208, 55.086805817222206, 34.6 ] ], [ [ 14.744426200073208, 55.086805817222206, 34.6 ], [ 14.73652570938501, 55.090433314609996, 30.39 ], [ 14.728702889036175, 55.092647800766663, 25.69 ] ], [ [ 14.728702889036175, 55.092647800766663, 25.69 ], [ 14.728497883219424, 55.092891702560273, 25.69 ] ], [ [ 14.728497883219424, 55.092891702560273, 25.69 ], [ 14.72804430834633, 55.099955457632134, 23.01 ], [ 14.726059640211819, 55.103045338654198, 19.38 ] ], [ [ 14.725995870554717, 55.137138175276526, 22.07 ], [ 14.726345414571242, 55.137617882967852, 23.14 ] ], [ [ 14.726345414571242, 55.137617882967852, 23.14 ], [ 14.726171089989224, 55.137659046686593, 23.22 ] ], [ [ 14.727158800702172, 55.137472688040994, 23.63 ], [ 14.726345414571242, 55.137617882967852, 23.14 ] ], [ [ 14.726345414571242, 55.137617882967852, 23.14 ], [ 14.727631976106675, 55.139190174271441, 23.93 ] ], [ [ 14.728497883219424, 55.092891702560273, 25.69 ], [ 14.728137375422834, 55.092790156399609, 25.69 ] ], [ [ 14.728380533188069, 55.092548506083524, 25.69 ], [ 14.728518678415567, 55.09254864963485, 25.69 ], [ 14.728702889036175, 55.092647800766663, 25.69 ] ], [ [ 14.728724975449623, 55.195143353140807, 79.4 ], [ 14.731227255544729, 55.192301082682896, 84.08 ], [ 14.732173667739671, 55.189513220827777, 78.63 ], [ 14.731272623957395, 55.183581680834685, 58.19 ], [ 14.729491389864938, 55.179531170842289, 39.36 ], [ 14.728575241293905, 55.178416168353323, 33.81 ] ], [ [ 14.73401198285568, 55.118482314558456, 50.2 ], [ 14.73709338650408, 55.115370389837359, 54.71 ], [ 14.738497345613572, 55.110499362830915, 60.4 ], [ 14.740871206318268, 55.107300935425869, 60.9 ] ], [ [ 14.736695124448692, 55.151187552256481, 19.66 ], [ 14.753494628163407, 55.14564140534781, 35.42 ], [ 14.761724180687469, 55.141876436948294, 46.11 ], [ 14.764317050756993, 55.140354423521252, 49.57 ], [ 14.764480856193158, 55.139836412663186, 50.64 ] ], [ [ 14.764480856193158, 55.139836412663186, 50.64 ], [ 14.756618755014436, 55.140069956726066, 44.49 ] ], [ [ 14.747102559358007, 55.085486566035179, 35.37 ], [ 14.744426200073208, 55.086805817222206, 34.6 ] ], [ [ 14.746659547245217, 55.239669025232793, 93.04 ], [ 14.751595696235746, 55.24550390283337, 93.51 ], [ 14.761724681273298, 55.253676935294237, 113.58 ], [ 14.764929928965365, 55.260634322152008, 84.82 ] ], [ [ 14.764929928965365, 55.260634322152008, 84.82 ], [ 14.766302582064194, 55.262102156118232, 81.15 ], [ 14.768479361380333, 55.263162591899729, 84.19 ], [ 14.782263264355137, 55.265551895631454, 67.59 ], [ 14.797150971314908, 55.269973549104527, 43.63 ], [ 14.798413993696357, 55.270691438848665, 37.68 ] ], [ [ 14.752189903201501, 55.109903234125987, 68.57 ], [ 14.753261327390744, 55.110097153907155, 68.44 ] ], [ [ 14.753261327390744, 55.110097153907155, 68.44 ], [ 14.765387554586473, 55.112696456943127, 70.79 ], [ 14.771072529161193, 55.115800964449384, 63.26 ], [ 14.778386182674637, 55.118470991086035, 51.23 ] ], [ [ 14.778386182674637, 55.118470991086035, 51.23 ], [ 14.775415514503472, 55.12299256171589, 44.52 ], [ 14.774075386796166, 55.127481462089463, 47.21 ], [ 14.773248275887955, 55.133873585953324, 55.69 ], [ 14.77128778593106, 55.137083372245947, 56.7 ], [ 14.76813898049403, 55.139795017182259, 53.85 ] ], [ [ 14.76813898049403, 55.139795017182259, 53.85 ], [ 14.764480856193158, 55.139836412663186, 50.64 ] ], [ [ 14.753261327390744, 55.110097153907155, 68.44 ], [ 14.754440989680068, 55.124840690692885, 39.33 ], [ 14.753427159847844, 55.127894494989462, 27.92 ], [ 14.757008103285326, 55.132144019307042, 40.92 ], [ 14.75735606996694, 55.135958799067787, 44.56 ], [ 14.756618755014436, 55.140069956726066, 44.49 ] ], [ [ 14.756618755014436, 55.140069956726066, 44.49 ], [ 14.746343977520505, 55.139093029848297, 42.67 ], [ 14.737425743096582, 55.136690091855222, 36.52 ], [ 14.735501963039196, 55.136726291995537, 35.91 ], [ 14.731464217386431, 55.137430144980584, 29.99 ], [ 14.727158800702172, 55.137472688040994, 23.63 ] ], [ [ 14.727158800702172, 55.137472688040994, 23.63 ], [ 14.725995870554717, 55.137138175276526, 22.07 ] ], [ [ 14.725995870554717, 55.137138175276526, 22.07 ], [ 14.725265048957475, 55.136235524512223, 20.26 ] ], [ [ 14.764929928965365, 55.260634322152008, 84.82 ], [ 14.764533722147217, 55.260811710385937, 83.73 ], [ 14.764278506809969, 55.262519704490771, 71.11 ], [ 14.761274023811973, 55.264336653367565, 73.6 ], [ 14.762006184604179, 55.265865555940287, 74.57 ], [ 14.76271293062582, 55.266115203379492, 71.05 ], [ 14.763623378368928, 55.265648625176098, 68.01 ], [ 14.764123054224726, 55.265880345915335, 65.0 ], [ 14.762948883780943, 55.268270379514782, 69.36 ], [ 14.762593552033596, 55.271927287213508, 62.69 ], [ 14.761427424106504, 55.273577578414518, 54.03 ], [ 14.761378034565185, 55.274453387603486, 57.83 ], [ 14.762831125324528, 55.275726617384173, 57.94 ], [ 14.767267105740672, 55.281310234476905, 34.1 ], [ 14.770896402010891, 55.283564365003741, 34.88 ], [ 14.773455862127836, 55.284651519459793, 36.79 ], [ 14.775350095693367, 55.286204904062743, 24.91 ], [ 14.78173808049425, 55.287945933154468, 11.54 ], [ 14.783548959144964, 55.287310316078567, 10.28 ], [ 14.788565779686492, 55.286309699827626, 9.21 ], [ 14.793692172781688, 55.281802407435876, 9.71 ], [ 14.796853271768285, 55.280225024303846, 8.88 ], [ 14.798856776983159, 55.279747971213538, 8.05 ] ], [ [ 14.798856776983159, 55.279747971213538, 8.05 ], [ 14.798698934726787, 55.278950057840575, 12.08 ], [ 14.800933984402645, 55.277270661832027, 10.04 ] ], [ [ 14.800933984402645, 55.277270661832027, 10.04 ], [ 14.801457215374683, 55.276879236327126, 10.78 ] ], [ [ 14.802233786521025, 55.174525036116755, 108.66 ], [ 14.801334810057876, 55.168931165366139, 96.23 ], [ 14.800493224045814, 55.167420513791207, 96.27 ], [ 14.792679573652066, 55.162176630871549, 77.74 ], [ 14.791222428331812, 55.16024524782307, 75.31 ], [ 14.790530500841591, 55.158179802356123, 75.69 ], [ 14.781691985955458, 55.149061695536588, 72.17 ], [ 14.778110437637945, 55.147578562408007, 69.72 ], [ 14.773972262015825, 55.146440190949733, 59.94 ], [ 14.770414390485886, 55.144317827574241, 54.25 ], [ 14.769047592833715, 55.14244215331253, 54.79 ], [ 14.76813898049403, 55.139795017182259, 53.85 ] ], [ [ 14.778386182674637, 55.118470991086035, 51.23 ], [ 14.781827747154507, 55.11901116564821, 49.15 ] ], [ [ 14.781827747154507, 55.11901116564821, 49.15 ], [ 14.784815271563643, 55.119142657122929, 48.01 ] ], [ [ 14.778721558657343, 55.06056102326913, 16.3 ], [ 14.784714239409855, 55.058644677974364, 15.43 ] ], [ [ 14.784714239409855, 55.058644677974364, 15.43 ], [ 14.806999273988755, 55.051449733422949, 18.85 ], [ 14.815488330242419, 55.050463412333954, 16.53 ] ], [ [ 14.815488330242419, 55.050463412333954, 16.53 ], [ 14.815901421106378, 55.053416195723514, 26.19 ], [ 14.819977330006022, 55.06090538994394, 40.29 ], [ 14.819841361333074, 55.064209847893608, 45.73 ], [ 14.822681804877389, 55.069586852245592, 51.33 ] ], [ [ 14.822681804877389, 55.069586852245592, 51.33 ], [ 14.818465269996526, 55.069643145471524, 51.33 ], [ 14.812330387653349, 55.070773514652309, 52.0 ] ], [ [ 14.812330387653349, 55.070773514652309, 52.0 ], [ 14.796178465554265, 55.073915433004522, 48.23 ], [ 14.791281851524451, 55.074336593958684, 45.5 ] ], [ [ 14.779715072566185, 55.052971241313855, 4.34 ], [ 14.777944687472932, 55.053060143816502, 5.25 ], [ 14.779618896558109, 55.054730795331245, 15.52 ], [ 14.782083079173839, 55.056023416362663, 13.69 ], [ 14.784714239409855, 55.058644677974364, 15.43 ] ], [ [ 14.781827747154507, 55.11901116564821, 49.15 ], [ 14.78485117859414, 55.119234299611172, 48.23 ] ], [ [ 14.78485117859414, 55.119234299611172, 48.23 ], [ 14.784815271563643, 55.119142657122929, 48.01 ] ], [ [ 14.783249560920378, 55.220039442251384, 117.66 ], [ 14.782086021262565, 55.2215807614703, 119.09 ], [ 14.782460218476261, 55.223166529316195, 119.63 ], [ 14.78688008345347, 55.226774941720166, 107.76 ], [ 14.794801926515575, 55.232107604063636, 107.43 ], [ 14.797324550239512, 55.234414941288513, 109.49 ], [ 14.798380678110984, 55.236404153727555, 105.76 ], [ 14.797917912420116, 55.239219169865457, 92.16 ] ], [ [ 14.797917912420116, 55.239219169865457, 92.16 ], [ 14.792787197644602, 55.237428122450034, 99.26 ], [ 14.784881047064328, 55.237486341849078, 92.72 ], [ 14.779010802178918, 55.238294979769734, 84.04 ], [ 14.777657250229208, 55.240450391696697, 79.31 ], [ 14.774746552226176, 55.240116984733838, 77.13 ], [ 14.771154288150948, 55.238835515744974, 88.95 ], [ 14.768010857914124, 55.239092818861572, 97.23 ], [ 14.760967969156955, 55.236918059095984, 109.64 ], [ 14.754215649104252, 55.236950144814145, 98.0 ], [ 14.753550325709677, 55.237674052420324, 97.22 ], [ 14.748119782526553, 55.236838490314035, 88.83 ], [ 14.747338160411333, 55.237496470945992, 88.14 ], [ 14.745030527500747, 55.23765949249065, 90.88 ] ], [ [ 14.797505711840799, 55.116730668992695, 51.83 ], [ 14.798840162264939, 55.116216662540566, 53.83 ] ], [ [ 14.798840162264939, 55.116216662540566, 53.83 ], [ 14.798794329275559, 55.116548604520219, 53.59 ] ], [ [ 14.798794329275559, 55.116548604520219, 53.59 ], [ 14.797505711840799, 55.116730668992695, 51.83 ] ], [ [ 14.797505711840799, 55.116730668992695, 51.83 ], [ 14.787123918299617, 55.118952279492106, 47.55 ] ], [ [ 14.797740794977518, 55.240080127695222, 92.35 ], [ 14.79726053627749, 55.242599888153315, 97.14 ], [ 14.797359911531203, 55.246568845624374, 96.43 ], [ 14.796067141946134, 55.251862024864671, 101.28 ], [ 14.796581620441243, 55.259024114357423, 81.89 ], [ 14.800671441868163, 55.265681020954453, 56.81 ], [ 14.800541617441256, 55.266943209680434, 49.29 ], [ 14.798913176170771, 55.270489676507253, 37.68 ] ], [ [ 14.798913176170771, 55.270489676507253, 37.68 ], [ 14.798413993696357, 55.270691438848665, 37.68 ] ], [ [ 14.797917912420116, 55.239219169865457, 92.16 ], [ 14.797740794977518, 55.240080127695222, 92.35 ] ], [ [ 14.797740794977518, 55.240080127695222, 92.35 ], [ 14.797996940116706, 55.240090694308712, 92.11 ], [ 14.799248181756591, 55.239973971630207, 90.34 ], [ 14.803024543871006, 55.239902976837989, 97.89 ], [ 14.806237409691311, 55.238694493039453, 97.64 ], [ 14.809387182227429, 55.236584197404845, 87.24 ], [ 14.811791868183054, 55.236943923728703, 86.02 ], [ 14.816364923228042, 55.236787802848667, 91.92 ] ], [ [ 14.816364923228042, 55.236787802848667, 91.92 ], [ 14.816310372807518, 55.237662111943813, 88.41 ], [ 14.81792186298339, 55.239074036336582, 81.37 ], [ 14.823131462856709, 55.241660772293272, 58.06 ], [ 14.833550299699512, 55.245145316251524, 22.94 ] ], [ [ 14.833550299699512, 55.245145316251524, 22.94 ], [ 14.830962498318248, 55.248045751842348, 14.09 ], [ 14.82942364872747, 55.248901998454443, 14.71 ], [ 14.826502091492355, 55.249743705891092, 20.58 ] ], [ [ 14.826502091492355, 55.249743705891092, 20.58 ], [ 14.822560614217545, 55.251282694366367, 18.55 ], [ 14.823816790366536, 55.252248120422962, 9.84 ] ], [ [ 14.823816790366536, 55.252248120422962, 9.84 ], [ 14.828934510206929, 55.250263021668282, 9.4 ] ], [ [ 14.828934510206929, 55.250263021668282, 9.4 ], [ 14.829265591161844, 55.250090064407843, 9.43 ] ], [ [ 14.829265591161844, 55.250090064407843, 9.43 ], [ 14.828960461009544, 55.250082359332829, 9.57 ] ], [ [ 14.828960461009544, 55.250082359332829, 9.57 ], [ 14.828342568040462, 55.249770231754333, 12.17 ], [ 14.827068965737627, 55.249956378660627, 18.56 ], [ 14.826502091492355, 55.249743705891092, 20.58 ] ], [ [ 14.798794329275559, 55.116548604520219, 53.59 ], [ 14.801506894401697, 55.116454338992021, 55.88 ], [ 14.828701570588654, 55.117311710534437, 88.18 ] ], [ [ 14.828701570588654, 55.117311710534437, 88.18 ], [ 14.832551973904012, 55.117449579095123, 90.21 ], [ 14.836492633974865, 55.117966854132838, 93.36 ] ], [ [ 14.836492633974865, 55.117966854132838, 93.36 ], [ 14.849313285778228, 55.119748455474436, 116.94 ], [ 14.860425119990788, 55.121674221109679, 134.2 ], [ 14.882646155937707, 55.121221926203866, 134.98 ], [ 14.886314398488635, 55.120548660743033, 131.68 ], [ 14.889217289757614, 55.120438703844265, 128.23 ], [ 14.892104736099453, 55.119257642559766, 120.78 ], [ 14.894779460565267, 55.119046805329262, 115.27 ], [ 14.902414245420539, 55.120874888922387, 109.38 ], [ 14.903990548433265, 55.121953599017978, 104.8 ], [ 14.904889984626241, 55.123723945969409, 103.31 ] ], [ [ 14.904889984626241, 55.123723945969409, 103.31 ], [ 14.909039156284113, 55.123521401097214, 103.51 ], [ 14.911127585522994, 55.123888812897377, 104.77 ] ], [ [ 14.911127585522994, 55.123888812897377, 104.77 ], [ 14.912986760960969, 55.124394473872421, 106.86 ] ], [ [ 14.912986760960969, 55.124394473872421, 106.86 ], [ 14.91236569850177, 55.126375825441926, 111.42 ], [ 14.913050258880116, 55.128134797485885, 115.11 ], [ 14.917477906277087, 55.132664138894214, 116.34 ], [ 14.920864911040386, 55.135186990254461, 112.86 ], [ 14.929087950934239, 55.147893956082143, 116.92 ], [ 14.934657835040369, 55.15375447643865, 114.18 ], [ 14.93908277631226, 55.157365611836852, 104.39 ], [ 14.939050327697167, 55.157948346628707, 104.43 ] ], [ [ 14.939050327697167, 55.157948346628707, 104.43 ], [ 14.919598642852234, 55.153813182328356, 98.29 ], [ 14.915269345290872, 55.153131870299042, 97.54 ], [ 14.904414567380972, 55.151991241467137, 95.32 ], [ 14.895028807505579, 55.152572911143523, 105.12 ], [ 14.892439621062596, 55.152394048278076, 108.35 ], [ 14.884122738140936, 55.149305708196792, 112.13 ] ], [ [ 14.884122738140936, 55.149305708196792, 112.13 ], [ 14.865890865412398, 55.179302549953242, 98.45 ], [ 14.857678156413636, 55.190279078678742, 103.16 ] ], [ [ 14.857678156413636, 55.190279078678742, 103.16 ], [ 14.848486963893366, 55.186787006142858, 113.49 ], [ 14.841168060228751, 55.185448998652326, 112.5 ], [ 14.833363049111613, 55.181646598778826, 106.84 ], [ 14.821412807774223, 55.17956808420054, 110.44 ], [ 14.811179474399008, 55.175916452383035, 110.93 ], [ 14.806746566760111, 55.17519749124115, 104.53 ] ], [ [ 14.806746566760111, 55.17519749124115, 104.53 ], [ 14.805122371639861, 55.17519118118576, 106.35 ] ], [ [ 14.805122371639861, 55.17519118118576, 106.35 ], [ 14.802233786521025, 55.174525036116755, 108.66 ] ], [ [ 14.802233786521025, 55.174525036116755, 108.66 ], [ 14.801473270138862, 55.174899468538293, 104.73 ], [ 14.801332022070504, 55.175866575742226, 97.9 ], [ 14.800760050295041, 55.176160974721604, 96.33 ], [ 14.78819734839268, 55.177189507873628, 112.47 ], [ 14.777599534162528, 55.178799578186847, 98.94 ], [ 14.768020948782965, 55.178556674741415, 68.52 ], [ 14.765526983215654, 55.179133929622651, 63.75 ], [ 14.761026898229881, 55.181022592553042, 73.61 ], [ 14.758037949967793, 55.181471641736856, 82.07 ], [ 14.74777272177605, 55.181659878630036, 69.87 ], [ 14.745563232874115, 55.181470152565687, 66.76 ], [ 14.732641868332783, 55.176827705001841, 28.23 ] ], [ [ 14.79852519502195, 55.270812532048559, 37.11 ], [ 14.798968827794738, 55.272448261892947, 32.0 ] ], [ [ 14.798968827794738, 55.272448261892947, 32.0 ], [ 14.799369725194733, 55.273717023950944, 29.58 ] ], [ [ 14.799369725194733, 55.273717023950944, 29.58 ], [ 14.799598184611705, 55.274023106737147, 27.47 ] ], [ [ 14.799598184611705, 55.274023106737147, 27.47 ], [ 14.800350105315401, 55.274957356289157, 23.24 ] ], [ [ 14.800350105315401, 55.274957356289157, 23.24 ], [ 14.801457215374683, 55.276879236327126, 10.78 ] ], [ [ 14.798913176170771, 55.270489676507253, 37.68 ], [ 14.79852519502195, 55.270812532048559, 37.11 ] ], [ [ 14.79852519502195, 55.270812532048559, 37.11 ], [ 14.798413993696357, 55.270691438848665, 37.68 ] ], [ [ 14.798856776983159, 55.279747971213538, 8.05 ], [ 14.800347980357117, 55.279011999550953, 4.15 ], [ 14.801581504462231, 55.277874366781333, 3.41 ] ], [ [ 14.801581504462231, 55.277874366781333, 3.41 ], [ 14.800933984402645, 55.277270661832027, 10.04 ] ], [ [ 14.798968827794738, 55.272448261892947, 32.0 ], [ 14.803851325675636, 55.268583331220903, 33.25 ], [ 14.806759105153231, 55.266911328606554, 38.97 ], [ 14.81129605456367, 55.261446720584281, 35.04 ], [ 14.813261359393106, 55.260009413564426, 27.06 ], [ 14.816341554612023, 55.258666596662039, 12.13 ], [ 14.820397963517708, 55.254516140259646, 11.56 ], [ 14.823816790366536, 55.252248120422962, 9.84 ] ], [ [ 14.799598184611705, 55.274023106737147, 27.47 ], [ 14.799941986693041, 55.273997539006622, 26.41 ] ], [ [ 14.799941986693041, 55.273997539006622, 26.41 ], [ 14.799502587484747, 55.273679904338259, 29.53 ], [ 14.799369725194733, 55.273717023950944, 29.58 ] ], [ [ 14.799941986693041, 55.273997539006622, 26.41 ], [ 14.801037476745185, 55.274595107734108, 20.24 ] ], [ [ 14.801037476745185, 55.274595107734108, 20.24 ], [ 14.802901243470767, 55.276258367234099, 10.17 ], [ 14.802445032050199, 55.277031182454571, 6.55 ], [ 14.802975921246617, 55.27748326098704, 3.78 ], [ 14.802129590885505, 55.277540718572268, 4.29 ] ], [ [ 14.802129590885505, 55.277540718572268, 4.29 ], [ 14.801457215374683, 55.276879236327126, 10.78 ] ], [ [ 14.800350105315401, 55.274957356289157, 23.24 ], [ 14.801037476745185, 55.274595107734108, 20.24 ] ], [ [ 14.801581504462231, 55.277874366781333, 3.41 ], [ 14.802129590885505, 55.277540718572268, 4.29 ] ], [ [ 14.805122371639861, 55.17519118118576, 106.35 ], [ 14.804614369534297, 55.176756821087054, 105.79 ], [ 14.807675763322701, 55.18178744850659, 111.43 ], [ 14.807098702944526, 55.186293047974594, 112.51 ] ], [ [ 14.807098702944526, 55.186293047974594, 112.51 ], [ 14.806841996507071, 55.187727499224287, 108.41 ], [ 14.804534928249828, 55.192090742911745, 109.29 ], [ 14.804464462645225, 55.197718662304446, 105.63 ], [ 14.802658885503524, 55.201553236580914, 105.77 ], [ 14.797646321810957, 55.205722498263988, 106.38 ], [ 14.791990323711953, 55.213215018636973, 120.76 ], [ 14.786879152016596, 55.216801883259379, 114.91 ], [ 14.783249560920378, 55.220039442251384, 117.66 ] ], [ [ 14.783249560920378, 55.220039442251384, 117.66 ], [ 14.768925205544146, 55.21735319516285, 101.68 ], [ 14.759912002457941, 55.216634747342425, 101.61 ], [ 14.751061305641212, 55.214417398808216, 117.19 ], [ 14.735896265097175, 55.203891682055179, 101.05 ], [ 14.732772199870331, 55.199170243661591, 99.29 ], [ 14.729935659000663, 55.195946880338617, 83.17 ], [ 14.728724975449623, 55.195143353140807, 79.4 ] ], [ [ 14.728724975449623, 55.195143353140807, 79.4 ], [ 14.724060367087356, 55.193716170285406, 71.59 ], [ 14.716071846451879, 55.190224214703335, 47.8 ], [ 14.71017304480001, 55.188400047094163, 29.18 ] ], [ [ 14.71017304480001, 55.188400047094163, 29.18 ], [ 14.708299624666012, 55.189137056923563, 25.4 ], [ 14.705823520204904, 55.189039055005644, 21.13 ] ], [ [ 14.868850207103845, 55.144317885765346, 117.74 ], [ 14.867861205791026, 55.145016826350322, 119.37 ], [ 14.861633557484891, 55.146870802266186, 119.65 ], [ 14.854814577049439, 55.15120317953393, 95.56 ], [ 14.842745416689779, 55.155520803990576, 87.41 ], [ 14.818089067529408, 55.167000291905772, 98.96 ], [ 14.813513451662399, 55.169524781818559, 91.97 ], [ 14.806815288786009, 55.174158940389638, 103.88 ], [ 14.806746566760111, 55.17519749124115, 104.53 ] ], [ [ 14.812330387653349, 55.070773514652309, 52.0 ], [ 14.813541470198457, 55.073593293722425, 54.86 ], [ 14.814916770619831, 55.074993626515301, 59.17 ], [ 14.814251267640159, 55.076792582175365, 59.55 ], [ 14.814535624041158, 55.077835478026977, 61.34 ], [ 14.815804251367048, 55.079187261036623, 63.02 ], [ 14.817905121877146, 55.082981733382539, 70.72 ], [ 14.823070701923873, 55.094121103919512, 77.66 ], [ 14.82238944342617, 55.100502457662181, 79.42 ], [ 14.824334315266654, 55.105059105458061, 84.81 ], [ 14.824187336578728, 55.106169492298086, 85.75 ] ], [ [ 14.824187336578728, 55.106169492298086, 85.75 ], [ 14.818480264778405, 55.107910494853229, 80.73 ], [ 14.798840162264939, 55.116216662540566, 53.83 ] ], [ [ 14.815488330242419, 55.050463412333954, 16.53 ], [ 14.822092054777325, 55.048799060923564, 25.36 ], [ 14.838509122355259, 55.04628394010534, 14.51 ], [ 14.848124858177689, 55.046520138994175, 32.78 ], [ 14.857311338184218, 55.045737220177777, 40.71 ], [ 14.889422579304707, 55.039550064742663, 37.39 ] ], [ [ 14.889422579304707, 55.039550064742663, 37.39 ], [ 14.901342483176627, 55.036866172322661, 27.06 ], [ 14.915475407781503, 55.035142795785887, 22.93 ] ], [ [ 14.915475407781503, 55.035142795785887, 22.93 ], [ 14.921788701633973, 55.033897891453385, 23.32 ], [ 14.929444441861078, 55.031187870658258, 23.7 ], [ 14.941361099389086, 55.028922305061165, 30.3 ], [ 14.957828231388968, 55.029007878211992, 32.36 ] ], [ [ 14.816364923228042, 55.236787802848667, 91.92 ], [ 14.819771301988395, 55.236072113798087, 87.97 ], [ 14.826221096223133, 55.235475338223431, 79.33 ], [ 14.835603877380077, 55.236013176420492, 69.13 ], [ 14.837337386883476, 55.235434042623098, 74.61 ], [ 14.839007905380122, 55.234135275509836, 79.68 ], [ 14.842123087511322, 55.232858561241237, 77.55 ], [ 14.846407132690292, 55.229903138063186, 80.46 ], [ 14.856161749586237, 55.226682430481944, 99.63 ], [ 14.860045552312043, 55.22469994520285, 98.91 ], [ 14.863695173988592, 55.221915319097882, 89.37 ], [ 14.871242101446029, 55.220869024940349, 95.33 ], [ 14.874229120643298, 55.220100242994505, 95.04 ] ], [ [ 14.874229120643298, 55.220100242994505, 95.04 ], [ 14.871507773317793, 55.218573203804233, 100.39 ], [ 14.871349368682294, 55.217675812124511, 101.89 ], [ 14.870100289044609, 55.216028401222403, 104.06 ], [ 14.859476621230753, 55.20753333782541, 103.41 ], [ 14.858274023186386, 55.20708561469722, 105.47 ], [ 14.856727689959611, 55.206969530972032, 102.55 ], [ 14.849771897139151, 55.207053150605148, 107.29 ], [ 14.844177042792644, 55.205238942514889, 102.48 ], [ 14.831161103012818, 55.199871878805922, 107.2 ], [ 14.826912033027108, 55.196766767582005, 105.86 ], [ 14.823622956561543, 55.193581958028155, 103.87 ], [ 14.819744370327083, 55.192241081609033, 106.22 ], [ 14.807098702944526, 55.186293047974594, 112.51 ] ], [ [ 14.828960461009544, 55.250082359332829, 9.57 ], [ 14.828934510206929, 55.250263021668282, 9.4 ] ], [ [ 14.833000502742207, 55.248244856736719, 7.68 ], [ 14.833301310974264, 55.24679039616052, 13.02 ], [ 14.834870749472678, 55.245879604281818, 18.03 ] ], [ [ 14.834870749472678, 55.245879604281818, 18.03 ], [ 14.833550299699512, 55.245145316251524, 22.94 ] ], [ [ 14.868850207103845, 55.144317885765346, 117.74 ], [ 14.858965268751399, 55.139764118367175, 102.83 ], [ 14.850792380191393, 55.138295059417267, 105.75 ], [ 14.838117836423612, 55.134001136311255, 89.04 ], [ 14.833756889157559, 55.133305196171342, 84.57 ] ], [ [ 14.833756889157559, 55.133305196171342, 84.57 ], [ 14.823742652050191, 55.132667292726602, 88.44 ], [ 14.819899865507869, 55.131976716251664, 82.49 ], [ 14.792622479717432, 55.123108261107788, 55.28 ], [ 14.78485117859414, 55.119234299611172, 48.23 ] ], [ [ 14.78485117859414, 55.119234299611172, 48.23 ], [ 14.787123918299617, 55.118952279492106, 47.55 ] ], [ [ 14.787123918299617, 55.118952279492106, 47.55 ], [ 14.784815271563643, 55.119142657122929, 48.01 ] ], [ [ 14.833756889157559, 55.133305196171342, 84.57 ], [ 14.833220049675335, 55.130439204912214, 77.85 ], [ 14.835729417273328, 55.127125121120457, 75.82 ], [ 14.835405363379847, 55.123359017926063, 87.4 ], [ 14.836492633974865, 55.117966854132838, 93.36 ] ], [ [ 14.841462047674556, 55.24691822483809, 8.0 ], [ 14.840360097291562, 55.246432066380315, 11.93 ], [ 14.837166972461342, 55.246770245891568, 10.46 ], [ 14.834870749472678, 55.245879604281818, 18.03 ] ], [ [ 14.835665680944231, 55.072067101269887, 56.08 ], [ 14.835855904939356, 55.074579280218821, 58.25 ], [ 14.840686844476865, 55.073550984888897, 59.88 ] ], [ [ 14.840686844476865, 55.073550984888897, 59.88 ], [ 14.838314749694774, 55.072625417100866, 55.81 ], [ 14.835665680944231, 55.072067101269887, 56.08 ] ], [ [ 14.835665680944231, 55.072067101269887, 56.08 ], [ 14.822681804877389, 55.069586852245592, 51.33 ] ], [ [ 14.886526340832461, 55.077485068509787, 67.03 ], [ 14.871241150801865, 55.077046641092899, 64.61 ], [ 14.858890755388526, 55.075538916472915, 60.96 ], [ 14.848320486357462, 55.07564035979356, 62.48 ], [ 14.845892054056993, 55.075200544038573, 63.14 ], [ 14.840686844476865, 55.073550984888897, 59.88 ] ], [ [ 14.895877888563613, 55.20777180860027, 101.06 ], [ 14.894541889880747, 55.206843581537591, 102.98 ], [ 14.878915769323301, 55.199504512764953, 109.68 ], [ 14.873592529529581, 55.196487012182111, 103.76 ], [ 14.857678156413636, 55.190279078678742, 103.16 ] ], [ [ 14.868850207103845, 55.144317885765346, 117.74 ], [ 14.872187128705983, 55.144878098266979, 118.92 ] ], [ [ 14.872187128705983, 55.144878098266979, 118.92 ], [ 14.873043036275725, 55.144120195652953, 113.55 ], [ 14.885297453397898, 55.138277041585106, 112.65 ], [ 14.893966651675312, 55.136040810307534, 129.21 ], [ 14.897958545227677, 55.135532202029331, 122.42 ], [ 14.902216569897133, 55.135439783509561, 120.23 ], [ 14.903879122434715, 55.134871744333253, 120.98 ], [ 14.904659739469841, 55.133802877092457, 122.52 ], [ 14.905418077832916, 55.127244590649994, 117.04 ], [ 14.904889984626241, 55.123723945969409, 103.31 ] ], [ [ 14.884122738140936, 55.149305708196792, 112.13 ], [ 14.881229362601553, 55.1485061120651, 114.17 ], [ 14.872187128705983, 55.144878098266979, 118.92 ] ], [ [ 14.874229120643298, 55.220100242994505, 95.04 ], [ 14.875199830223357, 55.219395155846222, 90.94 ], [ 14.876789471148061, 55.217163624814731, 80.74 ], [ 14.879860781007075, 55.216777648094833, 91.62 ], [ 14.884713738889543, 55.215505659241536, 97.98 ], [ 14.888649758363863, 55.214093864679079, 98.23 ], [ 14.893632536485203, 55.211716601482465, 89.03 ], [ 14.894404100133704, 55.211803075668136, 89.22 ] ], [ [ 14.894404100133704, 55.211803075668136, 89.22 ], [ 14.892966432546649, 55.213674321720646, 88.97 ], [ 14.895078357997013, 55.21719341759465, 83.29 ], [ 14.89421169353767, 55.221071176910485, 63.25 ] ], [ [ 14.89421169353767, 55.221071176910485, 63.25 ], [ 14.893439713791446, 55.222456948085444, 57.1 ] ], [ [ 14.893439713791446, 55.222456948085444, 57.1 ], [ 14.887960671179862, 55.225815646113453, 29.79 ], [ 14.878278862989836, 55.230129295775683, 27.61 ], [ 14.876860097929805, 55.23269108078069, 23.98 ], [ 14.874939680964767, 55.234529493121414, 15.93 ], [ 14.874100667393508, 55.236457618052327, 9.54 ], [ 14.872792488583983, 55.237461666190406, 7.52 ], [ 14.867382601755244, 55.239363958098416, 4.76 ], [ 14.862939051771628, 55.239703103555222, 17.46 ], [ 14.855475910269016, 55.241167694062206, 6.58 ], [ 14.850653383332203, 55.242851514858607, 14.44 ], [ 14.846231610083318, 55.246507327234418, 9.09 ], [ 14.844955693791205, 55.246821073929397, 9.8 ], [ 14.841462047674556, 55.24691822483809, 8.0 ] ], [ [ 14.841462047674556, 55.24691822483809, 8.0 ], [ 14.83883875158849, 55.247446312958026, 4.27 ], [ 14.835918554341236, 55.247494529987499, 3.51 ], [ 14.833000502742207, 55.248244856736719, 7.68 ] ], [ [ 14.833000502742207, 55.248244856736719, 7.68 ], [ 14.829265591161844, 55.250090064407843, 9.43 ] ], [ [ 14.89421169353767, 55.221071176910485, 63.25 ], [ 14.894644133193946, 55.221927809207813, 59.11 ] ], [ [ 14.894644133193946, 55.221927809207813, 59.11 ], [ 14.893439713791446, 55.222456948085444, 57.1 ] ], [ [ 14.894644133193946, 55.221927809207813, 59.11 ], [ 14.897794157786354, 55.22114009137551, 57.45 ], [ 14.903213224092799, 55.221150538523624, 48.1 ], [ 14.906104840151366, 55.220863461043123, 38.87 ], [ 14.924023104467166, 55.216853152819439, 33.26 ], [ 14.92696302810246, 55.215542360675784, 31.96 ], [ 14.93747860176838, 55.20831955311823, 48.23 ], [ 14.942170593376572, 55.206945014814153, 39.84 ] ], [ [ 14.942170593376572, 55.206945014814153, 39.84 ], [ 14.942978146240979, 55.206635895198183, 39.56 ] ], [ [ 14.942978146240979, 55.206635895198183, 39.56 ], [ 14.942995945232399, 55.206783396170657, 39.16 ] ], [ [ 14.942995945232399, 55.206783396170657, 39.16 ], [ 14.946032561633674, 55.206884740493145, 39.13 ], [ 14.959468523940606, 55.211198091885635, 50.94 ] ], [ [ 14.959468523940606, 55.211198091885635, 50.94 ], [ 14.962415678436956, 55.211938867724598, 51.37 ], [ 14.965196269563815, 55.211794627186066, 49.52 ], [ 14.967053466951064, 55.211140239816203, 49.01 ], [ 14.971774691367548, 55.208414322626609, 43.4 ] ], [ [ 14.971774691367548, 55.208414322626609, 43.4 ], [ 14.972874443072412, 55.207012411536745, 41.79 ] ], [ [ 14.972874443072412, 55.207012411536745, 41.79 ], [ 14.978952333455734, 55.202060077505337, 12.86 ], [ 14.982944031729582, 55.199347682470453, 12.35 ], [ 14.986514970181949, 55.195216501231052, 12.56 ], [ 14.990526250138803, 55.192479812517732, 10.05 ], [ 14.996183555854536, 55.189721106155901, 12.32 ] ], [ [ 14.996183555854536, 55.189721106155901, 12.32 ], [ 14.999139194328565, 55.188259568921779, 10.82 ], [ 15.003899485746899, 55.186586000499581, 10.62 ], [ 15.007025978335834, 55.184271920758, 12.29 ], [ 15.009833269808272, 55.182942763829551, 11.29 ], [ 15.01296068604686, 55.18038996620254, 7.79 ], [ 15.015655491442528, 55.179504069827551, 5.24 ], [ 15.017629007300767, 55.178432077161609, 5.07 ], [ 15.023564211998428, 55.17432435035397, 19.5 ], [ 15.029207240607324, 55.168614205103552, 57.93 ], [ 15.033177363550442, 55.166298471628451, 63.92 ] ], [ [ 15.033177363550442, 55.166298471628451, 63.92 ], [ 15.031730543395234, 55.16532895642267, 66.52 ], [ 15.032569938065462, 55.161391862508395, 79.77 ], [ 15.030684749155933, 55.157289695455802, 93.86 ], [ 15.027516802933228, 55.155014883003837, 100.64 ], [ 15.024543281237085, 55.154615521228102, 101.04 ], [ 15.023065499413201, 55.152301422423399, 99.66 ], [ 15.020792217671806, 55.144450038798155, 98.87 ], [ 15.015651036710731, 55.143739885502669, 102.84 ], [ 15.010828863867228, 55.141741988257351, 107.57 ] ], [ [ 15.010828863867228, 55.141741988257351, 107.57 ], [ 15.014294898130832, 55.139662283789455, 106.23 ] ], [ [ 15.014294898130832, 55.139662283789455, 106.23 ], [ 15.001732407683203, 55.137744509678775, 96.01 ], [ 14.970144244799576, 55.131350375412637, 115.13 ] ], [ [ 14.970144244799576, 55.131350375412637, 115.13 ], [ 14.959833189854614, 55.129341075491887, 115.79 ], [ 14.941686992374416, 55.128658326958345, 110.94 ], [ 14.92493148006046, 55.125003097995084, 105.95 ], [ 14.912986760960969, 55.124394473872421, 106.86 ] ], [ [ 14.895877888563613, 55.20777180860027, 101.06 ], [ 14.897312883685032, 55.208168734330783, 100.14 ] ], [ [ 14.897312883685032, 55.208168734330783, 100.14 ], [ 14.896332328159707, 55.208555792571268, 97.98 ] ], [ [ 14.895877888563613, 55.20777180860027, 101.06 ], [ 14.896332328159707, 55.208555792571268, 97.98 ] ], [ [ 14.896332328159707, 55.208555792571268, 97.98 ], [ 14.896144174604663, 55.209835847896699, 97.03 ], [ 14.894404100133704, 55.211803075668136, 89.22 ] ], [ [ 14.910250653329321, 55.073069674810512, 75.42 ], [ 14.912391055835677, 55.07534803681358, 74.98 ], [ 14.912746175334251, 55.076342753622143, 77.14 ], [ 14.91612158626638, 55.076309069041073, 77.05 ] ], [ [ 14.91612158626638, 55.076309069041073, 77.05 ], [ 14.915362477197162, 55.07388034868989, 78.68 ] ], [ [ 14.915362477197162, 55.07388034868989, 78.68 ], [ 14.913697148711766, 55.071701146894448, 79.15 ] ], [ [ 14.913697148711766, 55.071701146894448, 79.15 ], [ 14.910250653329321, 55.073069674810512, 75.42 ] ], [ [ 14.910250653329321, 55.073069674810512, 75.42 ], [ 14.897059638000954, 55.077507231958052, 66.4 ], [ 14.895029783856524, 55.077712616845524, 66.73 ], [ 14.886526340832461, 55.077485068509787, 67.03 ] ], [ [ 14.886526340832461, 55.077485068509787, 67.03 ], [ 14.886591214891785, 55.080807004811483, 74.07 ], [ 14.883875577108311, 55.085192124060285, 77.21 ], [ 14.881683503616316, 55.08705065812061, 81.91 ], [ 14.875803999086527, 55.090078803816944, 84.43 ], [ 14.861043654006467, 55.09527639612525, 82.45 ], [ 14.840483499403783, 55.101031390713366, 88.09 ], [ 14.834692040472014, 55.103635729349854, 85.61 ], [ 14.824187336578728, 55.106169492298086, 85.75 ] ], [ [ 14.824187336578728, 55.106169492298086, 85.75 ], [ 14.825604845117242, 55.108954990437979, 81.46 ], [ 14.827901092717818, 55.110773935336184, 81.5 ], [ 14.829623291792426, 55.112931886778071, 83.35 ], [ 14.829601193979457, 55.115172307214841, 88.29 ], [ 14.828701570588654, 55.117311710534437, 88.18 ] ], [ [ 14.911127585522994, 55.123888812897377, 104.77 ], [ 14.90947386402267, 55.116419915213278, 97.29 ], [ 14.911719944825979, 55.112402507867479, 90.27 ], [ 14.912006124063137, 55.110944236031216, 90.19 ], [ 14.909902980633717, 55.10713819321581, 87.99 ], [ 14.910359346620655, 55.103853594785164, 88.33 ], [ 14.909966706838894, 55.100223291968327, 87.37 ], [ 14.915284487610721, 55.09057153478755, 85.51 ], [ 14.915247985038437, 55.087851997239895, 80.87 ], [ 14.9134543284862, 55.084063096819683, 89.29 ], [ 14.91612158626638, 55.076309069041073, 77.05 ] ], [ [ 14.913697148711766, 55.071701146894448, 79.15 ], [ 14.917128364584187, 55.070119710098275, 82.45 ], [ 14.917818994337422, 55.070065686196934, 83.09 ] ], [ [ 14.917818994337422, 55.070065686196934, 83.09 ], [ 14.914489417791229, 55.067789387439234, 81.97 ], [ 14.912019490146635, 55.066865678038326, 80.36 ], [ 14.90750421733703, 55.062947940019228, 65.68 ], [ 14.905465131935756, 55.059981086260493, 54.19 ], [ 14.90606693978431, 55.055347813261015, 48.27 ], [ 14.905619939906403, 55.054208290512932, 47.38 ], [ 14.89758311803566, 55.047505432021019, 28.57 ], [ 14.894515654201596, 55.046096752445692, 33.99 ], [ 14.889422579304707, 55.039550064742663, 37.39 ] ], [ [ 14.917818994337422, 55.070065686196934, 83.09 ], [ 14.920325126074685, 55.070358842607966, 84.68 ] ], [ [ 14.920325126074685, 55.070358842607966, 84.68 ], [ 14.920396292140877, 55.07065597947097, 85.11 ] ], [ [ 14.920396292140877, 55.07065597947097, 85.11 ], [ 14.923367008989128, 55.070396402442391, 82.28 ], [ 14.92397711810108, 55.070912561082032, 80.72 ], [ 14.927598855272027, 55.071027853070945, 72.22 ] ], [ [ 14.927598855272027, 55.071027853070945, 72.22 ], [ 14.929046137105523, 55.071636426669237, 71.06 ] ], [ [ 14.929046137105523, 55.071636426669237, 71.06 ], [ 14.926110206796039, 55.072226203340435, 72.77 ], [ 14.921033941424815, 55.073999899844047, 75.27 ] ], [ [ 14.921033941424815, 55.073999899844047, 75.27 ], [ 14.917468401340567, 55.074170299120695, 76.08 ], [ 14.915362477197162, 55.07388034868989, 78.68 ] ], [ [ 14.920325126074685, 55.070358842607966, 84.68 ], [ 14.92240041252637, 55.068430695566882, 81.57 ], [ 14.924947492089821, 55.067086273617726, 80.04 ] ], [ [ 14.924947492089821, 55.067086273617726, 80.04 ], [ 14.925294502023114, 55.06747032271663, 79.38 ], [ 14.925786893985999, 55.06733770230835, 78.5 ] ], [ [ 14.925786893985999, 55.06733770230835, 78.5 ], [ 14.925346266986285, 55.066887282385977, 79.77 ] ], [ [ 14.925346266986285, 55.066887282385977, 79.77 ], [ 14.930694184317799, 55.061457299370844, 60.82 ], [ 14.932429122301508, 55.055108990005671, 57.62 ] ], [ [ 14.932429122301508, 55.055108990005671, 57.62 ], [ 14.920868526461728, 55.052710833451179, 49.14 ], [ 14.917844069999164, 55.049889044603511, 40.0 ], [ 14.915475407781503, 55.035142795785887, 22.93 ] ], [ [ 14.921033941424815, 55.073999899844047, 75.27 ], [ 14.920396292140877, 55.07065597947097, 85.11 ] ], [ [ 14.924947492089821, 55.067086273617726, 80.04 ], [ 14.925346266986285, 55.066887282385977, 79.77 ] ], [ [ 14.925786893985999, 55.06733770230835, 78.5 ], [ 14.927598855272027, 55.071027853070945, 72.22 ] ], [ [ 14.932429122301508, 55.055108990005671, 57.62 ], [ 14.933266968088422, 55.052511608402838, 53.09 ], [ 14.934931329287991, 55.050616178139663, 47.17 ], [ 14.957478389199524, 55.034710833370376, 34.01 ], [ 14.958438115090759, 55.032773474070972, 36.15 ], [ 14.957828231388968, 55.029007878211992, 32.36 ] ], [ [ 14.954984487279519, 55.162566714657657, 98.77 ], [ 14.939050327697167, 55.157948346628707, 104.43 ] ], [ [ 14.942170593376572, 55.206945014814153, 39.84 ], [ 14.942995945232399, 55.206783396170657, 39.16 ] ], [ [ 14.942978146240979, 55.206635895198183, 39.56 ], [ 14.943817200519584, 55.204900127798076, 54.43 ], [ 14.94355571110988, 55.203818585816812, 64.16 ], [ 14.946258471294207, 55.200357501474912, 71.92 ] ], [ [ 14.96151510821516, 55.164492914565741, 93.65 ], [ 14.957281998283511, 55.175108049537293, 86.37 ], [ 14.958041795294161, 55.184845916547772, 83.58 ], [ 14.957504500046035, 55.190074026886137, 75.12 ], [ 14.954174744863362, 55.197914741190758, 63.21 ], [ 14.954130225150998, 55.199220580461812, 65.7 ] ], [ [ 14.96151510821516, 55.164492914565741, 93.65 ], [ 14.954984487279519, 55.162566714657657, 98.77 ] ], [ [ 14.954984487279519, 55.162566714657657, 98.77 ], [ 14.93350627964556, 55.174400418145076, 93.94 ], [ 14.924592486940059, 55.180099398447425, 105.33 ], [ 14.922378906939606, 55.183413437318102, 101.52 ], [ 14.918021698771257, 55.186853343930409, 87.78 ], [ 14.914951404616911, 55.18877818841311, 84.52 ], [ 14.91299553432118, 55.189401380687961, 89.07 ], [ 14.912013204649117, 55.190391953518642, 82.43 ], [ 14.912915590079447, 55.192201669434894, 73.36 ], [ 14.91323428237077, 55.194747768943522, 87.9 ], [ 14.910647299154306, 55.197745345280374, 100.6 ], [ 14.909279065672857, 55.198095910518184, 99.31 ], [ 14.907464279896654, 55.19793789179667, 99.43 ], [ 14.907272868624489, 55.198841631818354, 100.55 ], [ 14.89871599130295, 55.205661791892716, 101.36 ], [ 14.897312883685032, 55.208168734330783, 100.14 ] ], [ [ 14.897312883685032, 55.208168734330783, 100.14 ], [ 14.904034979074972, 55.208947660550265, 97.41 ], [ 14.907734430519254, 55.208839427370719, 93.56 ], [ 14.9135851296101, 55.207471920471278, 98.67 ], [ 14.933036580230967, 55.196035067248374, 92.67 ], [ 14.935402504933588, 55.196663930575262, 96.59 ], [ 14.942466998618373, 55.199428513508316, 82.61 ], [ 14.946258471294207, 55.200357501474912, 71.92 ] ], [ [ 14.946258471294207, 55.200357501474912, 71.92 ], [ 14.949417856449021, 55.200557719430485, 66.46 ], [ 14.954130225150998, 55.199220580461812, 65.7 ] ], [ [ 14.954130225150998, 55.199220580461812, 65.7 ], [ 14.954756783277466, 55.200294395706237, 68.77 ], [ 14.9559617274855, 55.201210674131751, 71.54 ], [ 14.965866901127795, 55.20515631493933, 59.68 ], [ 14.968561700485886, 55.206683687204936, 53.64 ], [ 14.972874443072412, 55.207012411536745, 41.79 ] ], [ [ 14.96151510821516, 55.164492914565741, 93.65 ], [ 14.963006056781365, 55.16480517426595, 91.14 ], [ 14.965262626650929, 55.164751119452632, 93.59 ] ], [ [ 14.965262626650929, 55.164751119452632, 93.59 ], [ 14.965392521815929, 55.165155198735782, 93.95 ], [ 14.979424795777659, 55.173086149725158, 102.25 ], [ 14.990393471522344, 55.177425062382483, 71.36 ], [ 14.982801548245499, 55.183179941516038, 65.5 ], [ 14.996183555854536, 55.189721106155901, 12.32 ] ], [ [ 14.965262626650929, 55.164751119452632, 93.59 ], [ 14.968039248683052, 55.164626551118708, 94.42 ] ], [ [ 14.968039248683052, 55.164626551118708, 94.42 ], [ 14.968467870501454, 55.157047451680533, 98.75 ], [ 14.966748204694808, 55.153772011252165, 105.8 ], [ 14.967701273742245, 55.152149356955526, 112.3 ], [ 14.967811869639817, 55.149084352691801, 117.29 ], [ 14.965203049897339, 55.146777755260089, 114.59 ], [ 14.964743142536939, 55.143547026632369, 105.06 ], [ 14.966129997703506, 55.134966269409595, 113.28 ], [ 14.970144244799576, 55.131350375412637, 115.13 ] ], [ [ 14.968039248683052, 55.164626551118708, 94.42 ], [ 14.981082217150485, 55.163873948888423, 109.01 ], [ 14.991238940789026, 55.161195755884961, 94.7 ], [ 14.994170501230647, 55.160018184845981, 92.94 ], [ 14.9967966993689, 55.157971928377869, 94.67 ], [ 15.002908835959985, 55.150461619280151, 106.82 ], [ 15.004934827831953, 55.146989232443573, 110.31 ], [ 15.010828863867228, 55.141741988257351, 107.57 ] ], [ [ 14.969233803296643, 55.004468740040188, 8.39 ], [ 14.968782636631637, 55.006058774224854, 7.49 ], [ 14.969845426037976, 55.009908090633111, 15.8 ], [ 14.971792247748235, 55.012652295220583, 21.49 ], [ 14.973509609360521, 55.014008853429807, 26.68 ], [ 14.972771094404964, 55.017531922666819, 35.07 ], [ 14.974183615060811, 55.025937919868191, 39.61 ], [ 14.974651045440583, 55.026561056748584, 39.69 ] ], [ [ 14.974651045440583, 55.026561056748584, 39.69 ], [ 14.973982930123476, 55.026795192672004, 39.83 ] ], [ [ 14.973982930123476, 55.026795192672004, 39.83 ], [ 14.971712731304821, 55.027456648582998, 40.08 ], [ 14.964208854481713, 55.028665366186949, 36.69 ], [ 14.957828231388968, 55.029007878211992, 32.36 ] ], [ [ 14.970966423888353, 55.212067396595238, 6.26 ], [ 14.971327566650345, 55.211822775727988, 6.37 ] ], [ [ 14.971327566650345, 55.211822775727988, 6.37 ], [ 14.971263666198469, 55.211636395703664, 8.6 ] ], [ [ 14.971263666198469, 55.211636395703664, 8.6 ], [ 14.971950290032627, 55.2115103839159, 10.51 ] ], [ [ 14.971263666198469, 55.211636395703664, 8.6 ], [ 14.970771322684939, 55.210760251766175, 21.05 ], [ 14.971774691367548, 55.208414322626609, 43.4 ] ], [ [ 14.971327566650345, 55.211822775727988, 6.37 ], [ 14.971424962447948, 55.21217236027276, 2.99 ] ], [ [ 14.971424962447948, 55.21217236027276, 2.99 ], [ 14.969314218528064, 55.213755256424221, 4.03 ], [ 14.967498066253791, 55.214485359566034, 4.39 ], [ 14.965444691718165, 55.21367221578933, 7.82 ], [ 14.963789961371102, 55.21372603141949, 9.52 ], [ 14.965290081124079, 55.212980971476846, 21.32 ], [ 14.961632423890128, 55.212732019475538, 32.71 ], [ 14.959452734001909, 55.211839443479413, 47.25 ], [ 14.959468523940606, 55.211198091885635, 50.94 ] ], [ [ 14.971424962447948, 55.21217236027276, 2.99 ], [ 14.972209142844386, 55.21207099591004, 2.27 ] ], [ [ 14.973982930123476, 55.026795192672004, 39.83 ], [ 14.980824012938816, 55.029607002499709, 35.93 ], [ 14.992118386364432, 55.029827113118778, 35.95 ] ], [ [ 14.991053515625509, 55.001394362321861, 10.51 ], [ 14.992734706354755, 55.00520918689562, 10.21 ], [ 14.99121906544428, 55.007062887136904, 12.33 ], [ 14.992118107005261, 55.009247149492687, 14.07 ] ], [ [ 14.992118107005261, 55.009247149492687, 14.07 ], [ 14.991242281346233, 55.013407665994229, 16.65 ], [ 14.993328827182385, 55.020335369950431, 24.7 ], [ 14.993677332935919, 55.023724120511936, 34.36 ], [ 14.991379292498396, 55.025865236081472, 36.57 ] ], [ [ 14.991379292498396, 55.025865236081472, 36.57 ], [ 14.987663158606146, 55.026096220619088, 35.1 ], [ 14.977908106658706, 55.025999816250632, 38.14 ], [ 14.974651045440583, 55.026561056748584, 39.69 ] ], [ [ 14.992118107005261, 55.009247149492687, 14.07 ], [ 14.99354782522442, 55.009038190543933, 13.34 ], [ 14.99694364520073, 55.007712439667507, 11.69 ], [ 14.997871405476044, 55.006630256079944, 13.3 ], [ 14.99879650781147, 55.00334893526729, 11.52 ], [ 15.00005227317461, 55.002423636079193, 10.3 ], [ 15.002079055966441, 55.001867287028091, 10.49 ], [ 15.019753074553666, 55.002703973700505, 11.58 ], [ 15.029000802644575, 55.002768337372387, 9.21 ], [ 15.034301483594927, 55.003528046363492, 14.16 ], [ 15.037987636963638, 55.003635776644245, 15.2 ] ], [ [ 15.037987636963638, 55.003635776644245, 15.2 ], [ 15.058352681618471, 55.001199673035266, 13.44 ], [ 15.06893044434486, 55.00166692309012, 14.75 ], [ 15.074489329596251, 55.001630964460858, 14.69 ] ], [ [ 15.074489329596251, 55.001630964460858, 14.69 ], [ 15.079409292696795, 55.002553652104872, 13.49 ], [ 15.087587964223992, 55.005075417625157, 12.91 ], [ 15.091239811979833, 55.006981788372258, 12.14 ], [ 15.095102128253522, 55.010037905937729, 12.26 ], [ 15.095720705866883, 55.011043610243753, 11.18 ], [ 15.097195415323009, 55.022847397149285, 12.57 ] ], [ [ 15.03069750209395, 55.051584849880207, 46.68 ], [ 15.024724703887749, 55.049528198911759, 42.85 ], [ 15.022900606764937, 55.048464347312056, 42.32 ], [ 15.023011512761846, 55.047577573612621, 39.21 ], [ 15.022261846196217, 55.046819872370406, 39.19 ], [ 15.023034026568999, 55.044310059890975, 37.19 ], [ 15.016017542033197, 55.042208140990461, 34.43 ], [ 15.013985677122006, 55.040494698606132, 33.69 ], [ 15.010795495016966, 55.039537125142985, 35.43 ], [ 15.010811563476761, 55.038360745374533, 35.87 ], [ 15.007510615389847, 55.037626374434154, 37.55 ], [ 15.001322203861218, 55.033136523571841, 39.66 ], [ 15.000122886976971, 55.032915946944826, 40.35 ], [ 14.996314693240974, 55.030964723398441, 37.49 ], [ 14.992120677887215, 55.029865444264665, 35.97 ] ], [ [ 14.992120677887215, 55.029865444264665, 35.97 ], [ 14.992118386364432, 55.029827113118778, 35.95 ] ], [ [ 14.992120677887215, 55.029865444264665, 35.97 ], [ 14.992264887895828, 55.037281053869485, 40.11 ], [ 14.993510074423362, 55.041193258182176, 38.39 ], [ 14.993480750551139, 55.049900429873368, 44.47 ], [ 14.99298075174014, 55.051190105987786, 43.06 ], [ 14.990632125928215, 55.053560550647063, 46.36 ], [ 14.990089943963101, 55.057626048342676, 56.36 ], [ 14.992073551586264, 55.059943427193048, 61.61 ], [ 14.997959072503722, 55.065269646586856, 86.05 ], [ 14.999016905973967, 55.067345124297312, 90.58 ] ], [ [ 14.999016905973967, 55.067345124297312, 90.58 ], [ 14.993941849421175, 55.068166660796258, 89.75 ], [ 14.983216519313704, 55.069208741818926, 70.52 ], [ 14.974555490308038, 55.068950980616989, 67.36 ], [ 14.956691439000842, 55.069417699905507, 64.95 ], [ 14.936742949457942, 55.070552307668656, 69.5 ], [ 14.929046137105523, 55.071636426669237, 71.06 ] ], [ [ 15.014294898130832, 55.139662283789455, 106.23 ], [ 15.017390758754519, 55.138319474538562, 99.84 ] ], [ [ 15.017390758754519, 55.138319474538562, 99.84 ], [ 15.019322411192602, 55.138151179652439, 98.24 ], [ 15.030761645413776, 55.138898897463086, 96.09 ] ], [ [ 15.030761645413776, 55.138898897463086, 96.09 ], [ 15.046743888132733, 55.139947494598211, 76.97 ], [ 15.05088447982483, 55.139749992028264, 72.23 ] ], [ [ 15.05088447982483, 55.139749992028264, 72.23 ], [ 15.057149846837627, 55.138719513121025, 64.61 ], [ 15.067255063899111, 55.138956611421939, 58.9 ] ], [ [ 15.067255063899111, 55.138956611421939, 58.9 ], [ 15.079926649847911, 55.139404392829384, 48.36 ], [ 15.093930901578979, 55.137008150497074, 67.66 ], [ 15.106953065927268, 55.136719677065344, 38.51 ], [ 15.110861907169046, 55.137083350239195, 29.88 ] ], [ [ 15.110861907169046, 55.137083350239195, 29.88 ], [ 15.115516367505151, 55.137449417631039, 35.33 ], [ 15.13156124881009, 55.136349165030666, 26.3 ], [ 15.136282476516255, 55.136501626440186, 24.12 ] ], [ [ 15.136282476516255, 55.136501626440186, 24.12 ], [ 15.13677278234791, 55.136532763414742, 22.69 ] ], [ [ 15.13677278234791, 55.136532763414742, 22.69 ], [ 15.138479131407474, 55.136676029697959, 19.26 ] ], [ [ 15.138479131407474, 55.136676029697959, 19.26 ], [ 15.139714566053003, 55.137262862559915, 16.03 ] ], [ [ 15.139714566053003, 55.137262862559915, 16.03 ], [ 15.137343493785222, 55.137821777004405, 12.0 ], [ 15.133598715524686, 55.140730086141367, 22.8 ], [ 15.126508685206748, 55.141717844682674, 10.74 ], [ 15.121041597510276, 55.141728733061711, 13.6 ], [ 15.117645521910006, 55.142282093673451, 7.25 ], [ 15.114749121672276, 55.143147040374778, 10.19 ] ], [ [ 15.114749121672276, 55.143147040374778, 10.19 ], [ 15.111841447191631, 55.14406326489425, 10.8 ], [ 15.110589078427125, 55.145233068802618, 6.27 ], [ 15.088485802414379, 55.15016664745351, 5.8 ], [ 15.083300914306207, 55.152331685889237, 8.16 ], [ 15.078107161307313, 55.153563318676078, 10.23 ] ], [ [ 15.017166780131021, 55.064848626942819, 79.63 ], [ 15.021101468185426, 55.064363421538779, 72.04 ] ], [ [ 15.021101468185426, 55.064363421538779, 72.04 ], [ 15.019325686126294, 55.06474613049123, 74.28 ], [ 15.018359739904341, 55.064834384906852, 76.42 ], [ 15.017715475641843, 55.064858598194796, 77.9 ], [ 15.017166780131021, 55.064848626942819, 79.63 ] ], [ [ 15.017166780131021, 55.064848626942819, 79.63 ], [ 15.010724785238709, 55.065468654518746, 88.52 ], [ 14.999016905973967, 55.067345124297312, 90.58 ] ], [ [ 14.999016905973967, 55.067345124297312, 90.58 ], [ 15.001099782065088, 55.070226579250921, 97.92 ], [ 15.002769923888408, 55.073960791693665, 99.71 ], [ 15.005658482558191, 55.07836820659373, 100.23 ], [ 15.005639453398013, 55.079747756399634, 102.31 ], [ 15.00350335294765, 55.08657145487863, 112.2 ], [ 15.003932274531021, 55.089495081945053, 115.16 ], [ 15.005819090586362, 55.091812673566956, 113.98 ], [ 15.014713832804556, 55.097699691405261, 105.18 ], [ 15.016337203879692, 55.099900008126099, 103.03 ], [ 15.015532671082337, 55.116577917899264, 106.28 ], [ 15.019909048242869, 55.121134585731347, 98.23 ], [ 15.022908103666584, 55.123173266747187, 97.43 ], [ 15.027407626084255, 55.124125674725406, 98.58 ] ], [ [ 15.027407626084255, 55.124125674725406, 98.58 ], [ 15.023800973741972, 55.130723566633563, 89.76 ], [ 15.017384512916616, 55.136822857982445, 92.93 ], [ 15.017390758754519, 55.138319474538562, 99.84 ] ], [ [ 15.021101468185426, 55.064363421538779, 72.04 ], [ 15.024147248124065, 55.063571447064497, 68.02 ] ], [ [ 15.024147248124065, 55.063571447064497, 68.02 ], [ 15.029355133440472, 55.062620732538093, 62.93 ], [ 15.047809714753258, 55.060576180692181, 46.3 ], [ 15.066778554261237, 55.061193831501406, 52.55 ] ], [ [ 15.066778554261237, 55.061193831501406, 52.55 ], [ 15.07243728519717, 55.061433116606423, 54.03 ] ], [ [ 15.07243728519717, 55.061433116606423, 54.03 ], [ 15.068537780789176, 55.056871800993754, 47.4 ], [ 15.066114112799479, 55.055166512400056, 46.78 ], [ 15.062141112509515, 55.053111749311412, 46.3 ] ], [ [ 15.062141112509515, 55.053111749311412, 46.3 ], [ 15.048078605594997, 55.051048215907883, 47.07 ], [ 15.038066781833738, 55.052065052282416, 47.32 ], [ 15.03184523597514, 55.051685077766521, 46.97 ] ], [ [ 15.03184523597514, 55.051685077766521, 46.97 ], [ 15.032917513785046, 55.047578783290177, 39.89 ], [ 15.032269722956185, 55.041718865794131, 39.35 ], [ 15.034114761354108, 55.037080088282707, 38.31 ], [ 15.034970021743517, 55.032196291981776, 37.06 ], [ 15.036646208404555, 55.027742421190212, 29.51 ], [ 15.039881261711786, 55.027400004766406, 28.64 ], [ 15.039626288356422, 55.025030341507474, 25.94 ], [ 15.040095451607687, 55.024077617757797, 25.6 ], [ 15.041305339535272, 55.023134899093513, 26.75 ] ], [ [ 15.041305339535272, 55.023134899093513, 26.75 ], [ 15.007548443207799, 55.019783979075456, 22.02 ], [ 15.004546685720669, 55.020193486750479, 21.67 ], [ 15.001475966012194, 55.021196955530421, 25.89 ], [ 14.999158218679689, 55.022350814891816, 29.06 ], [ 14.995424115533824, 55.02505202413208, 36.1 ], [ 14.993530761381136, 55.025633777218339, 36.6 ], [ 14.991379292498396, 55.025865236081472, 36.57 ] ], [ [ 14.991379292498396, 55.025865236081472, 36.57 ], [ 14.992118386364432, 55.029827113118778, 35.95 ] ], [ [ 15.03069750209395, 55.051584849880207, 46.68 ], [ 15.028671493916958, 55.055325251882472, 41.15 ], [ 15.023584103639127, 55.056748876716028, 44.53 ], [ 15.023663206625526, 55.061836906648239, 62.04 ], [ 15.024147248124065, 55.063571447064497, 68.02 ] ], [ [ 15.027407626084255, 55.124125674725406, 98.58 ], [ 15.027545249794219, 55.124130817639823, 98.23 ], [ 15.028555630583064, 55.124089119356555, 98.1 ], [ 15.028903149132683, 55.124042242576884, 98.12 ], [ 15.031007215471725, 55.12314057117095, 102.25 ], [ 15.03309831039558, 55.119766392672396, 107.45 ], [ 15.035242177684349, 55.119420436268925, 106.62 ], [ 15.043774089138685, 55.116278351081853, 103.16 ] ], [ [ 15.030761645413776, 55.138898897463086, 96.09 ], [ 15.031719452121326, 55.135839532743532, 92.29 ], [ 15.045171602664768, 55.132769789359543, 76.4 ], [ 15.045673977800321, 55.130310811566112, 75.9 ], [ 15.052732483999016, 55.126494266488194, 81.75 ], [ 15.066307703208274, 55.124298468326067, 70.23 ], [ 15.080208784098051, 55.124298125415599, 62.44 ] ], [ [ 15.080208784098051, 55.124298125415599, 62.44 ], [ 15.082931736475301, 55.11852285640947, 65.74 ], [ 15.075544760031597, 55.111799514645142, 76.66 ], [ 15.073943470872159, 55.109490114065707, 75.43 ] ], [ [ 15.073943470872159, 55.109490114065707, 75.43 ], [ 15.070157224655615, 55.105435551046973, 81.48 ], [ 15.064271297783321, 55.085822186414809, 61.6 ], [ 15.064190486690192, 55.08315579090803, 73.06 ], [ 15.067150885273259, 55.080258323208263, 70.06 ], [ 15.070022033570993, 55.078959273452128, 65.33 ], [ 15.069640717089731, 55.075104454464395, 53.77 ], [ 15.066794636519086, 55.073521932164212, 53.8 ], [ 15.065816967291077, 55.070715708359394, 47.79 ], [ 15.066778554261237, 55.061193831501406, 52.55 ] ], [ [ 15.03069750209395, 55.051584849880207, 46.68 ], [ 15.03184523597514, 55.051685077766521, 46.97 ] ], [ [ 15.033177363550442, 55.166298471628451, 63.92 ], [ 15.05003248356811, 55.157329789654817, 74.59 ] ], [ [ 15.05003248356811, 55.157329789654817, 74.59 ], [ 15.051560203702543, 55.156418502837496, 63.96 ], [ 15.053754115242372, 55.154175024828071, 54.26 ], [ 15.055200236553647, 55.151677511792286, 49.16 ], [ 15.054376712332834, 55.149713341193426, 49.87 ], [ 15.056017196959738, 55.148526614476729, 54.18 ], [ 15.051980386396435, 55.142377052825481, 66.48 ], [ 15.05088447982483, 55.139749992028264, 72.23 ] ], [ [ 15.037987636963638, 55.003635776644245, 15.2 ], [ 15.039525647890736, 55.009066236786239, 17.55 ], [ 15.040337660765854, 55.019501697639704, 22.5 ], [ 15.042351034606323, 55.023228835981691, 25.46 ] ], [ [ 15.042351034606323, 55.023228835981691, 25.46 ], [ 15.041305339535272, 55.023134899093513, 26.75 ] ], [ [ 15.043029004263079, 55.115584522456643, 102.64 ], [ 15.055693286743365, 55.11202626884473, 94.3 ], [ 15.062542436433167, 55.111210724963925, 79.92 ], [ 15.066078000119113, 55.109597276760049, 73.25 ], [ 15.070666950389366, 55.109756929038596, 76.24 ], [ 15.073943470872159, 55.109490114065707, 75.43 ] ], [ [ 15.073943470872159, 55.109490114065707, 75.43 ], [ 15.090090983225831, 55.105679236270475, 70.17 ], [ 15.103175009096383, 55.101586032590198, 79.67 ], [ 15.106165422327081, 55.101513419134157, 80.71 ], [ 15.117792511523474, 55.103104288053693, 69.98 ] ], [ [ 15.117792511523474, 55.103104288053693, 69.98 ], [ 15.126099750267231, 55.094242620902271, 53.59 ], [ 15.131465008796079, 55.084589035312568, 49.84 ], [ 15.132174006276207, 55.081131166043782, 47.4 ], [ 15.131175389965321, 55.075985498137982, 24.82 ], [ 15.131535593394377, 55.072688872745736, 12.96 ] ], [ [ 15.131535593394377, 55.072688872745736, 12.96 ], [ 15.132143279127343, 55.069055405297135, 5.33 ] ], [ [ 15.132143279127343, 55.069055405297135, 5.33 ], [ 15.133614664688922, 55.067770139591737, 4.28 ] ], [ [ 15.133614664688922, 55.067770139591737, 4.28 ], [ 15.133461660660295, 55.067477675513274, 4.58 ] ], [ [ 15.133461660660295, 55.067477675513274, 4.58 ], [ 15.132513369065405, 55.064212795676255, 4.98 ] ], [ [ 15.132513369065405, 55.064212795676255, 4.98 ], [ 15.134618803810596, 55.063859177232914, 3.76 ] ], [ [ 15.134618803810596, 55.063859177232914, 3.76 ], [ 15.134847177211018, 55.063857802894411, 3.59 ] ], [ [ 15.134847177211018, 55.063857802894411, 3.59 ], [ 15.133774210761958, 55.062540271440461, 2.59 ] ], [ [ 15.133774210761958, 55.062540271440461, 2.59 ], [ 15.133267690432287, 55.062600908332762, 2.54 ] ], [ [ 15.133267690432287, 55.062600908332762, 2.54 ], [ 15.132753700173732, 55.062716125909006, 3.35 ] ], [ [ 15.132753700173732, 55.062716125909006, 3.35 ], [ 15.132598707017538, 55.062830661139223, 3.72 ] ], [ [ 15.132598707017538, 55.062830661139223, 3.72 ], [ 15.134401889908819, 55.063404809536472, 3.38 ], [ 15.134618803810596, 55.063859177232914, 3.76 ] ], [ [ 15.05003248356811, 55.157329789654817, 74.59 ], [ 15.055938712811017, 55.156744470697973, 43.75 ], [ 15.063090531844761, 55.156640789615743, 29.26 ], [ 15.066113045876913, 55.157247280743, 23.1 ], [ 15.067427716751494, 55.15722708740919, 20.95 ], [ 15.069956491094766, 55.15647326746091, 19.55 ], [ 15.071930326920906, 55.155158823444957, 11.95 ], [ 15.078107161307313, 55.153563318676078, 10.23 ] ], [ [ 15.057251587483478, 55.023318353803568, 21.43 ], [ 15.056102490643779, 55.026565051760628, 20.31 ], [ 15.061248838430771, 55.026839504781037, 18.86 ], [ 15.063917331402086, 55.027788615900675, 18.41 ], [ 15.061649881049528, 55.030883847650117, 23.5 ], [ 15.063700548389235, 55.032073729129458, 21.95 ], [ 15.064758955443077, 55.03332085877183, 21.37 ], [ 15.063751483123491, 55.038020608704208, 18.44 ] ], [ [ 15.063751483123491, 55.038020608704208, 18.44 ], [ 15.071233457597575, 55.038298707438344, 14.49 ], [ 15.073638318749987, 55.038751029707484, 13.16 ], [ 15.08656706046842, 55.038825067576049, 9.85 ] ], [ [ 15.08656706046842, 55.038825067576049, 9.85 ], [ 15.092485661013306, 55.038852926159066, 10.34 ], [ 15.091653118414985, 55.033670390773118, 10.34 ], [ 15.091939278833594, 55.03126492912245, 10.02 ], [ 15.095456230789765, 55.026741805354526, 10.78 ], [ 15.096593709962724, 55.02417422410489, 11.4 ] ], [ [ 15.096593709962724, 55.02417422410489, 11.4 ], [ 15.085906662102348, 55.02242815179055, 12.76 ], [ 15.07358827204548, 55.021594658936856, 19.59 ], [ 15.070489209149523, 55.021708074581994, 21.34 ], [ 15.057251587483478, 55.023318353803568, 21.43 ] ], [ [ 15.057251587483478, 55.023318353803568, 21.43 ], [ 15.050605934231571, 55.023813020733428, 21.02 ], [ 15.042351034606323, 55.023228835981691, 25.46 ] ], [ [ 15.062141112509515, 55.053111749311412, 46.3 ], [ 15.060458536480049, 55.043066142897203, 21.66 ], [ 15.063059213590872, 55.043049792918154, 19.89 ], [ 15.062513725076492, 55.037933745608157, 18.89 ], [ 15.063751483123491, 55.038020608704208, 18.44 ] ], [ [ 15.067255063899111, 55.138956611421939, 58.9 ], [ 15.066703796556522, 55.140534879240263, 58.53 ], [ 15.077515822850865, 55.152291938840932, 20.19 ], [ 15.078107161307313, 55.153563318676078, 10.23 ] ], [ [ 15.067255063899111, 55.138956611421939, 58.9 ], [ 15.068200992283455, 55.137273352924737, 56.18 ], [ 15.071116049532545, 55.133923453683039, 56.29 ], [ 15.08192534250915, 55.127146250457415, 64.72 ], [ 15.084997197289693, 55.125613927983139, 58.87 ] ], [ [ 15.084997197289693, 55.125613927983139, 58.87 ], [ 15.08312817579729, 55.124460453662095, 60.54 ], [ 15.082166495549274, 55.124291909067992, 60.54 ], [ 15.080208784098051, 55.124298125415599, 62.44 ] ], [ [ 15.07243728519717, 55.061433116606423, 54.03 ], [ 15.074811448897073, 55.061816488465638, 52.03 ] ], [ [ 15.074811448897073, 55.061816488465638, 52.03 ], [ 15.083248674818655, 55.063248683146007, 45.14 ], [ 15.097419890888068, 55.06373450624443, 32.64 ], [ 15.105474212779365, 55.06336858344811, 23.01 ], [ 15.113391878572664, 55.062016758091367, 16.08 ] ], [ [ 15.113391878572664, 55.062016758091367, 16.08 ], [ 15.113723939661659, 55.062115905858306, 16.02 ] ], [ [ 15.113723939661659, 55.062115905858306, 16.02 ], [ 15.114394331180145, 55.063678811047204, 15.15 ], [ 15.122321559356156, 55.062890381081893, 10.7 ] ], [ [ 15.122321559356156, 55.062890381081893, 10.7 ], [ 15.126356458754124, 55.063376755505665, 8.73 ] ], [ [ 15.126356458754124, 55.063376755505665, 8.73 ], [ 15.124465254344013, 55.064959463231091, 11.97 ], [ 15.124968372960915, 55.06706255114139, 13.53 ] ], [ [ 15.124968372960915, 55.06706255114139, 13.53 ], [ 15.125382757421873, 55.06847391822393, 15.53 ], [ 15.126267094952423, 55.069337693064092, 14.44 ] ], [ [ 15.126267094952423, 55.069337693064092, 14.44 ], [ 15.126254374675687, 55.069345808845178, 14.47 ] ], [ [ 15.126254374675687, 55.069345808845178, 14.47 ], [ 15.122634959033441, 55.071089209569877, 21.12 ], [ 15.112198631153717, 55.075042741852954, 30.78 ] ], [ [ 15.074489329596251, 55.001630964460858, 14.69 ], [ 15.078046444288296, 54.99340096515332, 4.0 ] ], [ [ 15.074811448897073, 55.061816488465638, 52.03 ], [ 15.085229546403498, 55.055908666276977, 26.34 ], [ 15.08646134557863, 55.051161050164893, 19.08 ], [ 15.088006967038018, 55.051235469728084, 17.13 ] ], [ [ 15.088006967038018, 55.051235469728084, 17.13 ], [ 15.094118994269154, 55.05206844560346, 12.76 ], [ 15.105675584503587, 55.057851135510617, 10.33 ], [ 15.117345362368503, 55.058038348410491, 8.4 ], [ 15.118835385481088, 55.0577339522114, 7.13 ], [ 15.120563659574357, 55.056814960454744, 4.7 ] ], [ [ 15.120563659574357, 55.056814960454744, 4.7 ], [ 15.118543850562871, 55.054560935701858, 2.68 ], [ 15.11972931940141, 55.050989439622974, 2.21 ] ], [ [ 15.11972931940141, 55.050989439622974, 2.21 ], [ 15.104366585422794, 55.042871121969164, 9.6 ] ], [ [ 15.104366585422794, 55.042871121969164, 9.6 ], [ 15.103558935678295, 55.042355592453625, 10.36 ], [ 15.10293442544377, 55.041640587751267, 10.42 ], [ 15.102221439219019, 55.039334342807841, 6.26 ] ], [ [ 15.102221439219019, 55.039334342807841, 6.26 ], [ 15.103072923799209, 55.041528901636475, 9.77 ], [ 15.104366585422794, 55.042871121969164, 9.6 ] ], [ [ 15.084997197289693, 55.125613927983139, 58.87 ], [ 15.100991547354395, 55.120916034559201, 60.58 ], [ 15.103767285131012, 55.119434551308835, 62.81 ], [ 15.106113725693724, 55.117108223865586, 63.51 ] ], [ [ 15.106113725693724, 55.117108223865586, 63.51 ], [ 15.112800396626168, 55.119034612377064, 55.97 ], [ 15.128460215535723, 55.127397635375544, 33.18 ], [ 15.133115410663564, 55.131396158695551, 38.38 ], [ 15.136344765992824, 55.133315215797836, 30.01 ], [ 15.136845196064867, 55.136229352902909, 23.65 ] ], [ [ 15.136845196064867, 55.136229352902909, 23.65 ], [ 15.13677278234791, 55.136532763414742, 22.69 ] ], [ [ 15.08656706046842, 55.038825067576049, 9.85 ], [ 15.087383288228372, 55.04546950874321, 11.51 ], [ 15.088540393982425, 55.048463398589845, 10.99 ], [ 15.088006967038018, 55.051235469728084, 17.13 ] ], [ [ 15.102221439219019, 55.039334342807841, 6.26 ], [ 15.102816225444613, 55.036127890312287, 3.23 ], [ 15.10867030394234, 55.029081648642354, 4.11 ], [ 15.109709672461467, 55.026154832680305, 3.43 ] ], [ [ 15.109709672461467, 55.026154832680305, 3.43 ], [ 15.107071531211581, 55.025890115495464, 3.79 ] ], [ [ 15.106113725693724, 55.117108223865586, 63.51 ], [ 15.109320926035124, 55.113294096590494, 57.93 ], [ 15.112355988832437, 55.107643781804065, 63.06 ], [ 15.117792511523474, 55.103104288053693, 69.98 ] ], [ [ 15.109709672461467, 55.026154832680305, 3.43 ], [ 15.10971592750438, 55.026102384088837, 3.44 ] ], [ [ 15.10971592750438, 55.026102384088837, 3.44 ], [ 15.118893674027893, 55.026464542248249, 3.14 ], [ 15.118809869693107, 55.025627428471566, 3.22 ], [ 15.117919539445831, 55.025016946615395, 2.33 ], [ 15.111775573902023, 55.023660862484604, 6.5 ] ], [ [ 15.111775573902023, 55.023660862484604, 6.5 ], [ 15.109977185596605, 55.023441490069835, 6.92 ], [ 15.104703125744866, 55.02364528494585, 8.74 ], [ 15.097195415323009, 55.022847397149285, 12.57 ] ], [ [ 15.10971592750438, 55.026102384088837, 3.44 ], [ 15.109720678802759, 55.026063697413882, 3.44 ] ], [ [ 15.109720678802759, 55.026063697413882, 3.44 ], [ 15.107071531211581, 55.025890115495464, 3.79 ] ], [ [ 15.107071531211581, 55.025890115495464, 3.79 ], [ 15.096593709962724, 55.02417422410489, 11.4 ] ], [ [ 15.096593709962724, 55.02417422410489, 11.4 ], [ 15.097195415323009, 55.022847397149285, 12.57 ] ], [ [ 15.109720678802759, 55.026063697413882, 3.44 ], [ 15.110104801666953, 55.025196070507626, 3.9 ], [ 15.111775573902023, 55.023660862484604, 6.5 ] ], [ [ 15.114749121672276, 55.143147040374778, 10.19 ], [ 15.110861907169046, 55.137083350239195, 29.88 ] ], [ [ 15.113618600563674, 55.061794456821502, 16.19 ], [ 15.114007083489772, 55.060823777282209, 14.07 ], [ 15.120145979622666, 55.058713392178497, 7.36 ] ], [ [ 15.120145979622666, 55.058713392178497, 7.36 ], [ 15.122314693639076, 55.057815642885473, 4.89 ] ], [ [ 15.122314693639076, 55.057815642885473, 4.89 ], [ 15.120563659574357, 55.056814960454744, 4.7 ] ], [ [ 15.113723939661659, 55.062115905858306, 16.02 ], [ 15.113917122864084, 55.061886650359298, 16.01 ] ], [ [ 15.113917122864084, 55.061886650359298, 16.01 ], [ 15.113815258112124, 55.061819661601078, 16.07 ], [ 15.113719488049719, 55.061795585163367, 16.12 ], [ 15.113653513102461, 55.061792967451325, 16.13 ], [ 15.113618600563674, 55.061794456821502, 16.19 ] ], [ [ 15.113618600563674, 55.061794456821502, 16.19 ], [ 15.113391878572664, 55.062016758091367, 16.08 ] ], [ [ 15.113917122864084, 55.061886650359298, 16.01 ], [ 15.121195891749309, 55.059947644786625, 9.61 ] ], [ [ 15.121195891749309, 55.059947644786625, 9.61 ], [ 15.120145979622666, 55.058713392178497, 7.36 ] ], [ [ 15.121195891749309, 55.059947644786625, 9.61 ], [ 15.1242248605806, 55.059007619766582, 4.93 ] ], [ [ 15.1242248605806, 55.059007619766582, 4.93 ], [ 15.124387206366571, 55.059020853162437, 4.88 ] ], [ [ 15.124387206366571, 55.059020853162437, 4.88 ], [ 15.12440735874396, 55.05893636735734, 4.89 ] ], [ [ 15.12440735874396, 55.05893636735734, 4.89 ], [ 15.127719275678162, 55.057532567248472, 2.21 ] ], [ [ 15.127719275678162, 55.057532567248472, 2.21 ], [ 15.129241625047623, 55.058868496680141, 3.39 ], [ 15.132854327331639, 55.059439277406653, 2.96 ], [ 15.133125112811426, 55.060445310919135, 2.85 ], [ 15.13269861091568, 55.062089338275747, 3.28 ] ], [ [ 15.13269861091568, 55.062089338275747, 3.28 ], [ 15.132760425626504, 55.062089364663507, 3.45 ], [ 15.132887260427298, 55.062087814620362, 3.11 ], [ 15.133094933356489, 55.062087579921332, 2.95 ] ], [ [ 15.133094933356489, 55.062087579921332, 2.95 ], [ 15.133267690432287, 55.062600908332762, 2.54 ] ], [ [ 15.122321559356156, 55.062890381081893, 10.7 ], [ 15.12525985745714, 55.061177403578803, 6.74 ] ], [ [ 15.12525985745714, 55.061177403578803, 6.74 ], [ 15.12636356983425, 55.060626439372641, 5.47 ] ], [ [ 15.12636356983425, 55.060626439372641, 5.47 ], [ 15.126621284276748, 55.061124589166802, 4.91 ] ], [ [ 15.126621284276748, 55.061124589166802, 4.91 ], [ 15.125433926446666, 55.061215885745071, 6.41 ], [ 15.12525985745714, 55.061177403578803, 6.74 ] ], [ [ 15.1242248605806, 55.059007619766582, 4.93 ], [ 15.124244554947975, 55.058924237617219, 4.94 ] ], [ [ 15.124244554947975, 55.058924237617219, 4.94 ], [ 15.122314693639076, 55.057815642885473, 4.89 ] ], [ [ 15.124244554947975, 55.058924237617219, 4.94 ], [ 15.124322840179399, 55.058908939983098, 4.92 ], [ 15.12440735874396, 55.05893636735734, 4.89 ] ], [ [ 15.124968372960915, 55.06706255114139, 13.53 ], [ 15.127650306657307, 55.066535075087742, 6.08 ], [ 15.128384426037142, 55.066632244171707, 5.44 ] ], [ [ 15.128384426037142, 55.066632244171707, 5.44 ], [ 15.126267094952423, 55.069337693064092, 14.44 ] ], [ [ 15.126254374675687, 55.069345808845178, 14.47 ], [ 15.127455106892207, 55.070664966363836, 14.09 ], [ 15.129786079206886, 55.072240989789655, 14.35 ], [ 15.131535593394377, 55.072688872745736, 12.96 ] ], [ [ 15.126356458754124, 55.063376755505665, 8.73 ], [ 15.127230082906239, 55.06350218096614, 8.13 ] ], [ [ 15.127230082906239, 55.06350218096614, 8.13 ], [ 15.130194943657376, 55.063925867967065, 6.54 ] ], [ [ 15.130194943657376, 55.063925867967065, 6.54 ], [ 15.132500543648776, 55.064179318169394, 4.97 ] ], [ [ 15.132500543648776, 55.064179318169394, 4.97 ], [ 15.132513369065405, 55.064212795676255, 4.98 ] ], [ [ 15.12636356983425, 55.060626439372641, 5.47 ], [ 15.126828572041687, 55.060385143758246, 4.96 ] ], [ [ 15.126828572041687, 55.060385143758246, 4.96 ], [ 15.124387206366571, 55.059020853162437, 4.88 ] ], [ [ 15.126621284276748, 55.061124589166802, 4.91 ], [ 15.127693827343727, 55.063302635517658, 7.76 ] ], [ [ 15.127693827343727, 55.063302635517658, 7.76 ], [ 15.127230082906239, 55.06350218096614, 8.13 ] ], [ [ 15.126621284276748, 55.061124589166802, 4.91 ], [ 15.127835837217328, 55.06098355468513, 4.84 ] ], [ [ 15.127835837217328, 55.06098355468513, 4.84 ], [ 15.128760423135965, 55.061365893422419, 4.17 ], [ 15.129970265834563, 55.062660700285917, 4.99 ] ], [ [ 15.129970265834563, 55.062660700285917, 4.99 ], [ 15.130350957003701, 55.06304890128451, 6.59 ] ], [ [ 15.130350957003701, 55.06304890128451, 6.59 ], [ 15.130779824221538, 55.063272501357481, 6.53 ] ], [ [ 15.130779824221538, 55.063272501357481, 6.53 ], [ 15.130194943657376, 55.063925867967065, 6.54 ] ], [ [ 15.126828572041687, 55.060385143758246, 4.96 ], [ 15.127835837217328, 55.06098355468513, 4.84 ] ], [ [ 15.127693827343727, 55.063302635517658, 7.76 ], [ 15.130350957003701, 55.06304890128451, 6.59 ] ], [ [ 15.127719275678162, 55.057532567248472, 2.21 ], [ 15.128086064401552, 55.057326210923925, 2.34 ] ], [ [ 15.128086064401552, 55.057326210923925, 2.34 ], [ 15.121800786405917, 55.052223548764374, 2.57 ], [ 15.11972931940141, 55.050989439622974, 2.21 ] ], [ [ 15.128384426037142, 55.066632244171707, 5.44 ], [ 15.132143279127343, 55.069055405297135, 5.33 ] ], [ [ 15.128384426037142, 55.066632244171707, 5.44 ], [ 15.130194943657376, 55.063925867967065, 6.54 ] ], [ [ 15.129970265834563, 55.062660700285917, 4.99 ], [ 15.132697213883619, 55.062108857944494, 3.28 ] ], [ [ 15.132697213883619, 55.062108857944494, 3.28 ], [ 15.132753700173732, 55.062716125909006, 3.35 ] ], [ [ 15.130779824221538, 55.063272501357481, 6.53 ], [ 15.131819209431336, 55.063127494849105, 4.41 ] ], [ [ 15.131819209431336, 55.063127494849105, 4.41 ], [ 15.132500543648776, 55.064179318169394, 4.97 ] ], [ [ 15.131819209431336, 55.063127494849105, 4.41 ], [ 15.132598707017538, 55.062830661139223, 3.72 ] ], [ [ 15.132697213883619, 55.062108857944494, 3.28 ], [ 15.13269861091568, 55.062089338275747, 3.28 ] ], [ [ 15.133094933356489, 55.062087579921332, 2.95 ], [ 15.133191540336997, 55.062087377747147, 2.93 ], [ 15.13339747265047, 55.062090111873452, 2.9 ], [ 15.133654749231971, 55.062090069443904, 3.0 ] ], [ [ 15.133654749231971, 55.062090069443904, 3.0 ], [ 15.133926804059744, 55.060227032030731, 2.97 ], [ 15.133229515724153, 55.059124160167258, 2.99 ], [ 15.132024346955843, 55.058476280286101, 2.99 ], [ 15.128086064401552, 55.057326210923925, 2.34 ] ], [ [ 15.133461660660295, 55.067477675513274, 4.58 ], [ 15.13424234465125, 55.067309713175007, 3.19 ], [ 15.134379678263103, 55.066574239304053, 2.91 ], [ 15.135196559453474, 55.066577770751323, 2.99 ] ], [ [ 15.135196559453474, 55.066577770751323, 2.99 ], [ 15.134847177211018, 55.063857802894411, 3.59 ] ], [ [ 15.133774210761958, 55.062540271440461, 2.59 ], [ 15.133654749231971, 55.062090069443904, 3.0 ] ], [ [ 15.135196559453474, 55.066577770751323, 2.99 ], [ 15.136268272379784, 55.068809554415132, 2.68 ] ], [ [ 15.136268272379784, 55.068809554415132, 2.68 ], [ 15.134428665026618, 55.068571234229147, 3.76 ], [ 15.133614664688922, 55.067770139591737, 4.28 ] ], [ [ 15.136282476516255, 55.136501626440186, 24.12 ], [ 15.136845196064867, 55.136229352902909, 23.65 ] ], [ [ 15.136268272379784, 55.068809554415132, 2.68 ], [ 15.140910307433431, 55.07236554115439, 5.96 ], [ 15.142436020510212, 55.074657321735437, 10.1 ], [ 15.145628064086299, 55.075927620763295, 13.55 ], [ 15.149855819590204, 55.079211831824296, 14.86 ], [ 15.151064675391764, 55.080551981832819, 14.18 ], [ 15.151794501370334, 55.082186089014151, 14.03 ], [ 15.151428601226167, 55.087942360663376, 21.09 ], [ 15.150329817154676, 55.092698479843207, 16.89 ], [ 15.142998544809039, 55.103155932494168, 19.99 ] ], [ [ 15.142998544809039, 55.103155932494168, 19.99 ], [ 15.140258783283388, 55.106653062681794, 25.23 ], [ 15.140136923367395, 55.109738947346671, 18.72 ] ], [ [ 15.140136923367395, 55.109738947346671, 18.72 ], [ 15.142355640326508, 55.112945658698735, 5.86 ] ], [ [ 15.142355640326508, 55.112945658698735, 5.86 ], [ 15.143518162562181, 55.114981938191676, 6.43 ], [ 15.144477187041037, 55.12020422536397, 8.42 ], [ 15.146744266157919, 55.125110242928478, 14.99 ], [ 15.147258473985358, 55.129075716851879, 17.7 ], [ 15.145594487525965, 55.132732943740116, 7.19 ], [ 15.144595894129397, 55.133549477824076, 6.82 ], [ 15.145045793199817, 55.13474777838907, 6.28 ], [ 15.143986854176317, 55.135501538720874, 4.46 ] ], [ [ 15.143986854176317, 55.135501538720874, 4.46 ], [ 15.144181672958288, 55.136857898307049, 5.89 ], [ 15.140381159938478, 55.137394472811259, 14.11 ] ], [ [ 15.140381159938478, 55.137394472811259, 14.11 ], [ 15.139714566053003, 55.137262862559915, 16.03 ] ], [ [ 15.138479131407474, 55.136676029697959, 19.26 ], [ 15.14094644428468, 55.136436196357742, 9.83 ] ], [ [ 15.14094644428468, 55.136436196357742, 9.83 ], [ 15.141579048506019, 55.135577340060223, 8.5 ], [ 15.143986854176317, 55.135501538720874, 4.46 ] ], [ [ 15.140136923367395, 55.109738947346671, 18.72 ], [ 15.141808217274118, 55.109569121543757, 11.28 ], [ 15.143313632477428, 55.10900967970494, 3.17 ] ], [ [ 15.143313632477428, 55.10900967970494, 3.17 ], [ 15.144130230784658, 55.105751573767797, 11.07 ], [ 15.143907810870905, 55.103876890388271, 16.57 ], [ 15.142998544809039, 55.103155932494168, 19.99 ] ], [ [ 15.140381159938478, 55.137394472811259, 14.11 ], [ 15.14094644428468, 55.136436196357742, 9.83 ] ], [ [ 15.142355640326508, 55.112945658698735, 5.86 ], [ 15.143248304099025, 55.112181584598616, 4.87 ], [ 15.143313632477428, 55.10900967970494, 3.17 ] ] ] } }
]
}
