{
"type": "FeatureCollection",
"name": "underground_cables",
"crs": { "type": "name", "properties": { "name": "urn:ogc:def:crs:OGC:1.3:CRS84" } },
"features": [
{ "type": "Feature", "properties": { "layer_id": "underground_cables", "label": "Underground cables", "tooltip_title": "Source layer: Underground cables", "tooltip_body": "Secondary connection source.<br>Clipped to Bornholm DAGI Landsdel landmass." }, "geometry": { "type": "LineString", "coordinates": [ [ 14.7306778, 55.089887, 0.0 ], [ 14.7139801, 55.0979538, 0.0 ] ] } },
{ "type": "Feature", "properties": { "layer_id": "underground_cables", "label": "Underground cables", "tooltip_title": "Source layer: Underground cables", "tooltip_body": "Secondary connection source.<br>Clipped to Bornholm DAGI Landsdel landmass." }, "geometry": { "type": "LineString", "coordinates": [ [ 14.6964578, 55.0924891, 0.0 ], [ 14.7306655, 55.0897135, 0.0 ] ] } },
{ "type": "Feature", "properties": { "layer_id": "underground_cables", "label": "Underground cables", "tooltip_title": "Source layer: Underground cables", "tooltip_body": "Secondary connection source.<br>Clipped to Bornholm DAGI Landsdel landmass." }, "geometry": { "type": "LineString", "coordinates": [ [ 14.7387255, 55.1068012, 0.0 ], [ 14.7139712, 55.0980096, 0.0 ] ] } },
{ "type": "Feature", "properties": { "layer_id": "underground_cables", "label": "Underground cables", "tooltip_title": "Source layer: Underground cables", "tooltip_body": "Secondary connection source.<br>Clipped to Bornholm DAGI Landsdel landmass." }, "geometry": { "type": "LineString", "coordinates": [ [ 14.708029, 55.1111648, 0.0 ], [ 14.7139255, 55.0979959, 0.0 ] ] } },
{ "type": "Feature", "properties": { "layer_id": "underground_cables", "label": "Underground cables", "tooltip_title": "Source layer: Underground cables", "tooltip_body": "Secondary connection source.<br>Clipped to Bornholm DAGI Landsdel landmass." }, "geometry": { "type": "LineString", "coordinates": [ [ 14.7138303, 55.0979336, 0.0 ], [ 14.6963843, 55.0925992, 0.0 ] ] } },
{ "type": "Feature", "properties": { "layer_id": "underground_cables", "label": "Underground cables", "tooltip_title": "Source layer: Underground cables", "tooltip_body": "Secondary connection source.<br>Clipped to Bornholm DAGI Landsdel landmass." }, "geometry": { "type": "LineString", "coordinates": [ [ 14.7052761, 55.1732131, 0.0 ], [ 14.7234531, 55.1701684, 0.0 ] ] } },
{ "type": "Feature", "properties": { "layer_id": "underground_cables", "label": "Underground cables", "tooltip_title": "Source layer: Underground cables", "tooltip_body": "Secondary connection source.<br>Clipped to Bornholm DAGI Landsdel landmass." }, "geometry": { "type": "LineString", "coordinates": [ [ 15.1362529, 55.134908099999983, 0.0 ], [ 15.1362967, 55.1348111, 0.0 ] ] } },
{ "type": "Feature", "properties": { "layer_id": "underground_cables", "label": "Underground cables", "tooltip_title": "Source layer: Underground cables", "tooltip_body": "Secondary connection source.<br>Clipped to Bornholm DAGI Landsdel landmass." }, "geometry": { "type": "LineString", "coordinates": [ [ 15.1361625, 55.134894, 0.0 ], [ 15.1362529, 55.134908099999983, 0.0 ] ] } },
{ "type": "Feature", "properties": { "layer_id": "underground_cables", "label": "Underground cables", "tooltip_title": "Source layer: Underground cables", "tooltip_body": "Secondary connection source.<br>Clipped to Bornholm DAGI Landsdel landmass." }, "geometry": { "type": "LineString", "coordinates": [ [ 15.0561294, 55.0223482, 0.0 ], [ 15.0561227, 55.0223185, 0.0 ] ] } },
{ "type": "Feature", "properties": { "layer_id": "underground_cables", "label": "Underground cables", "tooltip_title": "Source layer: Underground cables", "tooltip_body": "Secondary connection source.<br>Clipped to Bornholm DAGI Landsdel landmass." }, "geometry": { "type": "LineString", "coordinates": [ [ 15.1161708, 55.0630619, 0.0 ], [ 15.0661317, 55.0632171, 0.0 ] ] } },
{ "type": "Feature", "properties": { "layer_id": "underground_cables", "label": "Underground cables", "tooltip_title": "Source layer: Underground cables", "tooltip_body": "Secondary connection source.<br>Clipped to Bornholm DAGI Landsdel landmass." }, "geometry": { "type": "LineString", "coordinates": [ [ 14.9529916, 55.1991218, 0.0 ], [ 14.9351051, 55.153429899999985, 0.0 ] ] } },
{ "type": "Feature", "properties": { "layer_id": "underground_cables", "label": "Underground cables", "tooltip_title": "Source layer: Underground cables", "tooltip_body": "Secondary connection source.<br>Clipped to Bornholm DAGI Landsdel landmass." }, "geometry": { "type": "LineString", "coordinates": [ [ 15.1161818, 55.0631235, 0.0 ], [ 15.1362128, 55.1349018, 0.0 ] ] } },
{ "type": "Feature", "properties": { "layer_id": "underground_cables", "label": "Underground cables", "tooltip_title": "Source layer: Underground cables", "tooltip_body": "Secondary connection source.<br>Clipped to Bornholm DAGI Landsdel landmass." }, "geometry": { "type": "LineString", "coordinates": [ [ 15.0560144, 55.0223527, 0.0 ], [ 15.0561294, 55.0223482, 0.0 ] ] } },
{ "type": "Feature", "properties": { "layer_id": "underground_cables", "label": "Underground cables", "tooltip_title": "Source layer: Underground cables", "tooltip_body": "Secondary connection source.<br>Clipped to Bornholm DAGI Landsdel landmass." }, "geometry": { "type": "LineString", "coordinates": [ [ 15.1361625, 55.134894, 0.0 ], [ 15.0510694, 55.1000945, 0.0 ] ] } },
{ "type": "Feature", "properties": { "layer_id": "underground_cables", "label": "Underground cables", "tooltip_title": "Source layer: Underground cables", "tooltip_body": "Secondary connection source.<br>Clipped to Bornholm DAGI Landsdel landmass." }, "geometry": { "type": "LineString", "coordinates": [ [ 14.9529916, 55.1991218, 0.0 ], [ 14.952994, 55.199178899999986, 0.0 ] ] } },
{ "type": "Feature", "properties": { "layer_id": "underground_cables", "label": "Underground cables", "tooltip_title": "Source layer: Underground cables", "tooltip_body": "Secondary connection source.<br>Clipped to Bornholm DAGI Landsdel landmass." }, "geometry": { "type": "LineString", "coordinates": [ [ 14.952994, 55.199178899999986, 0.0 ], [ 14.953116, 55.1991733, 0.0 ] ] } },
{ "type": "Feature", "properties": { "layer_id": "underground_cables", "label": "Underground cables", "tooltip_title": "Source layer: Underground cables", "tooltip_body": "Secondary connection source.<br>Clipped to Bornholm DAGI Landsdel landmass." }, "geometry": { "type": "LineString", "coordinates": [ [ 15.0561227, 55.0223185, 0.0 ], [ 15.0661471, 55.0630389, 0.0 ] ] } },
{ "type": "Feature", "properties": { "layer_id": "underground_cables", "label": "Underground cables", "tooltip_title": "Source layer: Underground cables", "tooltip_body": "Secondary connection source.<br>Clipped to Bornholm DAGI Landsdel landmass." }, "geometry": { "type": "LineString", "coordinates": [ [ 14.8007001, 55.2684591, 0.0 ], [ 14.7957039, 55.2321935, 0.0 ] ] } }
]
}
